<?xml version="1.0" encoding="UTF-8" standalone="no" ?>
<gpx xmlns="http://www.topografix.com/GPX/1/1" xmlns:xsi="http://www.w3.org/2001/XMLSchema-instance" xsi:schemaLocation="http://www.topografix.com/GPX/1/1 http://www.topografix.com/GPX/1/1/gpx.xsd" version="1.1" creator="VisuGPX - https://www.visugpx.com">
  <metadata>
    <name>Challenge AGGLO VTT OK BRUT</name>
    <desc><![CDATA[Canisy + Saint Ebremond de Bonfossé]]></desc>
  </metadata>
  <trk>
    <name><![CDATA[Agneaux]]></name>
    <desc><![CDATA[]]></desc>
    <extensions>
      <line xmlns="http://www.topografix.com/GPX/gpx_style/0/2">
        <color>0000FF</color>
        <opacity>1</opacity>
        <width>4</width>
          <extensions>
            <sens>1</sens>
          </extensions>
      </line>
    </extensions>
    <trkseg>
      <trkpt lat="49.11971" lon="-1.11219">
        <ele>39.84</ele>
      </trkpt>
      <trkpt lat="49.11971" lon="-1.11209">
        <ele>39.02</ele>
      </trkpt>
      <trkpt lat="49.11967" lon="-1.11196">
        <ele>39.02</ele>
      </trkpt>
      <trkpt lat="49.11984" lon="-1.11195">
        <ele>38.42</ele>
      </trkpt>
      <trkpt lat="49.12001" lon="-1.11181">
        <ele>38.22</ele>
      </trkpt>
      <trkpt lat="49.1201" lon="-1.11172">
        <ele>38.19</ele>
      </trkpt>
      <trkpt lat="49.12018" lon="-1.11149">
        <ele>38.32</ele>
      </trkpt>
      <trkpt lat="49.12026" lon="-1.11117">
        <ele>38.85</ele>
      </trkpt>
      <trkpt lat="49.1203" lon="-1.11104">
        <ele>38.85</ele>
      </trkpt>
      <trkpt lat="49.12037" lon="-1.11094">
        <ele>39.07</ele>
      </trkpt>
      <trkpt lat="49.12071" lon="-1.11053">
        <ele>40.03</ele>
      </trkpt>
      <trkpt lat="49.12077" lon="-1.11039">
        <ele>40.03</ele>
      </trkpt>
      <trkpt lat="49.1208" lon="-1.11026">
        <ele>40.24</ele>
      </trkpt>
      <trkpt lat="49.12081" lon="-1.10987">
        <ele>40.54</ele>
      </trkpt>
      <trkpt lat="49.12094" lon="-1.10989">
        <ele>39.29</ele>
      </trkpt>
      <trkpt lat="49.12114" lon="-1.10996">
        <ele>37.69</ele>
      </trkpt>
      <trkpt lat="49.12128" lon="-1.10995">
        <ele>36.36</ele>
      </trkpt>
      <trkpt lat="49.12158" lon="-1.10985">
        <ele>34.64</ele>
      </trkpt>
      <trkpt lat="49.12172" lon="-1.10989">
        <ele>32.67</ele>
      </trkpt>
      <trkpt lat="49.12217" lon="-1.11016">
        <ele>28.01</ele>
      </trkpt>
      <trkpt lat="49.12218" lon="-1.11018">
        <ele>27.92</ele>
      </trkpt>
      <trkpt lat="49.12222" lon="-1.11027">
        <ele>27.46</ele>
      </trkpt>
      <trkpt lat="49.12217" lon="-1.11077">
        <ele>27.16</ele>
      </trkpt>
      <trkpt lat="49.12205" lon="-1.11108">
        <ele>26.11</ele>
      </trkpt>
      <trkpt lat="49.12169" lon="-1.11175">
        <ele>26.01</ele>
      </trkpt>
      <trkpt lat="49.1216" lon="-1.11195">
        <ele>25.69</ele>
      </trkpt>
      <trkpt lat="49.12148" lon="-1.11212">
        <ele>24.03</ele>
      </trkpt>
      <trkpt lat="49.12128" lon="-1.11226">
        <ele>20.57</ele>
      </trkpt>
      <trkpt lat="49.12123" lon="-1.11264">
        <ele>22.44</ele>
      </trkpt>
      <trkpt lat="49.12061" lon="-1.1125">
        <ele>32.26</ele>
      </trkpt>
      <trkpt lat="49.12049" lon="-1.1125">
        <ele>34.34</ele>
      </trkpt>
      <trkpt lat="49.12036" lon="-1.11257">
        <ele>35.92</ele>
      </trkpt>
      <trkpt lat="49.11993" lon="-1.11304">
        <ele>39.58</ele>
      </trkpt>
      <trkpt lat="49.11989" lon="-1.11302">
        <ele>39.58</ele>
      </trkpt>
      <trkpt lat="49.11977" lon="-1.11306">
        <ele>40.38</ele>
      </trkpt>
      <trkpt lat="49.11969" lon="-1.11321">
        <ele>40.58</ele>
      </trkpt>
      <trkpt lat="49.11961" lon="-1.11331">
        <ele>41.18</ele>
      </trkpt>
      <trkpt lat="49.11928" lon="-1.11346">
        <ele>42.34</ele>
      </trkpt>
      <trkpt lat="49.11902" lon="-1.11365">
        <ele>44.96</ele>
      </trkpt>
      <trkpt lat="49.11884" lon="-1.11375">
        <ele>45.56</ele>
      </trkpt>
      <trkpt lat="49.11861" lon="-1.11374">
        <ele>47.17</ele>
      </trkpt>
      <trkpt lat="49.1186" lon="-1.11402">
        <ele>47.68</ele>
      </trkpt>
      <trkpt lat="49.11857" lon="-1.11408">
        <ele>47.68</ele>
      </trkpt>
      <trkpt lat="49.11853" lon="-1.11412">
        <ele>48.05</ele>
      </trkpt>
      <trkpt lat="49.11824" lon="-1.11414">
        <ele>48.82</ele>
      </trkpt>
      <trkpt lat="49.11768" lon="-1.11411">
        <ele>52.86</ele>
      </trkpt>
      <trkpt lat="49.11765" lon="-1.1148">
        <ele>54.4</ele>
      </trkpt>
      <trkpt lat="49.11746" lon="-1.11548">
        <ele>55.04</ele>
      </trkpt>
      <trkpt lat="49.11728" lon="-1.11589">
        <ele>55.7</ele>
      </trkpt>
      <trkpt lat="49.11682" lon="-1.11542">
        <ele>59.06</ele>
      </trkpt>
      <trkpt lat="49.11663" lon="-1.11558">
        <ele>59.64</ele>
      </trkpt>
      <trkpt lat="49.11658" lon="-1.11674">
        <ele>59.81</ele>
      </trkpt>
      <trkpt lat="49.1167" lon="-1.1168">
        <ele>59.77</ele>
      </trkpt>
      <trkpt lat="49.11667" lon="-1.11721">
        <ele>59.79</ele>
      </trkpt>
      <trkpt lat="49.11654" lon="-1.11809">
        <ele>60.49</ele>
      </trkpt>
      <trkpt lat="49.11644" lon="-1.11849">
        <ele>61.23</ele>
      </trkpt>
      <trkpt lat="49.11636" lon="-1.11846">
        <ele>61.33</ele>
      </trkpt>
      <trkpt lat="49.11624" lon="-1.11846">
        <ele>61.33</ele>
      </trkpt>
      <trkpt lat="49.11621" lon="-1.11853">
        <ele>61.28</ele>
      </trkpt>
      <trkpt lat="49.11617" lon="-1.11874">
        <ele>61.16</ele>
      </trkpt>
      <trkpt lat="49.11619" lon="-1.11917">
        <ele>60.84</ele>
      </trkpt>
      <trkpt lat="49.1161" lon="-1.12024">
        <ele>59.05</ele>
      </trkpt>
      <trkpt lat="49.1161" lon="-1.12023">
        <ele>59.07</ele>
      </trkpt>
      <trkpt lat="49.11673" lon="-1.1203">
        <ele>56.82</ele>
      </trkpt>
      <trkpt lat="49.11735" lon="-1.12036">
        <ele>54.35</ele>
      </trkpt>
      <trkpt lat="49.11748" lon="-1.12046">
        <ele>54.03</ele>
      </trkpt>
      <trkpt lat="49.11754" lon="-1.12053">
        <ele>53.69</ele>
      </trkpt>
      <trkpt lat="49.11784" lon="-1.12106">
        <ele>52.38</ele>
      </trkpt>
      <trkpt lat="49.11783" lon="-1.12179">
        <ele>50.77</ele>
      </trkpt>
      <trkpt lat="49.11777" lon="-1.12191">
        <ele>50.5</ele>
      </trkpt>
      <trkpt lat="49.11756" lon="-1.12224">
        <ele>49.49</ele>
      </trkpt>
      <trkpt lat="49.11753" lon="-1.12311">
        <ele>47.44</ele>
      </trkpt>
      <trkpt lat="49.1175" lon="-1.12321">
        <ele>47.3</ele>
      </trkpt>
      <trkpt lat="49.11803" lon="-1.12331">
        <ele>41.17</ele>
      </trkpt>
      <trkpt lat="49.11823" lon="-1.12388">
        <ele>39.99</ele>
      </trkpt>
      <trkpt lat="49.11849" lon="-1.12444">
        <ele>38.04</ele>
      </trkpt>
      <trkpt lat="49.11875" lon="-1.125">
        <ele>34.84</ele>
      </trkpt>
      <trkpt lat="49.11916" lon="-1.12541">
        <ele>35.09</ele>
      </trkpt>
      <trkpt lat="49.11939" lon="-1.12602">
        <ele>38.66</ele>
      </trkpt>
      <trkpt lat="49.11947" lon="-1.1268">
        <ele>43.82</ele>
      </trkpt>
      <trkpt lat="49.11952" lon="-1.12792">
        <ele>48.93</ele>
      </trkpt>
      <trkpt lat="49.11956" lon="-1.12795">
        <ele>49.33</ele>
      </trkpt>
      <trkpt lat="49.12012" lon="-1.12785">
        <ele>54.04</ele>
      </trkpt>
      <trkpt lat="49.12017" lon="-1.12785">
        <ele>54.04</ele>
      </trkpt>
      <trkpt lat="49.1202" lon="-1.12788">
        <ele>54.04</ele>
      </trkpt>
      <trkpt lat="49.12022" lon="-1.12795">
        <ele>54.04</ele>
      </trkpt>
      <trkpt lat="49.12037" lon="-1.12917">
        <ele>60.61</ele>
      </trkpt>
      <trkpt lat="49.12038" lon="-1.12945">
        <ele>60.98</ele>
      </trkpt>
      <trkpt lat="49.12029" lon="-1.12977">
        <ele>62.16</ele>
      </trkpt>
      <trkpt lat="49.12022" lon="-1.13015">
        <ele>63.01</ele>
      </trkpt>
      <trkpt lat="49.12065" lon="-1.13067">
        <ele>68.04</ele>
      </trkpt>
      <trkpt lat="49.12081" lon="-1.13077">
        <ele>69.26</ele>
      </trkpt>
      <trkpt lat="49.12135" lon="-1.1309">
        <ele>73.47</ele>
      </trkpt>
      <trkpt lat="49.12169" lon="-1.13107">
        <ele>75.07</ele>
      </trkpt>
      <trkpt lat="49.12222" lon="-1.1313">
        <ele>76.51</ele>
      </trkpt>
      <trkpt lat="49.12268" lon="-1.13169">
        <ele>76.92</ele>
      </trkpt>
      <trkpt lat="49.12317" lon="-1.13216">
        <ele>76.44</ele>
      </trkpt>
      <trkpt lat="49.12366" lon="-1.13263">
        <ele>73.25</ele>
      </trkpt>
      <trkpt lat="49.12382" lon="-1.13283">
        <ele>71.95</ele>
      </trkpt>
      <trkpt lat="49.12418" lon="-1.13342">
        <ele>66.31</ele>
      </trkpt>
      <trkpt lat="49.12454" lon="-1.134">
        <ele>64.2</ele>
      </trkpt>
      <trkpt lat="49.12481" lon="-1.13432">
        <ele>62.88</ele>
      </trkpt>
      <trkpt lat="49.12517" lon="-1.13487">
        <ele>60.06</ele>
      </trkpt>
      <trkpt lat="49.12545" lon="-1.13568">
        <ele>56.32</ele>
      </trkpt>
      <trkpt lat="49.12564" lon="-1.13632">
        <ele>51.89</ele>
      </trkpt>
      <trkpt lat="49.12572" lon="-1.13684">
        <ele>49.1</ele>
      </trkpt>
      <trkpt lat="49.12569" lon="-1.13746">
        <ele>47.07</ele>
      </trkpt>
      <trkpt lat="49.12568" lon="-1.13746">
        <ele>47.13</ele>
      </trkpt>
      <trkpt lat="49.12515" lon="-1.1375">
        <ele>53.53</ele>
      </trkpt>
      <trkpt lat="49.12462" lon="-1.13754">
        <ele>57.27</ele>
      </trkpt>
      <trkpt lat="49.124" lon="-1.13751">
        <ele>64.44</ele>
      </trkpt>
      <trkpt lat="49.12372" lon="-1.13754">
        <ele>67.18</ele>
      </trkpt>
      <trkpt lat="49.12342" lon="-1.13748">
        <ele>69.06</ele>
      </trkpt>
      <trkpt lat="49.12314" lon="-1.13717">
        <ele>74.87</ele>
      </trkpt>
      <trkpt lat="49.12247" lon="-1.13698">
        <ele>79.63</ele>
      </trkpt>
      <trkpt lat="49.1218" lon="-1.13679">
        <ele>81.55</ele>
      </trkpt>
      <trkpt lat="49.12136" lon="-1.1366">
        <ele>81.86</ele>
      </trkpt>
      <trkpt lat="49.12144" lon="-1.13712">
        <ele>81.7</ele>
      </trkpt>
      <trkpt lat="49.12165" lon="-1.13765">
        <ele>81.02</ele>
      </trkpt>
      <trkpt lat="49.122" lon="-1.13825">
        <ele>78.6</ele>
      </trkpt>
      <trkpt lat="49.12218" lon="-1.13859">
        <ele>77.63</ele>
      </trkpt>
      <trkpt lat="49.12225" lon="-1.13907">
        <ele>74.39</ele>
      </trkpt>
      <trkpt lat="49.12255" lon="-1.14025">
        <ele>71</ele>
      </trkpt>
      <trkpt lat="49.12284" lon="-1.14132">
        <ele>71</ele>
      </trkpt>
      <trkpt lat="49.12312" lon="-1.14239">
        <ele>70.36</ele>
      </trkpt>
      <trkpt lat="49.12353" lon="-1.14354">
        <ele>63.51</ele>
      </trkpt>
      <trkpt lat="49.12379" lon="-1.14443">
        <ele>58.57</ele>
      </trkpt>
      <trkpt lat="49.12383" lon="-1.1447">
        <ele>55.54</ele>
      </trkpt>
      <trkpt lat="49.12382" lon="-1.14517">
        <ele>49.3</ele>
      </trkpt>
      <trkpt lat="49.12381" lon="-1.14519">
        <ele>49.17</ele>
      </trkpt>
      <trkpt lat="49.12378" lon="-1.14575">
        <ele>43.05</ele>
      </trkpt>
      <trkpt lat="49.12364" lon="-1.14615">
        <ele>39.21</ele>
      </trkpt>
      <trkpt lat="49.1232" lon="-1.1468">
        <ele>33.12</ele>
      </trkpt>
      <trkpt lat="49.12267" lon="-1.1473">
        <ele>26.37</ele>
      </trkpt>
      <trkpt lat="49.12249" lon="-1.14764">
        <ele>23.7</ele>
      </trkpt>
      <trkpt lat="49.12252" lon="-1.14789">
        <ele>22.79</ele>
      </trkpt>
      <trkpt lat="49.12199" lon="-1.14778">
        <ele>23.89</ele>
      </trkpt>
      <trkpt lat="49.12143" lon="-1.14773">
        <ele>24.75</ele>
      </trkpt>
      <trkpt lat="49.12086" lon="-1.14768">
        <ele>26.32</ele>
      </trkpt>
      <trkpt lat="49.12059" lon="-1.14778">
        <ele>27.03</ele>
      </trkpt>
      <trkpt lat="49.11993" lon="-1.14829">
        <ele>30.71</ele>
      </trkpt>
      <trkpt lat="49.11961" lon="-1.14843">
        <ele>30.98</ele>
      </trkpt>
      <trkpt lat="49.1196" lon="-1.14843">
        <ele>30.96</ele>
      </trkpt>
      <trkpt lat="49.12045" lon="-1.14866">
        <ele>43.1</ele>
      </trkpt>
      <trkpt lat="49.12052" lon="-1.1488">
        <ele>44.94</ele>
      </trkpt>
      <trkpt lat="49.12059" lon="-1.14903">
        <ele>46.54</ele>
      </trkpt>
      <trkpt lat="49.12113" lon="-1.14947">
        <ele>49.69</ele>
      </trkpt>
      <trkpt lat="49.12167" lon="-1.14991">
        <ele>53.31</ele>
      </trkpt>
      <trkpt lat="49.12154" lon="-1.15046">
        <ele>58.15</ele>
      </trkpt>
      <trkpt lat="49.12137" lon="-1.151">
        <ele>59.98</ele>
      </trkpt>
      <trkpt lat="49.12084" lon="-1.15208">
        <ele>66.81</ele>
      </trkpt>
      <trkpt lat="49.12071" lon="-1.15219">
        <ele>67.34</ele>
      </trkpt>
      <trkpt lat="49.1206" lon="-1.15219">
        <ele>67.34</ele>
      </trkpt>
      <trkpt lat="49.12052" lon="-1.15207">
        <ele>68.36</ele>
      </trkpt>
      <trkpt lat="49.12039" lon="-1.15185">
        <ele>69.11</ele>
      </trkpt>
      <trkpt lat="49.1203" lon="-1.15185">
        <ele>69.22</ele>
      </trkpt>
      <trkpt lat="49.12024" lon="-1.15191">
        <ele>69.46</ele>
      </trkpt>
      <trkpt lat="49.11977" lon="-1.15273">
        <ele>74.04</ele>
      </trkpt>
      <trkpt lat="49.11929" lon="-1.15354">
        <ele>77.15</ele>
      </trkpt>
      <trkpt lat="49.11942" lon="-1.15378">
        <ele>77.97</ele>
      </trkpt>
      <trkpt lat="49.11953" lon="-1.15408">
        <ele>78.79</ele>
      </trkpt>
      <trkpt lat="49.11959" lon="-1.15439">
        <ele>79.24</ele>
      </trkpt>
      <trkpt lat="49.11961" lon="-1.15483">
        <ele>79.66</ele>
      </trkpt>
      <trkpt lat="49.11951" lon="-1.15547">
        <ele>80.02</ele>
      </trkpt>
      <trkpt lat="49.11949" lon="-1.15574">
        <ele>80.31</ele>
      </trkpt>
      <trkpt lat="49.11953" lon="-1.15598">
        <ele>80.68</ele>
      </trkpt>
      <trkpt lat="49.1196" lon="-1.15616">
        <ele>80.68</ele>
      </trkpt>
      <trkpt lat="49.12011" lon="-1.15688">
        <ele>83.59</ele>
      </trkpt>
      <trkpt lat="49.1201" lon="-1.15688">
        <ele>83.61</ele>
      </trkpt>
      <trkpt lat="49.11997" lon="-1.15693">
        <ele>84.16</ele>
      </trkpt>
      <trkpt lat="49.11963" lon="-1.15683">
        <ele>85.05</ele>
      </trkpt>
      <trkpt lat="49.1194" lon="-1.15679">
        <ele>85.72</ele>
      </trkpt>
      <trkpt lat="49.11927" lon="-1.15679">
        <ele>86.02</ele>
      </trkpt>
      <trkpt lat="49.11908" lon="-1.15683">
        <ele>86.24</ele>
      </trkpt>
      <trkpt lat="49.11874" lon="-1.15695">
        <ele>86.99</ele>
      </trkpt>
      <trkpt lat="49.11857" lon="-1.1566">
        <ele>86.43</ele>
      </trkpt>
      <trkpt lat="49.1181" lon="-1.15574">
        <ele>88.76</ele>
      </trkpt>
      <trkpt lat="49.11762" lon="-1.15479">
        <ele>89.13</ele>
      </trkpt>
      <trkpt lat="49.11728" lon="-1.15418">
        <ele>89.55</ele>
      </trkpt>
      <trkpt lat="49.11717" lon="-1.15405">
        <ele>89.62</ele>
      </trkpt>
      <trkpt lat="49.11664" lon="-1.15351">
        <ele>88.12</ele>
      </trkpt>
      <trkpt lat="49.11622" lon="-1.153">
        <ele>86.13</ele>
      </trkpt>
      <trkpt lat="49.11621" lon="-1.15301">
        <ele>86.13</ele>
      </trkpt>
      <trkpt lat="49.11582" lon="-1.15372">
        <ele>87.38</ele>
      </trkpt>
      <trkpt lat="49.11543" lon="-1.15443">
        <ele>87.68</ele>
      </trkpt>
      <trkpt lat="49.11519" lon="-1.15469">
        <ele>87.16</ele>
      </trkpt>
      <trkpt lat="49.11472" lon="-1.15506">
        <ele>86.33</ele>
      </trkpt>
      <trkpt lat="49.11455" lon="-1.15527">
        <ele>85.26</ele>
      </trkpt>
      <trkpt lat="49.11417" lon="-1.15635">
        <ele>81.89</ele>
      </trkpt>
      <trkpt lat="49.1141" lon="-1.15645">
        <ele>81.55</ele>
      </trkpt>
      <trkpt lat="49.11419" lon="-1.1567">
        <ele>83.65</ele>
      </trkpt>
      <trkpt lat="49.11457" lon="-1.15751">
        <ele>88.3</ele>
      </trkpt>
      <trkpt lat="49.11495" lon="-1.15832">
        <ele>92.27</ele>
      </trkpt>
      <trkpt lat="49.11503" lon="-1.15863">
        <ele>93.67</ele>
      </trkpt>
      <trkpt lat="49.11507" lon="-1.1589">
        <ele>94.34</ele>
      </trkpt>
      <trkpt lat="49.11507" lon="-1.15961">
        <ele>96.55</ele>
      </trkpt>
      <trkpt lat="49.11509" lon="-1.15992">
        <ele>97.22</ele>
      </trkpt>
      <trkpt lat="49.11513" lon="-1.16022">
        <ele>97.96</ele>
      </trkpt>
      <trkpt lat="49.11533" lon="-1.16105">
        <ele>98.04</ele>
      </trkpt>
      <trkpt lat="49.11553" lon="-1.16187">
        <ele>97.5</ele>
      </trkpt>
      <trkpt lat="49.11515" lon="-1.16237">
        <ele>98.63</ele>
      </trkpt>
      <trkpt lat="49.11477" lon="-1.16286">
        <ele>99.86</ele>
      </trkpt>
      <trkpt lat="49.11466" lon="-1.16307">
        <ele>100.42</ele>
      </trkpt>
      <trkpt lat="49.11434" lon="-1.16401">
        <ele>101.79</ele>
      </trkpt>
      <trkpt lat="49.11432" lon="-1.164">
        <ele>101.79</ele>
      </trkpt>
      <trkpt lat="49.11434" lon="-1.164">
        <ele>101.78</ele>
      </trkpt>
      <trkpt lat="49.11362" lon="-1.16335">
        <ele>101.21</ele>
      </trkpt>
      <trkpt lat="49.11289" lon="-1.16269">
        <ele>97.19</ele>
      </trkpt>
      <trkpt lat="49.11282" lon="-1.16276">
        <ele>96.67</ele>
      </trkpt>
      <trkpt lat="49.11271" lon="-1.16314">
        <ele>95.54</ele>
      </trkpt>
      <trkpt lat="49.11261" lon="-1.16308">
        <ele>95.42</ele>
      </trkpt>
      <trkpt lat="49.11252" lon="-1.16323">
        <ele>95.12</ele>
      </trkpt>
      <trkpt lat="49.11229" lon="-1.16314">
        <ele>94.7</ele>
      </trkpt>
      <trkpt lat="49.11202" lon="-1.16287">
        <ele>94.18</ele>
      </trkpt>
      <trkpt lat="49.11186" lon="-1.1628">
        <ele>94.4</ele>
      </trkpt>
      <trkpt lat="49.11144" lon="-1.16329">
        <ele>95.98</ele>
      </trkpt>
      <trkpt lat="49.11115" lon="-1.1634">
        <ele>97.39</ele>
      </trkpt>
      <trkpt lat="49.11089" lon="-1.16344">
        <ele>96.12</ele>
      </trkpt>
      <trkpt lat="49.1107" lon="-1.16334">
        <ele>96.12</ele>
      </trkpt>
      <trkpt lat="49.1105" lon="-1.16245">
        <ele>89.57</ele>
      </trkpt>
      <trkpt lat="49.1103" lon="-1.16156">
        <ele>83.19</ele>
      </trkpt>
      <trkpt lat="49.10993" lon="-1.16178">
        <ele>82.08</ele>
      </trkpt>
      <trkpt lat="49.1095" lon="-1.16222">
        <ele>79.9</ele>
      </trkpt>
      <trkpt lat="49.1091" lon="-1.1629">
        <ele>75.78</ele>
      </trkpt>
      <trkpt lat="49.10878" lon="-1.16358">
        <ele>72</ele>
      </trkpt>
      <trkpt lat="49.10873" lon="-1.16358">
        <ele>71.85</ele>
      </trkpt>
      <trkpt lat="49.10834" lon="-1.16337">
        <ele>71.71</ele>
      </trkpt>
      <trkpt lat="49.10831" lon="-1.16317">
        <ele>73.81</ele>
      </trkpt>
      <trkpt lat="49.10826" lon="-1.16262">
        <ele>78.87</ele>
      </trkpt>
      <trkpt lat="49.10828" lon="-1.16178">
        <ele>79.14</ele>
      </trkpt>
      <trkpt lat="49.10821" lon="-1.16168">
        <ele>79.14</ele>
      </trkpt>
      <trkpt lat="49.10816" lon="-1.16167">
        <ele>79.14</ele>
      </trkpt>
      <trkpt lat="49.10777" lon="-1.16239">
        <ele>84.04</ele>
      </trkpt>
      <trkpt lat="49.10737" lon="-1.1631">
        <ele>88.39</ele>
      </trkpt>
      <trkpt lat="49.10713" lon="-1.1634">
        <ele>90.5</ele>
      </trkpt>
      <trkpt lat="49.10703" lon="-1.16347">
        <ele>90.9</ele>
      </trkpt>
      <trkpt lat="49.1069" lon="-1.16348">
        <ele>91.37</ele>
      </trkpt>
      <trkpt lat="49.10678" lon="-1.16344">
        <ele>91.37</ele>
      </trkpt>
      <trkpt lat="49.10672" lon="-1.16334">
        <ele>92.24</ele>
      </trkpt>
      <trkpt lat="49.10663" lon="-1.1633">
        <ele>92.38</ele>
      </trkpt>
      <trkpt lat="49.10615" lon="-1.16386">
        <ele>93.26</ele>
      </trkpt>
      <trkpt lat="49.10567" lon="-1.16442">
        <ele>93.42</ele>
      </trkpt>
      <trkpt lat="49.10532" lon="-1.16459">
        <ele>95.49</ele>
      </trkpt>
      <trkpt lat="49.10493" lon="-1.16473">
        <ele>96.97</ele>
      </trkpt>
      <trkpt lat="49.1043" lon="-1.16504">
        <ele>98.66</ele>
      </trkpt>
      <trkpt lat="49.10367" lon="-1.16534">
        <ele>98.12</ele>
      </trkpt>
      <trkpt lat="49.10348" lon="-1.16539">
        <ele>97.69</ele>
      </trkpt>
      <trkpt lat="49.1036" lon="-1.16644">
        <ele>97.51</ele>
      </trkpt>
      <trkpt lat="49.10372" lon="-1.1675">
        <ele>97.4</ele>
      </trkpt>
      <trkpt lat="49.10384" lon="-1.16855">
        <ele>97.36</ele>
      </trkpt>
      <trkpt lat="49.10396" lon="-1.1696">
        <ele>97.9</ele>
      </trkpt>
      <trkpt lat="49.10445" lon="-1.16951">
        <ele>96.5</ele>
      </trkpt>
      <trkpt lat="49.10475" lon="-1.16949">
        <ele>94.73</ele>
      </trkpt>
      <trkpt lat="49.10534" lon="-1.16961">
        <ele>91.78</ele>
      </trkpt>
      <trkpt lat="49.10543" lon="-1.16971">
        <ele>92.15</ele>
      </trkpt>
      <trkpt lat="49.10551" lon="-1.16992">
        <ele>93.29</ele>
      </trkpt>
      <trkpt lat="49.10558" lon="-1.17062">
        <ele>96.21</ele>
      </trkpt>
      <trkpt lat="49.10558" lon="-1.17064">
        <ele>96.26</ele>
      </trkpt>
      <trkpt lat="49.10573" lon="-1.17053">
        <ele>96.65</ele>
      </trkpt>
      <trkpt lat="49.10643" lon="-1.17031">
        <ele>99.87</ele>
      </trkpt>
      <trkpt lat="49.10713" lon="-1.17008">
        <ele>103.17</ele>
      </trkpt>
      <trkpt lat="49.10756" lon="-1.17001">
        <ele>103.92</ele>
      </trkpt>
      <trkpt lat="49.10831" lon="-1.16963">
        <ele>104.89</ele>
      </trkpt>
      <trkpt lat="49.10905" lon="-1.16924">
        <ele>105.82</ele>
      </trkpt>
      <trkpt lat="49.10901" lon="-1.16906">
        <ele>105.79</ele>
      </trkpt>
      <trkpt lat="49.10952" lon="-1.16867">
        <ele>105.28</ele>
      </trkpt>
      <trkpt lat="49.11003" lon="-1.16828">
        <ele>105.16</ele>
      </trkpt>
      <trkpt lat="49.11047" lon="-1.16775">
        <ele>105.37</ele>
      </trkpt>
      <trkpt lat="49.11091" lon="-1.16722">
        <ele>106.25</ele>
      </trkpt>
      <trkpt lat="49.11081" lon="-1.16708">
        <ele>106.06</ele>
      </trkpt>
      <trkpt lat="49.11117" lon="-1.16658">
        <ele>106.25</ele>
      </trkpt>
      <trkpt lat="49.11152" lon="-1.16608">
        <ele>106.04</ele>
      </trkpt>
      <trkpt lat="49.11201" lon="-1.16516">
        <ele>104.47</ele>
      </trkpt>
      <trkpt lat="49.11202" lon="-1.16516">
        <ele>104.46</ele>
      </trkpt>
      <trkpt lat="49.11241" lon="-1.16585">
        <ele>105.57</ele>
      </trkpt>
      <trkpt lat="49.1128" lon="-1.16653">
        <ele>105.42</ele>
      </trkpt>
      <trkpt lat="49.11322" lon="-1.16717">
        <ele>103.83</ele>
      </trkpt>
      <trkpt lat="49.11367" lon="-1.16767">
        <ele>102.2</ele>
      </trkpt>
      <trkpt lat="49.11343" lon="-1.16825">
        <ele>100.11</ele>
      </trkpt>
      <trkpt lat="49.11371" lon="-1.16928">
        <ele>97.94</ele>
      </trkpt>
      <trkpt lat="49.11415" lon="-1.16907">
        <ele>98.04</ele>
      </trkpt>
      <trkpt lat="49.11458" lon="-1.16886">
        <ele>98.13</ele>
      </trkpt>
      <trkpt lat="49.11491" lon="-1.16876">
        <ele>97.99</ele>
      </trkpt>
      <trkpt lat="49.11564" lon="-1.16868">
        <ele>97.06</ele>
      </trkpt>
      <trkpt lat="49.11636" lon="-1.16859">
        <ele>95.84</ele>
      </trkpt>
      <trkpt lat="49.11687" lon="-1.16844">
        <ele>94.73</ele>
      </trkpt>
      <trkpt lat="49.11738" lon="-1.16829">
        <ele>93.34</ele>
      </trkpt>
      <trkpt lat="49.11803" lon="-1.16815">
        <ele>93.73</ele>
      </trkpt>
      <trkpt lat="49.11883" lon="-1.16783">
        <ele>95.16</ele>
      </trkpt>
      <trkpt lat="49.11962" lon="-1.1675">
        <ele>92.9</ele>
      </trkpt>
      <trkpt lat="49.12021" lon="-1.16712">
        <ele>90.66</ele>
      </trkpt>
      <trkpt lat="49.12093" lon="-1.1666">
        <ele>88.52</ele>
      </trkpt>
      <trkpt lat="49.12165" lon="-1.16607">
        <ele>85.71</ele>
      </trkpt>
      <trkpt lat="49.12212" lon="-1.16571">
        <ele>84.32</ele>
      </trkpt>
      <trkpt lat="49.1223" lon="-1.16567">
        <ele>84.32</ele>
      </trkpt>
      <trkpt lat="49.12258" lon="-1.16568">
        <ele>83.25</ele>
      </trkpt>
      <trkpt lat="49.12277" lon="-1.16575">
        <ele>82.79</ele>
      </trkpt>
      <trkpt lat="49.12309" lon="-1.16591">
        <ele>82.17</ele>
      </trkpt>
      <trkpt lat="49.12344" lon="-1.16612">
        <ele>81.59</ele>
      </trkpt>
      <trkpt lat="49.12426" lon="-1.16649">
        <ele>80.13</ele>
      </trkpt>
      <trkpt lat="49.12453" lon="-1.16657">
        <ele>79.77</ele>
      </trkpt>
      <trkpt lat="49.12498" lon="-1.16673">
        <ele>78.77</ele>
      </trkpt>
      <trkpt lat="49.12512" lon="-1.16662">
        <ele>78.18</ele>
      </trkpt>
      <trkpt lat="49.12521" lon="-1.16639">
        <ele>78.18</ele>
      </trkpt>
      <trkpt lat="49.12558" lon="-1.16581">
        <ele>77.94</ele>
      </trkpt>
      <trkpt lat="49.12582" lon="-1.16561">
        <ele>77.94</ele>
      </trkpt>
      <trkpt lat="49.12603" lon="-1.16522">
        <ele>77.5</ele>
      </trkpt>
      <trkpt lat="49.12632" lon="-1.16531">
        <ele>76.97</ele>
      </trkpt>
      <trkpt lat="49.12609" lon="-1.16436">
        <ele>75.18</ele>
      </trkpt>
      <trkpt lat="49.12585" lon="-1.1634">
        <ele>72.36</ele>
      </trkpt>
      <trkpt lat="49.12581" lon="-1.16296">
        <ele>71.35</ele>
      </trkpt>
      <trkpt lat="49.12551" lon="-1.16212">
        <ele>66.95</ele>
      </trkpt>
      <trkpt lat="49.12521" lon="-1.16127">
        <ele>64.22</ele>
      </trkpt>
      <trkpt lat="49.12502" lon="-1.16046">
        <ele>61.66</ele>
      </trkpt>
      <trkpt lat="49.125" lon="-1.16019">
        <ele>61.21</ele>
      </trkpt>
      <trkpt lat="49.12506" lon="-1.15995">
        <ele>60.94</ele>
      </trkpt>
      <trkpt lat="49.12505" lon="-1.15974">
        <ele>61.08</ele>
      </trkpt>
      <trkpt lat="49.12478" lon="-1.15849">
        <ele>68.03</ele>
      </trkpt>
      <trkpt lat="49.12475" lon="-1.15772">
        <ele>70</ele>
      </trkpt>
      <trkpt lat="49.12472" lon="-1.15695">
        <ele>72.87</ele>
      </trkpt>
      <trkpt lat="49.12471" lon="-1.15695">
        <ele>72.92</ele>
      </trkpt>
      <trkpt lat="49.12524" lon="-1.15671">
        <ele>70.82</ele>
      </trkpt>
      <trkpt lat="49.12577" lon="-1.15646">
        <ele>66.79</ele>
      </trkpt>
      <trkpt lat="49.12606" lon="-1.15636">
        <ele>66.79</ele>
      </trkpt>
      <trkpt lat="49.12658" lon="-1.15635">
        <ele>64.71</ele>
      </trkpt>
      <trkpt lat="49.12679" lon="-1.15629">
        <ele>63.41</ele>
      </trkpt>
      <trkpt lat="49.1276" lon="-1.15597">
        <ele>59.48</ele>
      </trkpt>
      <trkpt lat="49.1284" lon="-1.15564">
        <ele>58.61</ele>
      </trkpt>
      <trkpt lat="49.12866" lon="-1.15557">
        <ele>58.57</ele>
      </trkpt>
      <trkpt lat="49.12873" lon="-1.15551">
        <ele>58.63</ele>
      </trkpt>
      <trkpt lat="49.12878" lon="-1.15531">
        <ele>58.61</ele>
      </trkpt>
      <trkpt lat="49.12873" lon="-1.15527">
        <ele>57.97</ele>
      </trkpt>
      <trkpt lat="49.12868" lon="-1.15517">
        <ele>57.56</ele>
      </trkpt>
      <trkpt lat="49.12853" lon="-1.15446">
        <ele>51.43</ele>
      </trkpt>
      <trkpt lat="49.12838" lon="-1.15341">
        <ele>43.31</ele>
      </trkpt>
      <trkpt lat="49.12823" lon="-1.15235">
        <ele>34.23</ele>
      </trkpt>
      <trkpt lat="49.12826" lon="-1.15215">
        <ele>33.26</ele>
      </trkpt>
      <trkpt lat="49.12836" lon="-1.15185">
        <ele>31.6</ele>
      </trkpt>
      <trkpt lat="49.12856" lon="-1.15147">
        <ele>30.31</ele>
      </trkpt>
      <trkpt lat="49.12884" lon="-1.15104">
        <ele>28.12</ele>
      </trkpt>
      <trkpt lat="49.1292" lon="-1.15059">
        <ele>26.35</ele>
      </trkpt>
      <trkpt lat="49.12972" lon="-1.15009">
        <ele>22.81</ele>
      </trkpt>
      <trkpt lat="49.13029" lon="-1.14977">
        <ele>17.85</ele>
      </trkpt>
      <trkpt lat="49.13086" lon="-1.14944">
        <ele>14.95</ele>
      </trkpt>
      <trkpt lat="49.13138" lon="-1.14927">
        <ele>12.27</ele>
      </trkpt>
      <trkpt lat="49.13145" lon="-1.1492">
        <ele>11.86</ele>
      </trkpt>
      <trkpt lat="49.13146" lon="-1.14913">
        <ele>11.86</ele>
      </trkpt>
      <trkpt lat="49.13139" lon="-1.14866">
        <ele>11.22</ele>
      </trkpt>
      <trkpt lat="49.13134" lon="-1.14819">
        <ele>12.58</ele>
      </trkpt>
      <trkpt lat="49.1312" lon="-1.1473">
        <ele>12.39</ele>
      </trkpt>
      <trkpt lat="49.13122" lon="-1.14724">
        <ele>11.25</ele>
      </trkpt>
      <trkpt lat="49.13133" lon="-1.1472">
        <ele>10.63</ele>
      </trkpt>
      <trkpt lat="49.13179" lon="-1.14715">
        <ele>9.95</ele>
      </trkpt>
      <trkpt lat="49.13225" lon="-1.1471">
        <ele>9.65</ele>
      </trkpt>
      <trkpt lat="49.13246" lon="-1.14704">
        <ele>9.36</ele>
      </trkpt>
      <trkpt lat="49.13249" lon="-1.14708">
        <ele>9.36</ele>
      </trkpt>
      <trkpt lat="49.1324" lon="-1.14666">
        <ele>9.51</ele>
      </trkpt>
      <trkpt lat="49.13232" lon="-1.14642">
        <ele>9.69</ele>
      </trkpt>
      <trkpt lat="49.13216" lon="-1.14615">
        <ele>9.69</ele>
      </trkpt>
      <trkpt lat="49.13191" lon="-1.14582">
        <ele>9.93</ele>
      </trkpt>
      <trkpt lat="49.13151" lon="-1.14517">
        <ele>9.95</ele>
      </trkpt>
      <trkpt lat="49.13129" lon="-1.14486">
        <ele>10.15</ele>
      </trkpt>
      <trkpt lat="49.13104" lon="-1.14442">
        <ele>9.95</ele>
      </trkpt>
      <trkpt lat="49.13091" lon="-1.14408">
        <ele>9.56</ele>
      </trkpt>
      <trkpt lat="49.13074" lon="-1.14375">
        <ele>9.67</ele>
      </trkpt>
      <trkpt lat="49.13017" lon="-1.1429">
        <ele>10.02</ele>
      </trkpt>
      <trkpt lat="49.12997" lon="-1.14253">
        <ele>9.94</ele>
      </trkpt>
      <trkpt lat="49.12988" lon="-1.14215">
        <ele>9.7</ele>
      </trkpt>
      <trkpt lat="49.12983" lon="-1.14178">
        <ele>9.61</ele>
      </trkpt>
      <trkpt lat="49.12982" lon="-1.14144">
        <ele>9.61</ele>
      </trkpt>
      <trkpt lat="49.12991" lon="-1.14093">
        <ele>9.51</ele>
      </trkpt>
      <trkpt lat="49.12998" lon="-1.14039">
        <ele>9.75</ele>
      </trkpt>
      <trkpt lat="49.13" lon="-1.13998">
        <ele>9.69</ele>
      </trkpt>
      <trkpt lat="49.12998" lon="-1.13985">
        <ele>9.7</ele>
      </trkpt>
      <trkpt lat="49.12979" lon="-1.13924">
        <ele>9.93</ele>
      </trkpt>
      <trkpt lat="49.12931" lon="-1.13833">
        <ele>9.44</ele>
      </trkpt>
      <trkpt lat="49.12908" lon="-1.13798">
        <ele>9.39</ele>
      </trkpt>
      <trkpt lat="49.12885" lon="-1.13751">
        <ele>9.52</ele>
      </trkpt>
      <trkpt lat="49.12877" lon="-1.13724">
        <ele>9.52</ele>
      </trkpt>
      <trkpt lat="49.12872" lon="-1.13687">
        <ele>9.54</ele>
      </trkpt>
      <trkpt lat="49.12872" lon="-1.1365">
        <ele>9.64</ele>
      </trkpt>
      <trkpt lat="49.12875" lon="-1.13615">
        <ele>9.64</ele>
      </trkpt>
      <trkpt lat="49.12898" lon="-1.13507">
        <ele>9.8</ele>
      </trkpt>
      <trkpt lat="49.12899" lon="-1.13476">
        <ele>9.97</ele>
      </trkpt>
      <trkpt lat="49.1289" lon="-1.13395">
        <ele>10.87</ele>
      </trkpt>
      <trkpt lat="49.12865" lon="-1.13314">
        <ele>11.96</ele>
      </trkpt>
      <trkpt lat="49.1284" lon="-1.13232">
        <ele>12.63</ele>
      </trkpt>
      <trkpt lat="49.12829" lon="-1.13205">
        <ele>12.64</ele>
      </trkpt>
      <trkpt lat="49.12816" lon="-1.13181">
        <ele>12.38</ele>
      </trkpt>
      <trkpt lat="49.12789" lon="-1.13148">
        <ele>11.43</ele>
      </trkpt>
      <trkpt lat="49.12768" lon="-1.13134">
        <ele>10.82</ele>
      </trkpt>
      <trkpt lat="49.12757" lon="-1.1313">
        <ele>10.62</ele>
      </trkpt>
      <trkpt lat="49.12749" lon="-1.13128">
        <ele>10.42</ele>
      </trkpt>
      <trkpt lat="49.12662" lon="-1.13131">
        <ele>10.46</ele>
      </trkpt>
      <trkpt lat="49.12639" lon="-1.13134">
        <ele>11.11</ele>
      </trkpt>
      <trkpt lat="49.12623" lon="-1.13141">
        <ele>11.64</ele>
      </trkpt>
      <trkpt lat="49.126" lon="-1.13144">
        <ele>11.98</ele>
      </trkpt>
      <trkpt lat="49.12578" lon="-1.13137">
        <ele>12.26</ele>
      </trkpt>
      <trkpt lat="49.12534" lon="-1.13104">
        <ele>11.45</ele>
      </trkpt>
      <trkpt lat="49.12504" lon="-1.131">
        <ele>11.19</ele>
      </trkpt>
      <trkpt lat="49.12489" lon="-1.1308">
        <ele>11.05</ele>
      </trkpt>
      <trkpt lat="49.12482" lon="-1.13066">
        <ele>10.56</ele>
      </trkpt>
      <trkpt lat="49.12476" lon="-1.13029">
        <ele>10.44</ele>
      </trkpt>
      <trkpt lat="49.12442" lon="-1.12948">
        <ele>10.82</ele>
      </trkpt>
      <trkpt lat="49.12412" lon="-1.12832">
        <ele>11.01</ele>
      </trkpt>
      <trkpt lat="49.12378" lon="-1.12754">
        <ele>11.26</ele>
      </trkpt>
      <trkpt lat="49.12368" lon="-1.12737">
        <ele>11.34</ele>
      </trkpt>
      <trkpt lat="49.1236" lon="-1.12731">
        <ele>11.34</ele>
      </trkpt>
      <trkpt lat="49.1232" lon="-1.12718">
        <ele>11.31</ele>
      </trkpt>
      <trkpt lat="49.12286" lon="-1.12717">
        <ele>10.7</ele>
      </trkpt>
      <trkpt lat="49.12265" lon="-1.12704">
        <ele>10.65</ele>
      </trkpt>
      <trkpt lat="49.1225" lon="-1.12682">
        <ele>10.87</ele>
      </trkpt>
      <trkpt lat="49.12251" lon="-1.12684">
        <ele>10.87</ele>
      </trkpt>
      <trkpt lat="49.12247" lon="-1.12666">
        <ele>11.1</ele>
      </trkpt>
      <trkpt lat="49.12246" lon="-1.12632">
        <ele>11.09</ele>
      </trkpt>
      <trkpt lat="49.12249" lon="-1.12612">
        <ele>10.59</ele>
      </trkpt>
      <trkpt lat="49.12264" lon="-1.12571">
        <ele>10.32</ele>
      </trkpt>
      <trkpt lat="49.12272" lon="-1.12521">
        <ele>10.57</ele>
      </trkpt>
      <trkpt lat="49.12276" lon="-1.12428">
        <ele>10.54</ele>
      </trkpt>
      <trkpt lat="49.12253" lon="-1.123">
        <ele>10.52</ele>
      </trkpt>
      <trkpt lat="49.12249" lon="-1.12267">
        <ele>10.51</ele>
      </trkpt>
      <trkpt lat="49.12233" lon="-1.12196">
        <ele>10.93</ele>
      </trkpt>
      <trkpt lat="49.1223" lon="-1.12172">
        <ele>10.98</ele>
      </trkpt>
      <trkpt lat="49.12225" lon="-1.12161">
        <ele>11.06</ele>
      </trkpt>
      <trkpt lat="49.1219" lon="-1.12124">
        <ele>11.39</ele>
      </trkpt>
      <trkpt lat="49.12165" lon="-1.12093">
        <ele>11.13</ele>
      </trkpt>
      <trkpt lat="49.12156" lon="-1.12073">
        <ele>10.54</ele>
      </trkpt>
      <trkpt lat="49.1215" lon="-1.1205">
        <ele>10.54</ele>
      </trkpt>
      <trkpt lat="49.12143" lon="-1.12012">
        <ele>10.36</ele>
      </trkpt>
      <trkpt lat="49.12139" lon="-1.11975">
        <ele>10.4</ele>
      </trkpt>
      <trkpt lat="49.12104" lon="-1.11914">
        <ele>11</ele>
      </trkpt>
      <trkpt lat="49.12082" lon="-1.11856">
        <ele>11.07</ele>
      </trkpt>
      <trkpt lat="49.12077" lon="-1.11795">
        <ele>10.85</ele>
      </trkpt>
      <trkpt lat="49.12084" lon="-1.1177">
        <ele>10.57</ele>
      </trkpt>
      <trkpt lat="49.12107" lon="-1.11738">
        <ele>10.03</ele>
      </trkpt>
      <trkpt lat="49.12136" lon="-1.11711">
        <ele>10.01</ele>
      </trkpt>
      <trkpt lat="49.12192" lon="-1.11666">
        <ele>10.69</ele>
      </trkpt>
      <trkpt lat="49.12213" lon="-1.11636">
        <ele>10.93</ele>
      </trkpt>
      <trkpt lat="49.12218" lon="-1.11619">
        <ele>10.9</ele>
      </trkpt>
      <trkpt lat="49.12223" lon="-1.11582">
        <ele>10.56</ele>
      </trkpt>
      <trkpt lat="49.12223" lon="-1.11565">
        <ele>10.56</ele>
      </trkpt>
      <trkpt lat="49.12217" lon="-1.11544">
        <ele>10.5</ele>
      </trkpt>
      <trkpt lat="49.12189" lon="-1.11484">
        <ele>10.84</ele>
      </trkpt>
      <trkpt lat="49.12183" lon="-1.11467">
        <ele>10.84</ele>
      </trkpt>
      <trkpt lat="49.1218" lon="-1.11449">
        <ele>11.11</ele>
      </trkpt>
      <trkpt lat="49.12177" lon="-1.11413">
        <ele>11.15</ele>
      </trkpt>
      <trkpt lat="49.12178" lon="-1.11382">
        <ele>11.14</ele>
      </trkpt>
      <trkpt lat="49.12183" lon="-1.11361">
        <ele>10.99</ele>
      </trkpt>
      <trkpt lat="49.12193" lon="-1.11345">
        <ele>10.77</ele>
      </trkpt>
      <trkpt lat="49.12211" lon="-1.11335">
        <ele>10.47</ele>
      </trkpt>
      <trkpt lat="49.12241" lon="-1.11321">
        <ele>10.54</ele>
      </trkpt>
      <trkpt lat="49.12263" lon="-1.11301">
        <ele>10.84</ele>
      </trkpt>
      <trkpt lat="49.12304" lon="-1.1126">
        <ele>10.67</ele>
      </trkpt>
      <trkpt lat="49.12315" lon="-1.11246">
        <ele>10.68</ele>
      </trkpt>
      <trkpt lat="49.12324" lon="-1.11219">
        <ele>10.8</ele>
      </trkpt>
      <trkpt lat="49.12329" lon="-1.11189">
        <ele>10.71</ele>
      </trkpt>
      <trkpt lat="49.12336" lon="-1.11131">
        <ele>10.72</ele>
      </trkpt>
      <trkpt lat="49.12333" lon="-1.11104">
        <ele>11.03</ele>
      </trkpt>
      <trkpt lat="49.12335" lon="-1.1109">
        <ele>11.03</ele>
      </trkpt>
      <trkpt lat="49.12341" lon="-1.1107">
        <ele>11.08</ele>
      </trkpt>
      <trkpt lat="49.12354" lon="-1.11036">
        <ele>11.02</ele>
      </trkpt>
      <trkpt lat="49.1237" lon="-1.11016">
        <ele>10.9</ele>
      </trkpt>
      <trkpt lat="49.12387" lon="-1.10999">
        <ele>10.38</ele>
      </trkpt>
      <trkpt lat="49.12394" lon="-1.10995">
        <ele>10.29</ele>
      </trkpt>
      <trkpt lat="49.12421" lon="-1.10985">
        <ele>10.29</ele>
      </trkpt>
      <trkpt lat="49.1244" lon="-1.10972">
        <ele>10.91</ele>
      </trkpt>
      <trkpt lat="49.1245" lon="-1.10957">
        <ele>10.91</ele>
      </trkpt>
      <trkpt lat="49.12466" lon="-1.10944">
        <ele>11.43</ele>
      </trkpt>
      <trkpt lat="49.12478" lon="-1.10924">
        <ele>11.74</ele>
      </trkpt>
      <trkpt lat="49.125" lon="-1.10863">
        <ele>13.22</ele>
      </trkpt>
      <trkpt lat="49.12521" lon="-1.10802">
        <ele>13.65</ele>
      </trkpt>
      <trkpt lat="49.12535" lon="-1.10748">
        <ele>13.61</ele>
      </trkpt>
      <trkpt lat="49.12536" lon="-1.10713">
        <ele>13.44</ele>
      </trkpt>
      <trkpt lat="49.12536" lon="-1.1071">
        <ele>13.43</ele>
      </trkpt>
      <trkpt lat="49.12532" lon="-1.10697">
        <ele>13.38</ele>
      </trkpt>
      <trkpt lat="49.12531" lon="-1.10677">
        <ele>13.48</ele>
      </trkpt>
      <trkpt lat="49.12507" lon="-1.10548">
        <ele>13.93</ele>
      </trkpt>
      <trkpt lat="49.12504" lon="-1.10501">
        <ele>13.93</ele>
      </trkpt>
      <trkpt lat="49.12504" lon="-1.10453">
        <ele>14.27</ele>
      </trkpt>
      <trkpt lat="49.12509" lon="-1.10351">
        <ele>14.3</ele>
      </trkpt>
      <trkpt lat="49.12507" lon="-1.10304">
        <ele>14.46</ele>
      </trkpt>
      <trkpt lat="49.12501" lon="-1.10257">
        <ele>14.78</ele>
      </trkpt>
      <trkpt lat="49.12489" lon="-1.10216">
        <ele>14.81</ele>
      </trkpt>
      <trkpt lat="49.12473" lon="-1.10175">
        <ele>14.66</ele>
      </trkpt>
      <trkpt lat="49.12443" lon="-1.10128">
        <ele>14.31</ele>
      </trkpt>
      <trkpt lat="49.12411" lon="-1.10087">
        <ele>14.36</ele>
      </trkpt>
      <trkpt lat="49.12388" lon="-1.10067">
        <ele>14.36</ele>
      </trkpt>
      <trkpt lat="49.1235" lon="-1.10021">
        <ele>14.22</ele>
      </trkpt>
      <trkpt lat="49.12311" lon="-1.09975">
        <ele>13.47</ele>
      </trkpt>
      <trkpt lat="49.12275" lon="-1.09921">
        <ele>12.52</ele>
      </trkpt>
      <trkpt lat="49.12261" lon="-1.09907">
        <ele>12.77</ele>
      </trkpt>
      <trkpt lat="49.12236" lon="-1.09887">
        <ele>13.92</ele>
      </trkpt>
      <trkpt lat="49.12233" lon="-1.09883">
        <ele>14.24</ele>
      </trkpt>
      <trkpt lat="49.12214" lon="-1.09863">
        <ele>14.31</ele>
      </trkpt>
      <trkpt lat="49.1217" lon="-1.09812">
        <ele>14.19</ele>
      </trkpt>
      <trkpt lat="49.12151" lon="-1.09795">
        <ele>14.25</ele>
      </trkpt>
      <trkpt lat="49.12143" lon="-1.09793">
        <ele>14.25</ele>
      </trkpt>
      <trkpt lat="49.12132" lon="-1.09793">
        <ele>14.25</ele>
      </trkpt>
      <trkpt lat="49.12092" lon="-1.09799">
        <ele>14.52</ele>
        <extensions>
          <visugpx:TrkExtension xmlns:visugpx="https://www.visugpx.com/editgpx/">
            <visugpx:node>1</visugpx:node>
            </visugpx:TrkExtension>
        </extensions>
      </trkpt>
      <trkpt lat="49.1209" lon="-1.09799">
        <ele>14.53</ele>
      </trkpt>
      <trkpt lat="49.12017" lon="-1.09809">
        <ele>14.71</ele>
      </trkpt>
      <trkpt lat="49.11944" lon="-1.09819">
        <ele>14.35</ele>
      </trkpt>
      <trkpt lat="49.11942" lon="-1.09818">
        <ele>14.35</ele>
      </trkpt>
      <trkpt lat="49.11937" lon="-1.09804">
        <ele>13.96</ele>
      </trkpt>
      <trkpt lat="49.11937" lon="-1.09793">
        <ele>13.82</ele>
      </trkpt>
      <trkpt lat="49.11924" lon="-1.09782">
        <ele>13.93</ele>
      </trkpt>
      <trkpt lat="49.11921" lon="-1.0977">
        <ele>14.17</ele>
      </trkpt>
      <trkpt lat="49.11927" lon="-1.09734">
        <ele>15.13</ele>
      </trkpt>
      <trkpt lat="49.11926" lon="-1.09721">
        <ele>15.04</ele>
      </trkpt>
      <trkpt lat="49.11902" lon="-1.09707">
        <ele>15.06</ele>
      </trkpt>
      <trkpt lat="49.11894" lon="-1.097">
        <ele>15.06</ele>
      </trkpt>
      <trkpt lat="49.11873" lon="-1.09688">
        <ele>15.04</ele>
      </trkpt>
      <trkpt lat="49.11863" lon="-1.0966">
        <ele>15.2</ele>
      </trkpt>
      <trkpt lat="49.11856" lon="-1.0966">
        <ele>15.4</ele>
      </trkpt>
      <trkpt lat="49.11838" lon="-1.09667">
        <ele>15.95</ele>
      </trkpt>
      <trkpt lat="49.11795" lon="-1.09684">
        <ele>16.47</ele>
      </trkpt>
      <trkpt lat="49.11768" lon="-1.09682">
        <ele>16.61</ele>
      </trkpt>
      <trkpt lat="49.11756" lon="-1.0968">
        <ele>16.41</ele>
      </trkpt>
      <trkpt lat="49.11753" lon="-1.09591">
        <ele>16.51</ele>
      </trkpt>
      <trkpt lat="49.11749" lon="-1.09501">
        <ele>17.27</ele>
      </trkpt>
      <trkpt lat="49.11742" lon="-1.0945">
        <ele>17.66</ele>
      </trkpt>
      <trkpt lat="49.1172" lon="-1.09337">
        <ele>18.92</ele>
      </trkpt>
      <trkpt lat="49.11717" lon="-1.09301">
        <ele>19.1</ele>
      </trkpt>
      <trkpt lat="49.11718" lon="-1.0926">
        <ele>19.59</ele>
      </trkpt>
      <trkpt lat="49.1172" lon="-1.09243">
        <ele>19.59</ele>
      </trkpt>
      <trkpt lat="49.11729" lon="-1.09206">
        <ele>20.22</ele>
      </trkpt>
      <trkpt lat="49.11736" lon="-1.09205">
        <ele>20.5</ele>
      </trkpt>
      <trkpt lat="49.11751" lon="-1.09168">
        <ele>21.07</ele>
      </trkpt>
      <trkpt lat="49.11779" lon="-1.09117">
        <ele>21.81</ele>
      </trkpt>
      <trkpt lat="49.1178" lon="-1.09111">
        <ele>21.81</ele>
      </trkpt>
      <trkpt lat="49.11789" lon="-1.09084">
        <ele>21.94</ele>
      </trkpt>
      <trkpt lat="49.11821" lon="-1.09029">
        <ele>22.78</ele>
      </trkpt>
      <trkpt lat="49.11847" lon="-1.08975">
        <ele>23.7</ele>
      </trkpt>
      <trkpt lat="49.11849" lon="-1.08965">
        <ele>23.7</ele>
      </trkpt>
      <trkpt lat="49.11859" lon="-1.08847">
        <ele>24.48</ele>
      </trkpt>
      <trkpt lat="49.11849" lon="-1.08845">
        <ele>24.63</ele>
      </trkpt>
      <trkpt lat="49.11844" lon="-1.08827">
        <ele>25.09</ele>
      </trkpt>
      <trkpt lat="49.11842" lon="-1.08817">
        <ele>25.09</ele>
      </trkpt>
      <trkpt lat="49.11842" lon="-1.08816">
        <ele>25.11</ele>
      </trkpt>
      <trkpt lat="49.11836" lon="-1.0881">
        <ele>25.51</ele>
      </trkpt>
      <trkpt lat="49.11834" lon="-1.08803">
        <ele>25.79</ele>
      </trkpt>
      <trkpt lat="49.1183" lon="-1.08806">
        <ele>26.13</ele>
      </trkpt>
      <trkpt lat="49.11828" lon="-1.08853">
        <ele>28.75</ele>
      </trkpt>
      <trkpt lat="49.11826" lon="-1.08854">
        <ele>28.75</ele>
      </trkpt>
      <trkpt lat="49.11824" lon="-1.08853">
        <ele>28.75</ele>
      </trkpt>
      <trkpt lat="49.11812" lon="-1.08775">
        <ele>35.38</ele>
      </trkpt>
      <trkpt lat="49.1181" lon="-1.08772">
        <ele>35.38</ele>
      </trkpt>
      <trkpt lat="49.11798" lon="-1.0888">
        <ele>44.57</ele>
      </trkpt>
      <trkpt lat="49.11791" lon="-1.08892">
        <ele>44.64</ele>
      </trkpt>
      <trkpt lat="49.11788" lon="-1.08901">
        <ele>44.02</ele>
      </trkpt>
      <trkpt lat="49.11713" lon="-1.08896">
        <ele>45.97</ele>
      </trkpt>
      <trkpt lat="49.11637" lon="-1.0889">
        <ele>46.44</ele>
      </trkpt>
      <trkpt lat="49.11562" lon="-1.08885">
        <ele>44.43</ele>
      </trkpt>
      <trkpt lat="49.11562" lon="-1.0889">
        <ele>44.33</ele>
      </trkpt>
      <trkpt lat="49.11558" lon="-1.08996">
        <ele>42.22</ele>
      </trkpt>
      <trkpt lat="49.11561" lon="-1.09018">
        <ele>42.02</ele>
      </trkpt>
      <trkpt lat="49.11559" lon="-1.09089">
        <ele>41.11</ele>
      </trkpt>
      <trkpt lat="49.11557" lon="-1.09159">
        <ele>40.2</ele>
      </trkpt>
      <trkpt lat="49.1161" lon="-1.09162">
        <ele>39.87</ele>
      </trkpt>
      <trkpt lat="49.1161" lon="-1.09231">
        <ele>39.28</ele>
      </trkpt>
      <trkpt lat="49.11614" lon="-1.0924">
        <ele>39.28</ele>
      </trkpt>
      <trkpt lat="49.11609" lon="-1.09273">
        <ele>38.33</ele>
      </trkpt>
      <trkpt lat="49.11607" lon="-1.09314">
        <ele>37.9</ele>
      </trkpt>
      <trkpt lat="49.11612" lon="-1.09358">
        <ele>37.57</ele>
      </trkpt>
      <trkpt lat="49.11617" lon="-1.0937">
        <ele>37.57</ele>
      </trkpt>
      <trkpt lat="49.11636" lon="-1.09437">
        <ele>36.37</ele>
      </trkpt>
      <trkpt lat="49.1166" lon="-1.09531">
        <ele>35.15</ele>
      </trkpt>
      <trkpt lat="49.1166" lon="-1.09538">
        <ele>34.79</ele>
      </trkpt>
      <trkpt lat="49.11657" lon="-1.09549">
        <ele>34.79</ele>
      </trkpt>
      <trkpt lat="49.11659" lon="-1.09562">
        <ele>34.22</ele>
      </trkpt>
      <trkpt lat="49.11654" lon="-1.09612">
        <ele>32.71</ele>
      </trkpt>
      <trkpt lat="49.11657" lon="-1.09626">
        <ele>31.96</ele>
      </trkpt>
      <trkpt lat="49.11659" lon="-1.09629">
        <ele>31.96</ele>
      </trkpt>
      <trkpt lat="49.11661" lon="-1.09631">
        <ele>31.96</ele>
      </trkpt>
      <trkpt lat="49.11664" lon="-1.09628">
        <ele>31.87</ele>
      </trkpt>
      <trkpt lat="49.11674" lon="-1.09637">
        <ele>31.99</ele>
      </trkpt>
      <trkpt lat="49.11675" lon="-1.09652">
        <ele>32.14</ele>
      </trkpt>
      <trkpt lat="49.11679" lon="-1.09656">
        <ele>32.14</ele>
      </trkpt>
      <trkpt lat="49.11679" lon="-1.09674">
        <ele>32.76</ele>
      </trkpt>
      <trkpt lat="49.11678" lon="-1.09675">
        <ele>32.78</ele>
      </trkpt>
      <trkpt lat="49.11675" lon="-1.09677">
        <ele>32.78</ele>
      </trkpt>
      <trkpt lat="49.11673" lon="-1.09715">
        <ele>33.38</ele>
      </trkpt>
      <trkpt lat="49.11663" lon="-1.09724">
        <ele>33.62</ele>
      </trkpt>
      <trkpt lat="49.11644" lon="-1.09734">
        <ele>33.96</ele>
      </trkpt>
      <trkpt lat="49.11629" lon="-1.09738">
        <ele>33.96</ele>
      </trkpt>
      <trkpt lat="49.11621" lon="-1.09741">
        <ele>34.02</ele>
      </trkpt>
      <trkpt lat="49.11579" lon="-1.09741">
        <ele>33.41</ele>
      </trkpt>
      <trkpt lat="49.11542" lon="-1.09759">
        <ele>33.94</ele>
      </trkpt>
      <trkpt lat="49.11538" lon="-1.09766">
        <ele>34.03</ele>
      </trkpt>
      <trkpt lat="49.11526" lon="-1.09766">
        <ele>34.87</ele>
      </trkpt>
      <trkpt lat="49.1152" lon="-1.09764">
        <ele>35.21</ele>
      </trkpt>
      <trkpt lat="49.11519" lon="-1.09785">
        <ele>35.62</ele>
      </trkpt>
      <trkpt lat="49.11507" lon="-1.09793">
        <ele>36.18</ele>
      </trkpt>
      <trkpt lat="49.11505" lon="-1.09799">
        <ele>36.27</ele>
      </trkpt>
      <trkpt lat="49.11491" lon="-1.09802">
        <ele>36.27</ele>
      </trkpt>
      <trkpt lat="49.11485" lon="-1.09785">
        <ele>36.03</ele>
      </trkpt>
      <trkpt lat="49.11483" lon="-1.09767">
        <ele>35.92</ele>
      </trkpt>
      <trkpt lat="49.11484" lon="-1.0974">
        <ele>35.83</ele>
      </trkpt>
      <trkpt lat="49.11493" lon="-1.09653">
        <ele>35.07</ele>
      </trkpt>
      <trkpt lat="49.11497" lon="-1.09579">
        <ele>32.4</ele>
      </trkpt>
      <trkpt lat="49.11495" lon="-1.09566">
        <ele>31.3</ele>
      </trkpt>
      <trkpt lat="49.11491" lon="-1.09562">
        <ele>29.1</ele>
      </trkpt>
      <trkpt lat="49.1149" lon="-1.09531">
        <ele>28.2</ele>
      </trkpt>
      <trkpt lat="49.11487" lon="-1.09503">
        <ele>26.8</ele>
      </trkpt>
      <trkpt lat="49.11488" lon="-1.09495">
        <ele>27.3</ele>
      </trkpt>
      <trkpt lat="49.1149" lon="-1.09489">
        <ele>28.5</ele>
      </trkpt>
      <trkpt lat="49.11487" lon="-1.09483">
        <ele>27.7</ele>
      </trkpt>
      <trkpt lat="49.1149" lon="-1.09477">
        <ele>34.34</ele>
      </trkpt>
      <trkpt lat="49.1149" lon="-1.09467">
        <ele>34.38</ele>
      </trkpt>
      <trkpt lat="49.11484" lon="-1.09463">
        <ele>34.38</ele>
      </trkpt>
      <trkpt lat="49.11477" lon="-1.09429">
        <ele>34.53</ele>
      </trkpt>
      <trkpt lat="49.11478" lon="-1.09399">
        <ele>35.13</ele>
      </trkpt>
      <trkpt lat="49.11484" lon="-1.09376">
        <ele>35.28</ele>
      </trkpt>
      <trkpt lat="49.1149" lon="-1.09307">
        <ele>35.27</ele>
      </trkpt>
      <trkpt lat="49.11497" lon="-1.09295">
        <ele>35.09</ele>
      </trkpt>
      <trkpt lat="49.11503" lon="-1.09304">
        <ele>35.78</ele>
      </trkpt>
      <trkpt lat="49.11511" lon="-1.09304">
        <ele>35.78</ele>
      </trkpt>
      <trkpt lat="49.11511" lon="-1.09287">
        <ele>36.5</ele>
      </trkpt>
      <trkpt lat="49.11508" lon="-1.09283">
        <ele>36.5</ele>
      </trkpt>
      <trkpt lat="49.11511" lon="-1.09184">
        <ele>38.32</ele>
      </trkpt>
      <trkpt lat="49.11515" lon="-1.09178">
        <ele>38.57</ele>
      </trkpt>
      <trkpt lat="49.11536" lon="-1.09179">
        <ele>39.73</ele>
      </trkpt>
      <trkpt lat="49.11539" lon="-1.09093">
        <ele>40.76</ele>
      </trkpt>
      <trkpt lat="49.11542" lon="-1.09006">
        <ele>41.79</ele>
      </trkpt>
      <trkpt lat="49.11491" lon="-1.09001">
        <ele>39.95</ele>
      </trkpt>
      <trkpt lat="49.11491" lon="-1.09002">
        <ele>39.93</ele>
      </trkpt>
      <trkpt lat="49.11488" lon="-1.09091">
        <ele>36.77</ele>
      </trkpt>
      <trkpt lat="49.11485" lon="-1.0918">
        <ele>32.58</ele>
      </trkpt>
      <trkpt lat="49.11495" lon="-1.09191">
        <ele>32.22</ele>
      </trkpt>
      <trkpt lat="49.11491" lon="-1.09202">
        <ele>31.57</ele>
      </trkpt>
      <trkpt lat="49.11484" lon="-1.09277">
        <ele>29.58</ele>
      </trkpt>
      <trkpt lat="49.1148" lon="-1.09287">
        <ele>26.7</ele>
      </trkpt>
      <trkpt lat="49.11479" lon="-1.09297">
        <ele>26.7</ele>
      </trkpt>
      <trkpt lat="49.11471" lon="-1.09331">
        <ele>25.92</ele>
      </trkpt>
      <trkpt lat="49.11463" lon="-1.09389">
        <ele>24.04</ele>
      </trkpt>
      <trkpt lat="49.11463" lon="-1.09399">
        <ele>23.87</ele>
      </trkpt>
      <trkpt lat="49.11469" lon="-1.09409">
        <ele>23.59</ele>
      </trkpt>
      <trkpt lat="49.11477" lon="-1.09463">
        <ele>22.24</ele>
      </trkpt>
      <trkpt lat="49.11464" lon="-1.09497">
        <ele>21.73</ele>
      </trkpt>
      <trkpt lat="49.11466" lon="-1.09518">
        <ele>21.54</ele>
      </trkpt>
      <trkpt lat="49.11473" lon="-1.09542">
        <ele>21.54</ele>
      </trkpt>
      <trkpt lat="49.11477" lon="-1.09565">
        <ele>20.91</ele>
      </trkpt>
      <trkpt lat="49.1148" lon="-1.09603">
        <ele>20.46</ele>
      </trkpt>
      <trkpt lat="49.11472" lon="-1.09613">
        <ele>20.46</ele>
      </trkpt>
      <trkpt lat="49.11475" lon="-1.09646">
        <ele>20.05</ele>
      </trkpt>
      <trkpt lat="49.11468" lon="-1.09656">
        <ele>20.05</ele>
      </trkpt>
      <trkpt lat="49.11471" lon="-1.0968">
        <ele>19.16</ele>
      </trkpt>
      <trkpt lat="49.11462" lon="-1.09691">
        <ele>19.16</ele>
      </trkpt>
      <trkpt lat="49.11464" lon="-1.09728">
        <ele>18.71</ele>
      </trkpt>
      <trkpt lat="49.11459" lon="-1.09745">
        <ele>18.09</ele>
      </trkpt>
      <trkpt lat="49.11462" lon="-1.09792">
        <ele>17.41</ele>
      </trkpt>
      <trkpt lat="49.11463" lon="-1.09793">
        <ele>17.41</ele>
      </trkpt>
      <trkpt lat="49.11477" lon="-1.09827">
        <ele>16.91</ele>
      </trkpt>
      <trkpt lat="49.11508" lon="-1.0982">
        <ele>16.91</ele>
      </trkpt>
      <trkpt lat="49.1153" lon="-1.09811">
        <ele>16.93</ele>
      </trkpt>
      <trkpt lat="49.11582" lon="-1.09793">
        <ele>16.82</ele>
      </trkpt>
      <trkpt lat="49.11628" lon="-1.09779">
        <ele>16.62</ele>
      </trkpt>
      <trkpt lat="49.11684" lon="-1.09752">
        <ele>16.87</ele>
      </trkpt>
      <trkpt lat="49.11688" lon="-1.09758">
        <ele>16.87</ele>
      </trkpt>
      <trkpt lat="49.11692" lon="-1.09759">
        <ele>16.25</ele>
      </trkpt>
      <trkpt lat="49.11696" lon="-1.09756">
        <ele>16.25</ele>
      </trkpt>
      <trkpt lat="49.11704" lon="-1.09796">
        <ele>16.12</ele>
      </trkpt>
      <trkpt lat="49.11725" lon="-1.09871">
        <ele>16.01</ele>
      </trkpt>
      <trkpt lat="49.1173" lon="-1.09892">
        <ele>14</ele>
      </trkpt>
      <trkpt lat="49.11719" lon="-1.09883">
        <ele>15.86</ele>
      </trkpt>
      <trkpt lat="49.11704" lon="-1.09891">
        <ele>15.68</ele>
      </trkpt>
      <trkpt lat="49.11713" lon="-1.09942">
        <ele>15.11</ele>
      </trkpt>
      <trkpt lat="49.11712" lon="-1.09942">
        <ele>15.11</ele>
      </trkpt>
      <trkpt lat="49.1171" lon="-1.09951">
        <ele>15.11</ele>
      </trkpt>
      <trkpt lat="49.11653" lon="-1.09985">
        <ele>15.36</ele>
      </trkpt>
      <trkpt lat="49.11652" lon="-1.09995">
        <ele>15.36</ele>
      </trkpt>
      <trkpt lat="49.11646" lon="-1.09997">
        <ele>15.36</ele>
      </trkpt>
      <trkpt lat="49.11629" lon="-1.10012">
        <ele>15.41</ele>
      </trkpt>
      <trkpt lat="49.11595" lon="-1.10045">
        <ele>15.39</ele>
      </trkpt>
      <trkpt lat="49.11559" lon="-1.1009">
        <ele>15.39</ele>
      </trkpt>
      <trkpt lat="49.11522" lon="-1.10151">
        <ele>15.48</ele>
      </trkpt>
      <trkpt lat="49.11518" lon="-1.10155">
        <ele>15.17</ele>
      </trkpt>
      <trkpt lat="49.11494" lon="-1.10141">
        <ele>15.13</ele>
      </trkpt>
      <trkpt lat="49.11469" lon="-1.1025">
        <ele>13.84</ele>
      </trkpt>
      <trkpt lat="49.11454" lon="-1.10294">
        <ele>13.9</ele>
      </trkpt>
      <trkpt lat="49.1145" lon="-1.10291">
        <ele>13.9</ele>
      </trkpt>
      <trkpt lat="49.11449" lon="-1.10287">
        <ele>13.9</ele>
      </trkpt>
      <trkpt lat="49.11447" lon="-1.10307">
        <ele>13.99</ele>
      </trkpt>
      <trkpt lat="49.11437" lon="-1.10341">
        <ele>13.91</ele>
      </trkpt>
      <trkpt lat="49.11406" lon="-1.10413">
        <ele>13.7</ele>
      </trkpt>
      <trkpt lat="49.1136" lon="-1.10511">
        <ele>12.66</ele>
      </trkpt>
      <trkpt lat="49.11342" lon="-1.10542">
        <ele>12.58</ele>
      </trkpt>
      <trkpt lat="49.11319" lon="-1.1062">
        <ele>12.63</ele>
      </trkpt>
      <trkpt lat="49.11317" lon="-1.10667">
        <ele>12.68</ele>
      </trkpt>
      <trkpt lat="49.11309" lon="-1.10747">
        <ele>12.64</ele>
      </trkpt>
      <trkpt lat="49.113" lon="-1.10826">
        <ele>12.86</ele>
      </trkpt>
      <trkpt lat="49.11289" lon="-1.10857">
        <ele>12.86</ele>
      </trkpt>
      <trkpt lat="49.11245" lon="-1.10924">
        <ele>12.57</ele>
      </trkpt>
      <trkpt lat="49.11228" lon="-1.10958">
        <ele>12.56</ele>
      </trkpt>
      <trkpt lat="49.11219" lon="-1.10999">
        <ele>12.62</ele>
      </trkpt>
      <trkpt lat="49.11216" lon="-1.11029">
        <ele>12.62</ele>
      </trkpt>
      <trkpt lat="49.11218" lon="-1.1105">
        <ele>12.9</ele>
      </trkpt>
      <trkpt lat="49.11246" lon="-1.11135">
        <ele>12.88</ele>
      </trkpt>
      <trkpt lat="49.1125" lon="-1.11172">
        <ele>12.88</ele>
      </trkpt>
      <trkpt lat="49.1125" lon="-1.11257">
        <ele>12.94</ele>
      </trkpt>
      <trkpt lat="49.11247" lon="-1.11327">
        <ele>12.98</ele>
      </trkpt>
      <trkpt lat="49.11237" lon="-1.11392">
        <ele>12.95</ele>
      </trkpt>
      <trkpt lat="49.11234" lon="-1.11423">
        <ele>13</ele>
      </trkpt>
      <trkpt lat="49.11237" lon="-1.11517">
        <ele>14.3</ele>
      </trkpt>
      <trkpt lat="49.11225" lon="-1.11612">
        <ele>14.43</ele>
      </trkpt>
      <trkpt lat="49.11206" lon="-1.11677">
        <ele>13.1</ele>
      </trkpt>
      <trkpt lat="49.11203" lon="-1.11694">
        <ele>12.94</ele>
      </trkpt>
      <trkpt lat="49.11191" lon="-1.11728">
        <ele>12.93</ele>
      </trkpt>
      <trkpt lat="49.11185" lon="-1.11741">
        <ele>12.93</ele>
      </trkpt>
      <trkpt lat="49.11169" lon="-1.11761">
        <ele>12.85</ele>
      </trkpt>
      <trkpt lat="49.11118" lon="-1.11799">
        <ele>12.87</ele>
      </trkpt>
      <trkpt lat="49.11104" lon="-1.11812">
        <ele>12.96</ele>
      </trkpt>
      <trkpt lat="49.11093" lon="-1.11829">
        <ele>12.96</ele>
      </trkpt>
      <trkpt lat="49.11088" lon="-1.11853">
        <ele>13.11</ele>
      </trkpt>
      <trkpt lat="49.11091" lon="-1.11948">
        <ele>13.14</ele>
      </trkpt>
      <trkpt lat="49.11082" lon="-1.12012">
        <ele>13.07</ele>
      </trkpt>
      <trkpt lat="49.11055" lon="-1.121">
        <ele>13.04</ele>
      </trkpt>
      <trkpt lat="49.11035" lon="-1.12138">
        <ele>13.1</ele>
      </trkpt>
      <trkpt lat="49.11017" lon="-1.12166">
        <ele>13.08</ele>
      </trkpt>
      <trkpt lat="49.10996" lon="-1.12195">
        <ele>13.08</ele>
      </trkpt>
      <trkpt lat="49.10977" lon="-1.12212">
        <ele>13.07</ele>
      </trkpt>
      <trkpt lat="49.10927" lon="-1.12241">
        <ele>12.91</ele>
      </trkpt>
      <trkpt lat="49.10949" lon="-1.12283">
        <ele>13.8</ele>
      </trkpt>
      <trkpt lat="49.10991" lon="-1.12243">
        <ele>17.29</ele>
      </trkpt>
      <trkpt lat="49.11015" lon="-1.12215">
        <ele>17.59</ele>
      </trkpt>
      <trkpt lat="49.11025" lon="-1.12199">
        <ele>17.56</ele>
      </trkpt>
      <trkpt lat="49.1106" lon="-1.12152">
        <ele>18.12</ele>
      </trkpt>
      <trkpt lat="49.11095" lon="-1.12104">
        <ele>17.91</ele>
      </trkpt>
      <trkpt lat="49.11123" lon="-1.12056">
        <ele>17.32</ele>
      </trkpt>
      <trkpt lat="49.1116" lon="-1.11938">
        <ele>18.05</ele>
      </trkpt>
      <trkpt lat="49.11182" lon="-1.11853">
        <ele>18.86</ele>
      </trkpt>
      <trkpt lat="49.11196" lon="-1.11809">
        <ele>19.69</ele>
      </trkpt>
      <trkpt lat="49.11222" lon="-1.11703">
        <ele>23.14</ele>
      </trkpt>
      <trkpt lat="49.11249" lon="-1.11612">
        <ele>25.3</ele>
      </trkpt>
      <trkpt lat="49.11255" lon="-1.11572">
        <ele>25.25</ele>
      </trkpt>
      <trkpt lat="49.1126" lon="-1.11517">
        <ele>23.51</ele>
      </trkpt>
      <trkpt lat="49.11262" lon="-1.11456">
        <ele>20.86</ele>
      </trkpt>
      <trkpt lat="49.11267" lon="-1.11443">
        <ele>20.7</ele>
      </trkpt>
      <trkpt lat="49.11263" lon="-1.11412">
        <ele>20.8</ele>
      </trkpt>
      <trkpt lat="49.11269" lon="-1.11291">
        <ele>22.33</ele>
      </trkpt>
      <trkpt lat="49.11271" lon="-1.11178">
        <ele>18.87</ele>
      </trkpt>
      <trkpt lat="49.11277" lon="-1.11107">
        <ele>17.79</ele>
      </trkpt>
      <trkpt lat="49.11282" lon="-1.11036">
        <ele>17.64</ele>
      </trkpt>
      <trkpt lat="49.113" lon="-1.10939">
        <ele>17.92</ele>
      </trkpt>
      <trkpt lat="49.11319" lon="-1.10843">
        <ele>18.53</ele>
      </trkpt>
      <trkpt lat="49.11337" lon="-1.10746">
        <ele>19.09</ele>
      </trkpt>
      <trkpt lat="49.11343" lon="-1.10745">
        <ele>20.13</ele>
      </trkpt>
      <trkpt lat="49.11361" lon="-1.10675">
        <ele>26.24</ele>
      </trkpt>
      <trkpt lat="49.11362" lon="-1.1067">
        <ele>26.49</ele>
      </trkpt>
      <trkpt lat="49.11371" lon="-1.10667">
        <ele>28.01</ele>
      </trkpt>
      <trkpt lat="49.11371" lon="-1.10694">
        <ele>32.49</ele>
      </trkpt>
      <trkpt lat="49.11381" lon="-1.10778">
        <ele>45.67</ele>
      </trkpt>
      <trkpt lat="49.11384" lon="-1.10779">
        <ele>45.67</ele>
      </trkpt>
      <trkpt lat="49.11398" lon="-1.10724">
        <ele>51.32</ele>
      </trkpt>
      <trkpt lat="49.11408" lon="-1.1073">
        <ele>54.32</ele>
      </trkpt>
      <trkpt lat="49.11396" lon="-1.10795">
        <ele>55.52</ele>
      </trkpt>
      <trkpt lat="49.1138" lon="-1.10856">
        <ele>56.7</ele>
      </trkpt>
      <trkpt lat="49.11372" lon="-1.10904">
        <ele>57.73</ele>
      </trkpt>
      <trkpt lat="49.11371" lon="-1.10955">
        <ele>58.39</ele>
      </trkpt>
      <trkpt lat="49.11367" lon="-1.10978">
        <ele>59.1</ele>
      </trkpt>
      <trkpt lat="49.11356" lon="-1.11019">
        <ele>59.64</ele>
      </trkpt>
      <trkpt lat="49.11347" lon="-1.11084">
        <ele>60.31</ele>
      </trkpt>
      <trkpt lat="49.11332" lon="-1.11145">
        <ele>60.02</ele>
      </trkpt>
      <trkpt lat="49.11318" lon="-1.11263">
        <ele>57.88</ele>
      </trkpt>
      <trkpt lat="49.11319" lon="-1.11287">
        <ele>56.7</ele>
      </trkpt>
      <trkpt lat="49.11313" lon="-1.11338">
        <ele>55.54</ele>
      </trkpt>
      <trkpt lat="49.11311" lon="-1.11429">
        <ele>55.38</ele>
      </trkpt>
      <trkpt lat="49.11308" lon="-1.11446">
        <ele>55.22</ele>
      </trkpt>
      <trkpt lat="49.11297" lon="-1.1148">
        <ele>54.35</ele>
      </trkpt>
      <trkpt lat="49.11295" lon="-1.1149">
        <ele>54.25</ele>
      </trkpt>
      <trkpt lat="49.11296" lon="-1.11514">
        <ele>54.53</ele>
      </trkpt>
      <trkpt lat="49.11289" lon="-1.11622">
        <ele>57.14</ele>
      </trkpt>
      <trkpt lat="49.11289" lon="-1.11649">
        <ele>57.82</ele>
      </trkpt>
      <trkpt lat="49.11286" lon="-1.11673">
        <ele>57.99</ele>
      </trkpt>
      <trkpt lat="49.11283" lon="-1.1168">
        <ele>57.9</ele>
      </trkpt>
      <trkpt lat="49.11269" lon="-1.11704">
        <ele>56.97</ele>
      </trkpt>
      <trkpt lat="49.11256" lon="-1.11799">
        <ele>57.41</ele>
      </trkpt>
      <trkpt lat="49.11257" lon="-1.11813">
        <ele>57.41</ele>
      </trkpt>
      <trkpt lat="49.11277" lon="-1.1182">
        <ele>61.63</ele>
      </trkpt>
      <trkpt lat="49.11277" lon="-1.11821">
        <ele>61.73</ele>
      </trkpt>
      <trkpt lat="49.11327" lon="-1.11835">
        <ele>64.98</ele>
      </trkpt>
      <trkpt lat="49.11324" lon="-1.11771">
        <ele>64.42</ele>
      </trkpt>
      <trkpt lat="49.11325" lon="-1.11751">
        <ele>64.17</ele>
      </trkpt>
      <trkpt lat="49.11329" lon="-1.11727">
        <ele>64.11</ele>
      </trkpt>
      <trkpt lat="49.11356" lon="-1.11656">
        <ele>64.24</ele>
      </trkpt>
      <trkpt lat="49.1136" lon="-1.11639">
        <ele>64.24</ele>
      </trkpt>
      <trkpt lat="49.11364" lon="-1.11596">
        <ele>64.51</ele>
      </trkpt>
      <trkpt lat="49.11399" lon="-1.11599">
        <ele>65.84</ele>
      </trkpt>
      <trkpt lat="49.1141" lon="-1.11595">
        <ele>66.3</ele>
      </trkpt>
      <trkpt lat="49.11419" lon="-1.11582">
        <ele>66.68</ele>
      </trkpt>
      <trkpt lat="49.11423" lon="-1.11572">
        <ele>66.68</ele>
      </trkpt>
      <trkpt lat="49.11426" lon="-1.11555">
        <ele>66.75</ele>
      </trkpt>
      <trkpt lat="49.11428" lon="-1.11511">
        <ele>66.83</ele>
      </trkpt>
      <trkpt lat="49.11427" lon="-1.11428">
        <ele>66.96</ele>
      </trkpt>
      <trkpt lat="49.1144" lon="-1.11419">
        <ele>67.13</ele>
      </trkpt>
      <trkpt lat="49.1145" lon="-1.11413">
        <ele>67.2</ele>
      </trkpt>
      <trkpt lat="49.11505" lon="-1.11416">
        <ele>66.48</ele>
      </trkpt>
      <trkpt lat="49.11533" lon="-1.11395">
        <ele>65.52</ele>
      </trkpt>
      <trkpt lat="49.11538" lon="-1.11382">
        <ele>65.52</ele>
      </trkpt>
      <trkpt lat="49.11545" lon="-1.11327">
        <ele>64.54</ele>
      </trkpt>
      <trkpt lat="49.1161" lon="-1.11364">
        <ele>62.73</ele>
      </trkpt>
      <trkpt lat="49.11614" lon="-1.11358">
        <ele>62.73</ele>
      </trkpt>
      <trkpt lat="49.11617" lon="-1.11355">
        <ele>62.73</ele>
      </trkpt>
      <trkpt lat="49.11623" lon="-1.11356">
        <ele>62.63</ele>
      </trkpt>
      <trkpt lat="49.11651" lon="-1.11257">
        <ele>59.75</ele>
      </trkpt>
      <trkpt lat="49.11679" lon="-1.11157">
        <ele>57.47</ele>
      </trkpt>
      <trkpt lat="49.1171" lon="-1.11172">
        <ele>55.47</ele>
      </trkpt>
      <trkpt lat="49.11739" lon="-1.11165">
        <ele>54.25</ele>
      </trkpt>
      <trkpt lat="49.11774" lon="-1.11162">
        <ele>52.55</ele>
      </trkpt>
      <trkpt lat="49.11824" lon="-1.11169">
        <ele>49.51</ele>
      </trkpt>
      <trkpt lat="49.11852" lon="-1.11179">
        <ele>47.57</ele>
      </trkpt>
      <trkpt lat="49.11863" lon="-1.11187">
        <ele>47.8</ele>
      </trkpt>
      <trkpt lat="49.11903" lon="-1.11222">
        <ele>44.89</ele>
      </trkpt>
      <trkpt lat="49.11952" lon="-1.1128">
        <ele>42.29</ele>
      </trkpt>
      <trkpt lat="49.11965" lon="-1.11278">
        <ele>41.05</ele>
      </trkpt>
      <trkpt lat="49.11971" lon="-1.11219">
        <ele>39.84</ele>
        <extensions>
          <visugpx:TrkExtension xmlns:visugpx="https://www.visugpx.com/editgpx/">
            <visugpx:node>2</visugpx:node>
            </visugpx:TrkExtension>
        </extensions>
      </trkpt>
    </trkseg>
  </trk>
</gpx>