<?xml version="1.0" encoding="UTF-8" standalone="no" ?>
<gpx xmlns="http://www.topografix.com/GPX/1/1" xmlns:xsi="http://www.w3.org/2001/XMLSchema-instance" xsi:schemaLocation="http://www.topografix.com/GPX/1/1 http://www.topografix.com/GPX/1/1/gpx.xsd" version="1.1" creator="VisuGPX - https://www.visugpx.com">
  <metadata>
    <name>Challenge AGGLO VTT OK BRUT</name>
  </metadata>
  <trk>
    <name><![CDATA[Baudre]]></name>
    <extensions>
      <line xmlns="http://www.topografix.com/GPX/gpx_style/0/2">
        <color>FF00FF</color>
        <opacity>1</opacity>
        <width>4</width>
      </line>
    </extensions>
    <trkseg>
      <trkpt lat="49.08962" lon="-1.07371">
        <ele>72.07</ele>
        <extensions>
          <visugpx:TrkExtension xmlns:visugpx="https://www.visugpx.com/editgpx/">
            <visugpx:node>1</visugpx:node>
            </visugpx:TrkExtension>
        </extensions>
      </trkpt>
      <trkpt lat="49.08938" lon="-1.07434">
        <ele>72.73</ele>
      </trkpt>
      <trkpt lat="49.0891" lon="-1.07535">
        <ele>71.19</ele>
      </trkpt>
      <trkpt lat="49.0888" lon="-1.07609">
        <ele>69.49</ele>
      </trkpt>
      <trkpt lat="49.08839" lon="-1.07695">
        <ele>66.18</ele>
      </trkpt>
      <trkpt lat="49.08836" lon="-1.07701">
        <ele>66.18</ele>
      </trkpt>
      <trkpt lat="49.08796" lon="-1.0773">
        <ele>64.62</ele>
      </trkpt>
      <trkpt lat="49.08805" lon="-1.07755">
        <ele>64.32</ele>
      </trkpt>
      <trkpt lat="49.08771" lon="-1.07826">
        <ele>61.75</ele>
      </trkpt>
      <trkpt lat="49.08737" lon="-1.07897">
        <ele>57.41</ele>
      </trkpt>
      <trkpt lat="49.08709" lon="-1.07938">
        <ele>54.43</ele>
      </trkpt>
      <trkpt lat="49.08674" lon="-1.07994">
        <ele>49.08</ele>
      </trkpt>
      <trkpt lat="49.08639" lon="-1.0805">
        <ele>44.87</ele>
      </trkpt>
      <trkpt lat="49.0861" lon="-1.08087">
        <ele>41.73</ele>
      </trkpt>
      <trkpt lat="49.08602" lon="-1.08089">
        <ele>41.65</ele>
      </trkpt>
      <trkpt lat="49.08616" lon="-1.08206">
        <ele>36.78</ele>
      </trkpt>
      <trkpt lat="49.0862" lon="-1.08226">
        <ele>36.21</ele>
      </trkpt>
      <trkpt lat="49.08593" lon="-1.0824">
        <ele>33.41</ele>
      </trkpt>
      <trkpt lat="49.08589" lon="-1.08308">
        <ele>30.01</ele>
      </trkpt>
      <trkpt lat="49.0859" lon="-1.08382">
        <ele>26.51</ele>
      </trkpt>
      <trkpt lat="49.08581" lon="-1.08426">
        <ele>23.79</ele>
      </trkpt>
      <trkpt lat="49.08573" lon="-1.08436">
        <ele>23.03</ele>
      </trkpt>
      <trkpt lat="49.0856" lon="-1.0844">
        <ele>22.73</ele>
      </trkpt>
      <trkpt lat="49.08537" lon="-1.08491">
        <ele>21.93</ele>
      </trkpt>
      <trkpt lat="49.08538" lon="-1.08491">
        <ele>21.94</ele>
      </trkpt>
      <trkpt lat="49.08557" lon="-1.08487">
        <ele>22.61</ele>
      </trkpt>
      <trkpt lat="49.08585" lon="-1.08477">
        <ele>24.48</ele>
      </trkpt>
      <trkpt lat="49.08599" lon="-1.08515">
        <ele>26.25</ele>
      </trkpt>
      <trkpt lat="49.08604" lon="-1.08538">
        <ele>28.35</ele>
      </trkpt>
      <trkpt lat="49.08609" lon="-1.08542">
        <ele>29.03</ele>
      </trkpt>
      <trkpt lat="49.08619" lon="-1.08545">
        <ele>31.15</ele>
      </trkpt>
      <trkpt lat="49.08632" lon="-1.08541">
        <ele>33.83</ele>
      </trkpt>
      <trkpt lat="49.08684" lon="-1.08518">
        <ele>40.17</ele>
      </trkpt>
      <trkpt lat="49.08709" lon="-1.08504">
        <ele>41</ele>
      </trkpt>
      <trkpt lat="49.08744" lon="-1.08497">
        <ele>42.92</ele>
      </trkpt>
      <trkpt lat="49.08815" lon="-1.08504">
        <ele>47.62</ele>
      </trkpt>
      <trkpt lat="49.08832" lon="-1.08518">
        <ele>49.94</ele>
      </trkpt>
      <trkpt lat="49.08848" lon="-1.08521">
        <ele>50.89</ele>
      </trkpt>
      <trkpt lat="49.08883" lon="-1.08514">
        <ele>51.64</ele>
      </trkpt>
      <trkpt lat="49.08929" lon="-1.08501">
        <ele>51.8</ele>
      </trkpt>
      <trkpt lat="49.08979" lon="-1.08484">
        <ele>51.59</ele>
      </trkpt>
      <trkpt lat="49.09006" lon="-1.08477">
        <ele>51.35</ele>
      </trkpt>
      <trkpt lat="49.09069" lon="-1.08477">
        <ele>51.48</ele>
      </trkpt>
      <trkpt lat="49.09078" lon="-1.08471">
        <ele>52.36</ele>
      </trkpt>
      <trkpt lat="49.09155" lon="-1.08416">
        <ele>51.31</ele>
      </trkpt>
      <trkpt lat="49.09203" lon="-1.08372">
        <ele>50.93</ele>
      </trkpt>
      <trkpt lat="49.0925" lon="-1.08327">
        <ele>51.03</ele>
      </trkpt>
      <trkpt lat="49.09264" lon="-1.08379">
        <ele>54.23</ele>
      </trkpt>
      <trkpt lat="49.09315" lon="-1.08472">
        <ele>60.42</ele>
      </trkpt>
      <trkpt lat="49.09332" lon="-1.08474">
        <ele>62.11</ele>
      </trkpt>
      <trkpt lat="49.09343" lon="-1.0848">
        <ele>62.74</ele>
      </trkpt>
      <trkpt lat="49.09386" lon="-1.08528">
        <ele>66.87</ele>
      </trkpt>
      <trkpt lat="49.09428" lon="-1.08575">
        <ele>71.61</ele>
      </trkpt>
      <trkpt lat="49.09445" lon="-1.08586">
        <ele>74.36</ele>
      </trkpt>
      <trkpt lat="49.09486" lon="-1.08606">
        <ele>79.93</ele>
      </trkpt>
      <trkpt lat="49.09545" lon="-1.08608">
        <ele>84.86</ele>
      </trkpt>
      <trkpt lat="49.09604" lon="-1.08609">
        <ele>87.75</ele>
      </trkpt>
      <trkpt lat="49.0963" lon="-1.0861">
        <ele>88.41</ele>
      </trkpt>
      <trkpt lat="49.0965" lon="-1.08616">
        <ele>89.23</ele>
      </trkpt>
      <trkpt lat="49.09693" lon="-1.08644">
        <ele>90.9</ele>
      </trkpt>
      <trkpt lat="49.09754" lon="-1.08689">
        <ele>92.69</ele>
      </trkpt>
      <trkpt lat="49.09794" lon="-1.08721">
        <ele>93.53</ele>
      </trkpt>
      <trkpt lat="49.09819" lon="-1.08735">
        <ele>94.24</ele>
      </trkpt>
      <trkpt lat="49.09824" lon="-1.0884">
        <ele>94.84</ele>
      </trkpt>
      <trkpt lat="49.09823" lon="-1.08894">
        <ele>94.97</ele>
      </trkpt>
      <trkpt lat="49.09826" lon="-1.08992">
        <ele>94.33</ele>
      </trkpt>
      <trkpt lat="49.09829" lon="-1.0909">
        <ele>93.59</ele>
      </trkpt>
      <trkpt lat="49.09823" lon="-1.09168">
        <ele>93.22</ele>
      </trkpt>
      <trkpt lat="49.09825" lon="-1.09248">
        <ele>91.23</ele>
      </trkpt>
      <trkpt lat="49.09827" lon="-1.09328">
        <ele>88.57</ele>
      </trkpt>
      <trkpt lat="49.09825" lon="-1.09335">
        <ele>86.85</ele>
      </trkpt>
      <trkpt lat="49.09821" lon="-1.09341">
        <ele>86.85</ele>
      </trkpt>
      <trkpt lat="49.09806" lon="-1.09355">
        <ele>85.69</ele>
      </trkpt>
      <trkpt lat="49.09801" lon="-1.09365">
        <ele>85.44</ele>
      </trkpt>
      <trkpt lat="49.09799" lon="-1.09375">
        <ele>85.03</ele>
      </trkpt>
      <trkpt lat="49.09799" lon="-1.0939">
        <ele>84.73</ele>
      </trkpt>
      <trkpt lat="49.09809" lon="-1.09426">
        <ele>85.37</ele>
      </trkpt>
      <trkpt lat="49.09828" lon="-1.09453">
        <ele>85.55</ele>
      </trkpt>
      <trkpt lat="49.09834" lon="-1.09467">
        <ele>85.4</ele>
      </trkpt>
      <trkpt lat="49.09839" lon="-1.09548">
        <ele>83.99</ele>
      </trkpt>
      <trkpt lat="49.09844" lon="-1.09585">
        <ele>83.44</ele>
      </trkpt>
      <trkpt lat="49.09846" lon="-1.09654">
        <ele>82.74</ele>
      </trkpt>
      <trkpt lat="49.09842" lon="-1.09751">
        <ele>80.59</ele>
      </trkpt>
      <trkpt lat="49.09838" lon="-1.09847">
        <ele>79.27</ele>
      </trkpt>
      <trkpt lat="49.09829" lon="-1.09974">
        <ele>78.34</ele>
      </trkpt>
      <trkpt lat="49.09819" lon="-1.10102">
        <ele>77.56</ele>
      </trkpt>
      <trkpt lat="49.0981" lon="-1.10229">
        <ele>76.74</ele>
      </trkpt>
      <trkpt lat="49.09802" lon="-1.10259">
        <ele>76.62</ele>
      </trkpt>
      <trkpt lat="49.09755" lon="-1.1029">
        <ele>76.74</ele>
      </trkpt>
      <trkpt lat="49.09706" lon="-1.10328">
        <ele>77.32</ele>
      </trkpt>
      <trkpt lat="49.09681" lon="-1.10342">
        <ele>78.37</ele>
      </trkpt>
      <trkpt lat="49.0963" lon="-1.10351">
        <ele>80.49</ele>
      </trkpt>
      <trkpt lat="49.09577" lon="-1.10355">
        <ele>81.11</ele>
      </trkpt>
      <trkpt lat="49.09524" lon="-1.10359">
        <ele>79.88</ele>
      </trkpt>
      <trkpt lat="49.09499" lon="-1.10359">
        <ele>79.4</ele>
      </trkpt>
      <trkpt lat="49.09493" lon="-1.10346">
        <ele>79.29</ele>
      </trkpt>
      <trkpt lat="49.09488" lon="-1.10368">
        <ele>77.52</ele>
      </trkpt>
      <trkpt lat="49.0948" lon="-1.10382">
        <ele>76.59</ele>
      </trkpt>
      <trkpt lat="49.0945" lon="-1.10385">
        <ele>73.05</ele>
      </trkpt>
      <trkpt lat="49.0944" lon="-1.10389">
        <ele>72.31</ele>
      </trkpt>
      <trkpt lat="49.09432" lon="-1.10399">
        <ele>71.84</ele>
      </trkpt>
      <trkpt lat="49.09426" lon="-1.10443">
        <ele>72.51</ele>
      </trkpt>
      <trkpt lat="49.09424" lon="-1.10521">
        <ele>73.44</ele>
      </trkpt>
      <trkpt lat="49.0942" lon="-1.10565">
        <ele>74.28</ele>
      </trkpt>
      <trkpt lat="49.09403" lon="-1.10636">
        <ele>73.96</ele>
      </trkpt>
      <trkpt lat="49.0939" lon="-1.1068">
        <ele>71.82</ele>
      </trkpt>
      <trkpt lat="49.09379" lon="-1.10704">
        <ele>68.77</ele>
      </trkpt>
      <trkpt lat="49.09364" lon="-1.10714">
        <ele>67.63</ele>
      </trkpt>
      <trkpt lat="49.09336" lon="-1.10731">
        <ele>64.82</ele>
      </trkpt>
      <trkpt lat="49.09298" lon="-1.10738">
        <ele>57.55</ele>
      </trkpt>
      <trkpt lat="49.09269" lon="-1.10761">
        <ele>51.43</ele>
      </trkpt>
      <trkpt lat="49.09253" lon="-1.10774">
        <ele>49.33</ele>
      </trkpt>
      <trkpt lat="49.09244" lon="-1.10786">
        <ele>48.13</ele>
      </trkpt>
      <trkpt lat="49.09182" lon="-1.1085">
        <ele>35.82</ele>
      </trkpt>
      <trkpt lat="49.09172" lon="-1.10863">
        <ele>34.51</ele>
      </trkpt>
      <trkpt lat="49.09148" lon="-1.10942">
        <ele>31.15</ele>
      </trkpt>
      <trkpt lat="49.0914" lon="-1.10961">
        <ele>31.15</ele>
      </trkpt>
      <trkpt lat="49.0913" lon="-1.1101">
        <ele>29.19</ele>
      </trkpt>
      <trkpt lat="49.0913" lon="-1.11009">
        <ele>29.19</ele>
      </trkpt>
      <trkpt lat="49.0913" lon="-1.11111">
        <ele>27.63</ele>
      </trkpt>
      <trkpt lat="49.09134" lon="-1.11151">
        <ele>27.46</ele>
      </trkpt>
      <trkpt lat="49.09153" lon="-1.11268">
        <ele>26.77</ele>
      </trkpt>
      <trkpt lat="49.09171" lon="-1.11385">
        <ele>24.48</ele>
      </trkpt>
      <trkpt lat="49.09193" lon="-1.1149">
        <ele>24.65</ele>
      </trkpt>
      <trkpt lat="49.09218" lon="-1.11592">
        <ele>23.23</ele>
      </trkpt>
      <trkpt lat="49.09229" lon="-1.11629">
        <ele>22.5</ele>
      </trkpt>
      <trkpt lat="49.09247" lon="-1.1167">
        <ele>20.85</ele>
      </trkpt>
      <trkpt lat="49.09255" lon="-1.117">
        <ele>19.24</ele>
      </trkpt>
      <trkpt lat="49.09243" lon="-1.11704">
        <ele>19.1</ele>
      </trkpt>
      <trkpt lat="49.09213" lon="-1.11724">
        <ele>19.12</ele>
      </trkpt>
      <trkpt lat="49.09142" lon="-1.11779">
        <ele>18.91</ele>
      </trkpt>
      <trkpt lat="49.09158" lon="-1.11825">
        <ele>18.05</ele>
      </trkpt>
      <trkpt lat="49.09186" lon="-1.11928">
        <ele>14.6</ele>
      </trkpt>
      <trkpt lat="49.09206" lon="-1.11991">
        <ele>14.6</ele>
      </trkpt>
      <trkpt lat="49.09226" lon="-1.12053">
        <ele>14.48</ele>
      </trkpt>
      <trkpt lat="49.09229" lon="-1.12069">
        <ele>14.48</ele>
      </trkpt>
      <trkpt lat="49.09231" lon="-1.12093">
        <ele>14.46</ele>
      </trkpt>
      <trkpt lat="49.09239" lon="-1.12121">
        <ele>14.42</ele>
      </trkpt>
      <trkpt lat="49.09264" lon="-1.12157">
        <ele>14.46</ele>
      </trkpt>
      <trkpt lat="49.09263" lon="-1.12156">
        <ele>14.46</ele>
      </trkpt>
      <trkpt lat="49.09268" lon="-1.12162">
        <ele>14.46</ele>
      </trkpt>
      <trkpt lat="49.09306" lon="-1.12188">
        <ele>14.36</ele>
      </trkpt>
      <trkpt lat="49.09369" lon="-1.12214">
        <ele>14.42</ele>
      </trkpt>
      <trkpt lat="49.09431" lon="-1.12241">
        <ele>14.27</ele>
      </trkpt>
      <trkpt lat="49.09494" lon="-1.12267">
        <ele>14.2</ele>
      </trkpt>
      <trkpt lat="49.09526" lon="-1.12314">
        <ele>14.04</ele>
      </trkpt>
      <trkpt lat="49.09571" lon="-1.12421">
        <ele>14.08</ele>
      </trkpt>
      <trkpt lat="49.09577" lon="-1.1243">
        <ele>14.07</ele>
      </trkpt>
      <trkpt lat="49.09588" lon="-1.12449">
        <ele>14.21</ele>
      </trkpt>
      <trkpt lat="49.09616" lon="-1.1248">
        <ele>14.3</ele>
      </trkpt>
      <trkpt lat="49.09646" lon="-1.12504">
        <ele>14.28</ele>
      </trkpt>
      <trkpt lat="49.09691" lon="-1.12521">
        <ele>14.56</ele>
      </trkpt>
      <trkpt lat="49.09734" lon="-1.12524">
        <ele>14.34</ele>
      </trkpt>
      <trkpt lat="49.09803" lon="-1.12521">
        <ele>14.18</ele>
      </trkpt>
      <trkpt lat="49.09871" lon="-1.12533">
        <ele>14.1</ele>
      </trkpt>
      <trkpt lat="49.09938" lon="-1.12545">
        <ele>14.04</ele>
      </trkpt>
      <trkpt lat="49.09955" lon="-1.12544">
        <ele>14.23</ele>
      </trkpt>
      <trkpt lat="49.09999" lon="-1.12531">
        <ele>14.23</ele>
      </trkpt>
      <trkpt lat="49.10044" lon="-1.12504">
        <ele>13.89</ele>
      </trkpt>
      <trkpt lat="49.1007" lon="-1.12493">
        <ele>13.86</ele>
      </trkpt>
      <trkpt lat="49.10081" lon="-1.1249">
        <ele>13.86</ele>
      </trkpt>
      <trkpt lat="49.10093" lon="-1.1249">
        <ele>13.75</ele>
      </trkpt>
      <trkpt lat="49.10136" lon="-1.12496">
        <ele>13.84</ele>
      </trkpt>
      <trkpt lat="49.10192" lon="-1.12517">
        <ele>13.86</ele>
      </trkpt>
      <trkpt lat="49.10223" lon="-1.12545">
        <ele>13.71</ele>
      </trkpt>
      <trkpt lat="49.10276" lon="-1.12609">
        <ele>13.46</ele>
      </trkpt>
      <trkpt lat="49.10305" lon="-1.12629">
        <ele>13.79</ele>
      </trkpt>
      <trkpt lat="49.10326" lon="-1.12636">
        <ele>13.8</ele>
      </trkpt>
      <trkpt lat="49.10357" lon="-1.12639">
        <ele>13.9</ele>
      </trkpt>
      <trkpt lat="49.10413" lon="-1.12623">
        <ele>13.97</ele>
      </trkpt>
      <trkpt lat="49.1043" lon="-1.12612">
        <ele>13.97</ele>
      </trkpt>
      <trkpt lat="49.10443" lon="-1.12602">
        <ele>13.9</ele>
      </trkpt>
      <trkpt lat="49.10477" lon="-1.12561">
        <ele>13.85</ele>
      </trkpt>
      <trkpt lat="49.10494" lon="-1.12538">
        <ele>13.74</ele>
      </trkpt>
      <trkpt lat="49.10522" lon="-1.12514">
        <ele>13.74</ele>
      </trkpt>
      <trkpt lat="49.10535" lon="-1.12497">
        <ele>13.74</ele>
      </trkpt>
      <trkpt lat="49.10578" lon="-1.1246">
        <ele>13.7</ele>
      </trkpt>
      <trkpt lat="49.10598" lon="-1.12466">
        <ele>13.63</ele>
      </trkpt>
      <trkpt lat="49.10683" lon="-1.12446">
        <ele>13.99</ele>
      </trkpt>
      <trkpt lat="49.10767" lon="-1.12426">
        <ele>13.44</ele>
      </trkpt>
      <trkpt lat="49.10784" lon="-1.12422">
        <ele>13.31</ele>
      </trkpt>
      <trkpt lat="49.1079" lon="-1.12416">
        <ele>13.28</ele>
      </trkpt>
      <trkpt lat="49.10792" lon="-1.12415">
        <ele>13.27</ele>
      </trkpt>
      <trkpt lat="49.10808" lon="-1.12402">
        <ele>13</ele>
      </trkpt>
      <trkpt lat="49.10826" lon="-1.12378">
        <ele>12.94</ele>
      </trkpt>
      <trkpt lat="49.10877" lon="-1.12283">
        <ele>13.01</ele>
      </trkpt>
      <trkpt lat="49.10892" lon="-1.12266">
        <ele>12.99</ele>
      </trkpt>
      <trkpt lat="49.10927" lon="-1.12241">
        <ele>11.5</ele>
      </trkpt>
      <trkpt lat="49.10949" lon="-1.12283">
        <ele>14.9</ele>
      </trkpt>
      <trkpt lat="49.10975" lon="-1.12259">
        <ele>16.4</ele>
      </trkpt>
      <trkpt lat="49.10994" lon="-1.1224">
        <ele>17.3</ele>
      </trkpt>
      <trkpt lat="49.11014" lon="-1.12216">
        <ele>17.2</ele>
      </trkpt>
      <trkpt lat="49.11037" lon="-1.12196">
        <ele>18.4</ele>
      </trkpt>
      <trkpt lat="49.11041" lon="-1.12196">
        <ele>19.5</ele>
      </trkpt>
      <trkpt lat="49.11042" lon="-1.12205">
        <ele>21.3</ele>
      </trkpt>
      <trkpt lat="49.11039" lon="-1.12212">
        <ele>21.8</ele>
      </trkpt>
      <trkpt lat="49.1104" lon="-1.12227">
        <ele>24.2</ele>
      </trkpt>
      <trkpt lat="49.11049" lon="-1.12248">
        <ele>28.1</ele>
      </trkpt>
      <trkpt lat="49.11052" lon="-1.12261">
        <ele>28.3</ele>
      </trkpt>
      <trkpt lat="49.11051" lon="-1.12278">
        <ele>27.7</ele>
      </trkpt>
      <trkpt lat="49.11046" lon="-1.12268">
        <ele>27.6</ele>
      </trkpt>
      <trkpt lat="49.10992" lon="-1.12125">
        <ele>14.5</ele>
      </trkpt>
      <trkpt lat="49.10968" lon="-1.12069">
        <ele>17.6</ele>
      </trkpt>
      <trkpt lat="49.10939" lon="-1.12019">
        <ele>17.6</ele>
      </trkpt>
      <trkpt lat="49.10898" lon="-1.11948">
        <ele>19</ele>
      </trkpt>
      <trkpt lat="49.10865" lon="-1.119">
        <ele>22.1</ele>
      </trkpt>
      <trkpt lat="49.10877" lon="-1.11901">
        <ele>20.6</ele>
      </trkpt>
      <trkpt lat="49.10885" lon="-1.1191">
        <ele>19.5</ele>
      </trkpt>
      <trkpt lat="49.10895" lon="-1.11924">
        <ele>18.6</ele>
      </trkpt>
      <trkpt lat="49.10931" lon="-1.11977">
        <ele>16.6</ele>
      </trkpt>
      <trkpt lat="49.1096" lon="-1.12005">
        <ele>14.7</ele>
      </trkpt>
      <trkpt lat="49.10967" lon="-1.12016">
        <ele>14.7</ele>
      </trkpt>
      <trkpt lat="49.10971" lon="-1.12039">
        <ele>15.5</ele>
      </trkpt>
      <trkpt lat="49.10999" lon="-1.12102">
        <ele>14.5</ele>
      </trkpt>
      <trkpt lat="49.11003" lon="-1.12108">
        <ele>14.3</ele>
      </trkpt>
      <trkpt lat="49.11004" lon="-1.12113">
        <ele>14.1</ele>
      </trkpt>
      <trkpt lat="49.10999" lon="-1.12127">
        <ele>12.9</ele>
      </trkpt>
      <trkpt lat="49.10987" lon="-1.12145">
        <ele>13.1</ele>
      </trkpt>
      <trkpt lat="49.10965" lon="-1.12163">
        <ele>11.9</ele>
      </trkpt>
      <trkpt lat="49.10957" lon="-1.12168">
        <ele>11.5</ele>
      </trkpt>
      <trkpt lat="49.10949" lon="-1.12167">
        <ele>11.8</ele>
      </trkpt>
      <trkpt lat="49.10913" lon="-1.12097">
        <ele>13.07</ele>
      </trkpt>
      <trkpt lat="49.10857" lon="-1.11995">
        <ele>18.25</ele>
      </trkpt>
      <trkpt lat="49.10844" lon="-1.11972">
        <ele>19.56</ele>
      </trkpt>
      <trkpt lat="49.1083" lon="-1.11955">
        <ele>21.76</ele>
      </trkpt>
      <trkpt lat="49.10763" lon="-1.11902">
        <ele>30.6</ele>
      </trkpt>
      <trkpt lat="49.10697" lon="-1.11848">
        <ele>36.67</ele>
      </trkpt>
      <trkpt lat="49.1063" lon="-1.11795">
        <ele>38.79</ele>
      </trkpt>
      <trkpt lat="49.10551" lon="-1.11749">
        <ele>41.13</ele>
      </trkpt>
      <trkpt lat="49.10546" lon="-1.1175">
        <ele>41.12</ele>
      </trkpt>
      <trkpt lat="49.10541" lon="-1.11751">
        <ele>41.12</ele>
      </trkpt>
      <trkpt lat="49.10527" lon="-1.11766">
        <ele>41.09</ele>
      </trkpt>
      <trkpt lat="49.10526" lon="-1.11779">
        <ele>40.84</ele>
      </trkpt>
      <trkpt lat="49.10513" lon="-1.11822">
        <ele>39.95</ele>
      </trkpt>
      <trkpt lat="49.10493" lon="-1.11873">
        <ele>38.65</ele>
      </trkpt>
      <trkpt lat="49.10465" lon="-1.11894">
        <ele>36.97</ele>
      </trkpt>
      <trkpt lat="49.10473" lon="-1.11919">
        <ele>36.26</ele>
      </trkpt>
      <trkpt lat="49.10462" lon="-1.11927">
        <ele>36.28</ele>
      </trkpt>
      <trkpt lat="49.10446" lon="-1.11931">
        <ele>36.61</ele>
      </trkpt>
      <trkpt lat="49.10429" lon="-1.11932">
        <ele>37.13</ele>
      </trkpt>
      <trkpt lat="49.10412" lon="-1.11941">
        <ele>37.13</ele>
      </trkpt>
      <trkpt lat="49.10405" lon="-1.11944">
        <ele>38.47</ele>
      </trkpt>
      <trkpt lat="49.10399" lon="-1.11938">
        <ele>38.47</ele>
      </trkpt>
      <trkpt lat="49.10391" lon="-1.11921">
        <ele>38.47</ele>
      </trkpt>
      <trkpt lat="49.10382" lon="-1.11894">
        <ele>39.6</ele>
      </trkpt>
      <trkpt lat="49.10374" lon="-1.11883">
        <ele>40.51</ele>
      </trkpt>
      <trkpt lat="49.10367" lon="-1.11883">
        <ele>40.51</ele>
      </trkpt>
      <trkpt lat="49.10311" lon="-1.1191">
        <ele>42.31</ele>
      </trkpt>
      <trkpt lat="49.10248" lon="-1.11927">
        <ele>42.97</ele>
      </trkpt>
      <trkpt lat="49.10227" lon="-1.11931">
        <ele>42.92</ele>
      </trkpt>
      <trkpt lat="49.10181" lon="-1.11927">
        <ele>44.49</ele>
      </trkpt>
      <trkpt lat="49.10128" lon="-1.11927">
        <ele>47.47</ele>
      </trkpt>
      <trkpt lat="49.10096" lon="-1.11934">
        <ele>48.2</ele>
      </trkpt>
      <trkpt lat="49.10034" lon="-1.11955">
        <ele>49.28</ele>
      </trkpt>
      <trkpt lat="49.10019" lon="-1.11955">
        <ele>49.64</ele>
      </trkpt>
      <trkpt lat="49.09989" lon="-1.11948">
        <ele>52.02</ele>
      </trkpt>
      <trkpt lat="49.09931" lon="-1.11955">
        <ele>53.42</ele>
      </trkpt>
      <trkpt lat="49.09919" lon="-1.11948">
        <ele>53.5</ele>
      </trkpt>
      <trkpt lat="49.09904" lon="-1.11916">
        <ele>54.94</ele>
      </trkpt>
      <trkpt lat="49.09873" lon="-1.11956">
        <ele>54.65</ele>
      </trkpt>
      <trkpt lat="49.09856" lon="-1.11931">
        <ele>54.35</ele>
      </trkpt>
      <trkpt lat="49.09848" lon="-1.11907">
        <ele>55.01</ele>
      </trkpt>
      <trkpt lat="49.09846" lon="-1.11883">
        <ele>55.01</ele>
      </trkpt>
      <trkpt lat="49.09855" lon="-1.11843">
        <ele>56.34</ele>
      </trkpt>
      <trkpt lat="49.09851" lon="-1.11829">
        <ele>56.34</ele>
      </trkpt>
      <trkpt lat="49.09838" lon="-1.11795">
        <ele>58.25</ele>
      </trkpt>
      <trkpt lat="49.09832" lon="-1.11771">
        <ele>58.25</ele>
      </trkpt>
      <trkpt lat="49.09835" lon="-1.11761">
        <ele>58.25</ele>
      </trkpt>
      <trkpt lat="49.09856" lon="-1.11734">
        <ele>59.49</ele>
      </trkpt>
      <trkpt lat="49.09868" lon="-1.1171">
        <ele>59.85</ele>
      </trkpt>
      <trkpt lat="49.09888" lon="-1.11684">
        <ele>60.85</ele>
      </trkpt>
      <trkpt lat="49.09903" lon="-1.11659">
        <ele>60.85</ele>
      </trkpt>
      <trkpt lat="49.09896" lon="-1.11646">
        <ele>61.59</ele>
      </trkpt>
      <trkpt lat="49.09885" lon="-1.11609">
        <ele>61.97</ele>
      </trkpt>
      <trkpt lat="49.09855" lon="-1.11531">
        <ele>63.56</ele>
      </trkpt>
      <trkpt lat="49.09824" lon="-1.11453">
        <ele>66.55</ele>
      </trkpt>
      <trkpt lat="49.09778" lon="-1.11385">
        <ele>69.68</ele>
      </trkpt>
      <trkpt lat="49.09764" lon="-1.11352">
        <ele>71.67</ele>
      </trkpt>
      <trkpt lat="49.09731" lon="-1.1124">
        <ele>73.02</ele>
      </trkpt>
      <trkpt lat="49.0972" lon="-1.1121">
        <ele>73.43</ele>
      </trkpt>
      <trkpt lat="49.0972" lon="-1.11211">
        <ele>73.43</ele>
      </trkpt>
      <trkpt lat="49.09776" lon="-1.11131">
        <ele>72.07</ele>
      </trkpt>
      <trkpt lat="49.09794" lon="-1.11119">
        <ele>71.49</ele>
      </trkpt>
      <trkpt lat="49.09843" lon="-1.11094">
        <ele>69.29</ele>
      </trkpt>
      <trkpt lat="49.09865" lon="-1.11087">
        <ele>68</ele>
      </trkpt>
      <trkpt lat="49.09872" lon="-1.11092">
        <ele>67.8</ele>
      </trkpt>
      <trkpt lat="49.09881" lon="-1.11085">
        <ele>67.3</ele>
      </trkpt>
      <trkpt lat="49.09891" lon="-1.11069">
        <ele>66.9</ele>
      </trkpt>
      <trkpt lat="49.09888" lon="-1.11054">
        <ele>67.2</ele>
      </trkpt>
      <trkpt lat="49.09877" lon="-1.11036">
        <ele>68.2</ele>
      </trkpt>
      <trkpt lat="49.09866" lon="-1.10989">
        <ele>68.1</ele>
      </trkpt>
      <trkpt lat="49.09848" lon="-1.10858">
        <ele>68.9</ele>
      </trkpt>
      <trkpt lat="49.09843" lon="-1.108">
        <ele>69.6</ele>
      </trkpt>
      <trkpt lat="49.0984" lon="-1.10731">
        <ele>69.8</ele>
      </trkpt>
      <trkpt lat="49.09843" lon="-1.10646">
        <ele>70.7</ele>
      </trkpt>
      <trkpt lat="49.09845" lon="-1.10578">
        <ele>71.1</ele>
      </trkpt>
      <trkpt lat="49.09851" lon="-1.10498">
        <ele>72.8</ele>
      </trkpt>
      <trkpt lat="49.09855" lon="-1.10434">
        <ele>72.7</ele>
      </trkpt>
      <trkpt lat="49.09865" lon="-1.10303">
        <ele>73</ele>
      </trkpt>
      <trkpt lat="49.09877" lon="-1.10131">
        <ele>74.1</ele>
      </trkpt>
      <trkpt lat="49.09942" lon="-1.10043">
        <ele>72.6</ele>
      </trkpt>
      <trkpt lat="49.10017" lon="-1.0996">
        <ele>70.3</ele>
      </trkpt>
      <trkpt lat="49.10093" lon="-1.09872">
        <ele>69.3</ele>
      </trkpt>
      <trkpt lat="49.10126" lon="-1.09841">
        <ele>67.6</ele>
      </trkpt>
      <trkpt lat="49.10146" lon="-1.09831">
        <ele>66.9</ele>
      </trkpt>
      <trkpt lat="49.10142" lon="-1.09841">
        <ele>66.6</ele>
      </trkpt>
      <trkpt lat="49.10156" lon="-1.09863">
        <ele>65.4</ele>
      </trkpt>
      <trkpt lat="49.10172" lon="-1.09877">
        <ele>65.2</ele>
      </trkpt>
      <trkpt lat="49.10179" lon="-1.09875">
        <ele>65.4</ele>
      </trkpt>
      <trkpt lat="49.10185" lon="-1.09872">
        <ele>65.7</ele>
      </trkpt>
      <trkpt lat="49.10198" lon="-1.09879">
        <ele>66.2</ele>
      </trkpt>
      <trkpt lat="49.10202" lon="-1.09868">
        <ele>66.5</ele>
      </trkpt>
      <trkpt lat="49.10199" lon="-1.09814">
        <ele>69.45</ele>
      </trkpt>
      <trkpt lat="49.10197" lon="-1.0977">
        <ele>69.46</ele>
      </trkpt>
      <trkpt lat="49.10238" lon="-1.09752">
        <ele>70</ele>
      </trkpt>
      <trkpt lat="49.10297" lon="-1.09747">
        <ele>70.34</ele>
      </trkpt>
      <trkpt lat="49.10351" lon="-1.09745">
        <ele>70.98</ele>
      </trkpt>
      <trkpt lat="49.10382" lon="-1.0974">
        <ele>71.15</ele>
      </trkpt>
      <trkpt lat="49.10386" lon="-1.09667">
        <ele>73.7</ele>
      </trkpt>
      <trkpt lat="49.10382" lon="-1.09545">
        <ele>76.8</ele>
      </trkpt>
      <trkpt lat="49.10384" lon="-1.09446">
        <ele>77.6</ele>
      </trkpt>
      <trkpt lat="49.10388" lon="-1.09393">
        <ele>76.17</ele>
      </trkpt>
      <trkpt lat="49.1043" lon="-1.09406">
        <ele>73.66</ele>
      </trkpt>
      <trkpt lat="49.10457" lon="-1.09409">
        <ele>72.21</ele>
      </trkpt>
      <trkpt lat="49.10465" lon="-1.09321">
        <ele>73.35</ele>
      </trkpt>
      <trkpt lat="49.10469" lon="-1.09313">
        <ele>73.35</ele>
      </trkpt>
      <trkpt lat="49.1047" lon="-1.09311">
        <ele>73.36</ele>
      </trkpt>
      <trkpt lat="49.10475" lon="-1.09195">
        <ele>73.64</ele>
      </trkpt>
      <trkpt lat="49.10481" lon="-1.09079">
        <ele>73.43</ele>
      </trkpt>
      <trkpt lat="49.10486" lon="-1.08963">
        <ele>70.43</ele>
      </trkpt>
      <trkpt lat="49.10469" lon="-1.08962">
        <ele>71.44</ele>
      </trkpt>
      <trkpt lat="49.10455" lon="-1.08955">
        <ele>72.16</ele>
      </trkpt>
      <trkpt lat="49.10451" lon="-1.08962">
        <ele>72.16</ele>
      </trkpt>
      <trkpt lat="49.10402" lon="-1.08972">
        <ele>76.44</ele>
      </trkpt>
      <trkpt lat="49.10358" lon="-1.08958">
        <ele>77.63</ele>
      </trkpt>
      <trkpt lat="49.10307" lon="-1.0895">
        <ele>79.35</ele>
      </trkpt>
      <trkpt lat="49.10233" lon="-1.08941">
        <ele>79.78</ele>
      </trkpt>
      <trkpt lat="49.10205" lon="-1.08924">
        <ele>81.02</ele>
      </trkpt>
      <trkpt lat="49.10182" lon="-1.089">
        <ele>81.77</ele>
      </trkpt>
      <trkpt lat="49.10168" lon="-1.08894">
        <ele>82.95</ele>
      </trkpt>
      <trkpt lat="49.10123" lon="-1.08865">
        <ele>85.05</ele>
      </trkpt>
      <trkpt lat="49.10124" lon="-1.08866">
        <ele>85.06</ele>
      </trkpt>
      <trkpt lat="49.10105" lon="-1.08981">
        <ele>87.03</ele>
      </trkpt>
      <trkpt lat="49.10092" lon="-1.09052">
        <ele>86.79</ele>
      </trkpt>
      <trkpt lat="49.10078" lon="-1.09122">
        <ele>86.01</ele>
      </trkpt>
      <trkpt lat="49.10071" lon="-1.09148">
        <ele>85.8</ele>
      </trkpt>
      <trkpt lat="49.10065" lon="-1.09152">
        <ele>85.8</ele>
      </trkpt>
      <trkpt lat="49.1006" lon="-1.09162">
        <ele>85.52</ele>
      </trkpt>
      <trkpt lat="49.10058" lon="-1.09169">
        <ele>85.04</ele>
      </trkpt>
      <trkpt lat="49.10057" lon="-1.09213">
        <ele>84.31</ele>
      </trkpt>
      <trkpt lat="49.10044" lon="-1.09214">
        <ele>84.13</ele>
      </trkpt>
      <trkpt lat="49.10043" lon="-1.09253">
        <ele>83.15</ele>
      </trkpt>
      <trkpt lat="49.10046" lon="-1.09352">
        <ele>82.83</ele>
      </trkpt>
      <trkpt lat="49.10012" lon="-1.09366">
        <ele>83.76</ele>
      </trkpt>
      <trkpt lat="49.0999" lon="-1.09366">
        <ele>84.1</ele>
      </trkpt>
      <trkpt lat="49.09989" lon="-1.09354">
        <ele>83.8</ele>
      </trkpt>
      <trkpt lat="49.09984" lon="-1.09341">
        <ele>83.3</ele>
      </trkpt>
      <trkpt lat="49.09976" lon="-1.09334">
        <ele>83</ele>
      </trkpt>
      <trkpt lat="49.09966" lon="-1.09328">
        <ele>83.2</ele>
      </trkpt>
      <trkpt lat="49.09955" lon="-1.09313">
        <ele>83.7</ele>
      </trkpt>
      <trkpt lat="49.09937" lon="-1.09273">
        <ele>85.9</ele>
      </trkpt>
      <trkpt lat="49.09925" lon="-1.09235">
        <ele>86.8</ele>
      </trkpt>
      <trkpt lat="49.09914" lon="-1.09204">
        <ele>88.7</ele>
      </trkpt>
      <trkpt lat="49.09905" lon="-1.09166">
        <ele>89.6</ele>
      </trkpt>
      <trkpt lat="49.09898" lon="-1.09129">
        <ele>90.4</ele>
      </trkpt>
      <trkpt lat="49.09888" lon="-1.09038">
        <ele>92.1</ele>
      </trkpt>
      <trkpt lat="49.09886" lon="-1.09014">
        <ele>92.2</ele>
      </trkpt>
      <trkpt lat="49.09884" lon="-1.08939">
        <ele>93.4</ele>
      </trkpt>
      <trkpt lat="49.09885" lon="-1.08848">
        <ele>93.4</ele>
      </trkpt>
      <trkpt lat="49.09888" lon="-1.08796">
        <ele>93.2</ele>
      </trkpt>
      <trkpt lat="49.09892" lon="-1.08753">
        <ele>93</ele>
      </trkpt>
      <trkpt lat="49.09891" lon="-1.08728">
        <ele>92.3</ele>
      </trkpt>
      <trkpt lat="49.09901" lon="-1.08695">
        <ele>92.6</ele>
      </trkpt>
      <trkpt lat="49.09897" lon="-1.08661">
        <ele>92</ele>
      </trkpt>
      <trkpt lat="49.09912" lon="-1.08557">
        <ele>92</ele>
      </trkpt>
      <trkpt lat="49.0992" lon="-1.08508">
        <ele>91.1</ele>
      </trkpt>
      <trkpt lat="49.09926" lon="-1.08477">
        <ele>91.9</ele>
      </trkpt>
      <trkpt lat="49.09934" lon="-1.08459">
        <ele>92</ele>
      </trkpt>
      <trkpt lat="49.09935" lon="-1.08448">
        <ele>92.18</ele>
      </trkpt>
      <trkpt lat="49.0995" lon="-1.08368">
        <ele>92.2</ele>
      </trkpt>
      <trkpt lat="49.09965" lon="-1.08287">
        <ele>92.72</ele>
      </trkpt>
      <trkpt lat="49.09964" lon="-1.08285">
        <ele>92.74</ele>
      </trkpt>
      <trkpt lat="49.09975" lon="-1.08291">
        <ele>92.03</ele>
      </trkpt>
      <trkpt lat="49.09984" lon="-1.0829">
        <ele>92.03</ele>
      </trkpt>
      <trkpt lat="49.10066" lon="-1.08266">
        <ele>92.16</ele>
      </trkpt>
      <trkpt lat="49.1007" lon="-1.08284">
        <ele>90.62</ele>
      </trkpt>
      <trkpt lat="49.10072" lon="-1.08331">
        <ele>90.44</ele>
      </trkpt>
      <trkpt lat="49.10063" lon="-1.08372">
        <ele>90.41</ele>
      </trkpt>
      <trkpt lat="49.10052" lon="-1.08384">
        <ele>90.51</ele>
      </trkpt>
      <trkpt lat="49.10063" lon="-1.0841">
        <ele>90.1</ele>
      </trkpt>
      <trkpt lat="49.10067" lon="-1.08416">
        <ele>90.1</ele>
      </trkpt>
      <trkpt lat="49.10074" lon="-1.08414">
        <ele>90.1</ele>
      </trkpt>
      <trkpt lat="49.10079" lon="-1.08444">
        <ele>89.75</ele>
      </trkpt>
      <trkpt lat="49.10087" lon="-1.08477">
        <ele>89.77</ele>
      </trkpt>
      <trkpt lat="49.10107" lon="-1.08524">
        <ele>88.26</ele>
      </trkpt>
      <trkpt lat="49.10121" lon="-1.08545">
        <ele>87.58</ele>
      </trkpt>
      <trkpt lat="49.10156" lon="-1.08585">
        <ele>85.81</ele>
      </trkpt>
      <trkpt lat="49.10181" lon="-1.086">
        <ele>85.97</ele>
      </trkpt>
      <trkpt lat="49.10209" lon="-1.08609">
        <ele>84.25</ele>
      </trkpt>
      <trkpt lat="49.10231" lon="-1.08613">
        <ele>82.89</ele>
      </trkpt>
      <trkpt lat="49.10248" lon="-1.0861">
        <ele>82</ele>
      </trkpt>
      <trkpt lat="49.10283" lon="-1.08599">
        <ele>80.17</ele>
      </trkpt>
      <trkpt lat="49.10306" lon="-1.08584">
        <ele>79.67</ele>
      </trkpt>
      <trkpt lat="49.10337" lon="-1.0868">
        <ele>76.61</ele>
      </trkpt>
      <trkpt lat="49.10371" lon="-1.08649">
        <ele>73.47</ele>
      </trkpt>
      <trkpt lat="49.10391" lon="-1.08623">
        <ele>72.04</ele>
      </trkpt>
      <trkpt lat="49.10419" lon="-1.08572">
        <ele>70.94</ele>
      </trkpt>
      <trkpt lat="49.10437" lon="-1.08589">
        <ele>68.6</ele>
      </trkpt>
      <trkpt lat="49.10467" lon="-1.08611">
        <ele>67.95</ele>
      </trkpt>
      <trkpt lat="49.10499" lon="-1.08643">
        <ele>66.93</ele>
      </trkpt>
      <trkpt lat="49.10514" lon="-1.08663">
        <ele>66.54</ele>
      </trkpt>
      <trkpt lat="49.10549" lon="-1.08724">
        <ele>65.25</ele>
      </trkpt>
      <trkpt lat="49.10555" lon="-1.08716">
        <ele>64.88</ele>
      </trkpt>
      <trkpt lat="49.10582" lon="-1.08695">
        <ele>63.28</ele>
      </trkpt>
      <trkpt lat="49.10585" lon="-1.08681">
        <ele>63.28</ele>
      </trkpt>
      <trkpt lat="49.10591" lon="-1.08674">
        <ele>63.28</ele>
      </trkpt>
      <trkpt lat="49.10596" lon="-1.08671">
        <ele>61.84</ele>
      </trkpt>
      <trkpt lat="49.10608" lon="-1.08677">
        <ele>61.84</ele>
      </trkpt>
      <trkpt lat="49.10617" lon="-1.08663">
        <ele>60.89</ele>
      </trkpt>
      <trkpt lat="49.10672" lon="-1.08655">
        <ele>60.18</ele>
      </trkpt>
      <trkpt lat="49.10726" lon="-1.08647">
        <ele>59.32</ele>
      </trkpt>
      <trkpt lat="49.10771" lon="-1.0865">
        <ele>56.73</ele>
      </trkpt>
      <trkpt lat="49.10777" lon="-1.08666">
        <ele>56.73</ele>
      </trkpt>
      <trkpt lat="49.10833" lon="-1.08613">
        <ele>54.38</ele>
      </trkpt>
      <trkpt lat="49.10888" lon="-1.08559">
        <ele>53.16</ele>
      </trkpt>
      <trkpt lat="49.10889" lon="-1.08558">
        <ele>53.14</ele>
      </trkpt>
      <trkpt lat="49.10867" lon="-1.08518">
        <ele>52.83</ele>
      </trkpt>
      <trkpt lat="49.10849" lon="-1.08496">
        <ele>52.74</ele>
      </trkpt>
      <trkpt lat="49.1083" lon="-1.0848">
        <ele>52.5</ele>
      </trkpt>
      <trkpt lat="49.10803" lon="-1.0845">
        <ele>51.77</ele>
      </trkpt>
      <trkpt lat="49.10792" lon="-1.08443">
        <ele>51.59</ele>
      </trkpt>
      <trkpt lat="49.10777" lon="-1.0844">
        <ele>51.74</ele>
      </trkpt>
      <trkpt lat="49.10753" lon="-1.08429">
        <ele>52.26</ele>
      </trkpt>
      <trkpt lat="49.10738" lon="-1.08423">
        <ele>52.67</ele>
      </trkpt>
      <trkpt lat="49.10728" lon="-1.08414">
        <ele>53.03</ele>
      </trkpt>
      <trkpt lat="49.1072" lon="-1.08406">
        <ele>53.45</ele>
      </trkpt>
      <trkpt lat="49.10686" lon="-1.08354">
        <ele>56.68</ele>
      </trkpt>
      <trkpt lat="49.10652" lon="-1.08301">
        <ele>60.49</ele>
      </trkpt>
      <trkpt lat="49.10632" lon="-1.08277">
        <ele>62</ele>
      </trkpt>
      <trkpt lat="49.10606" lon="-1.08253">
        <ele>65.33</ele>
      </trkpt>
      <trkpt lat="49.10576" lon="-1.08209">
        <ele>66.17</ele>
      </trkpt>
      <trkpt lat="49.10561" lon="-1.08179">
        <ele>68.05</ele>
      </trkpt>
      <trkpt lat="49.1052" lon="-1.08112">
        <ele>70.79</ele>
      </trkpt>
      <trkpt lat="49.1051" lon="-1.08097">
        <ele>71.97</ele>
      </trkpt>
      <trkpt lat="49.1044" lon="-1.08022">
        <ele>75.92</ele>
      </trkpt>
      <trkpt lat="49.10439" lon="-1.08021">
        <ele>75.97</ele>
      </trkpt>
      <trkpt lat="49.10469" lon="-1.07935">
        <ele>75.38</ele>
      </trkpt>
      <trkpt lat="49.1049" lon="-1.0786">
        <ele>73.9</ele>
      </trkpt>
      <trkpt lat="49.10511" lon="-1.07785">
        <ele>72.89</ele>
      </trkpt>
      <trkpt lat="49.10537" lon="-1.07717">
        <ele>72.23</ele>
      </trkpt>
      <trkpt lat="49.10546" lon="-1.0768">
        <ele>72.29</ele>
      </trkpt>
      <trkpt lat="49.1055" lon="-1.07612">
        <ele>73.76</ele>
      </trkpt>
      <trkpt lat="49.10552" lon="-1.07607">
        <ele>73.78</ele>
      </trkpt>
      <trkpt lat="49.10566" lon="-1.07541">
        <ele>75.7</ele>
      </trkpt>
      <trkpt lat="49.1058" lon="-1.07474">
        <ele>78.85</ele>
      </trkpt>
      <trkpt lat="49.10584" lon="-1.0739">
        <ele>81.02</ele>
      </trkpt>
      <trkpt lat="49.10587" lon="-1.07306">
        <ele>81.6</ele>
      </trkpt>
      <trkpt lat="49.10556" lon="-1.07277">
        <ele>82.7</ele>
      </trkpt>
      <trkpt lat="49.10564" lon="-1.07141">
        <ele>82.45</ele>
      </trkpt>
      <trkpt lat="49.10567" lon="-1.07081">
        <ele>81.88</ele>
      </trkpt>
      <trkpt lat="49.10613" lon="-1.07033">
        <ele>81.52</ele>
      </trkpt>
      <trkpt lat="49.10658" lon="-1.06985">
        <ele>79.94</ele>
      </trkpt>
      <trkpt lat="49.10652" lon="-1.06976">
        <ele>80.68</ele>
      </trkpt>
      <trkpt lat="49.1065" lon="-1.06969">
        <ele>80.68</ele>
      </trkpt>
      <trkpt lat="49.10663" lon="-1.06951">
        <ele>80.84</ele>
      </trkpt>
      <trkpt lat="49.10665" lon="-1.06928">
        <ele>81.16</ele>
      </trkpt>
      <trkpt lat="49.10662" lon="-1.06881">
        <ele>81.68</ele>
      </trkpt>
      <trkpt lat="49.10664" lon="-1.06834">
        <ele>81.92</ele>
      </trkpt>
      <trkpt lat="49.10672" lon="-1.06789">
        <ele>82.1</ele>
      </trkpt>
      <trkpt lat="49.10678" lon="-1.06769">
        <ele>82.23</ele>
      </trkpt>
      <trkpt lat="49.10686" lon="-1.06755">
        <ele>82.23</ele>
      </trkpt>
      <trkpt lat="49.10695" lon="-1.06745">
        <ele>82.39</ele>
      </trkpt>
      <trkpt lat="49.10709" lon="-1.06708">
        <ele>82.43</ele>
      </trkpt>
      <trkpt lat="49.10722" lon="-1.06653">
        <ele>82.27</ele>
      </trkpt>
      <trkpt lat="49.10726" lon="-1.06623">
        <ele>82.17</ele>
      </trkpt>
      <trkpt lat="49.10729" lon="-1.06582">
        <ele>82.01</ele>
      </trkpt>
      <trkpt lat="49.10739" lon="-1.06567">
        <ele>81.89</ele>
      </trkpt>
      <trkpt lat="49.10755" lon="-1.06565">
        <ele>81.16</ele>
      </trkpt>
      <trkpt lat="49.10761" lon="-1.0656">
        <ele>80.69</ele>
      </trkpt>
      <trkpt lat="49.10753" lon="-1.06528">
        <ele>81.05</ele>
      </trkpt>
      <trkpt lat="49.10722" lon="-1.06441">
        <ele>84.61</ele>
      </trkpt>
      <trkpt lat="49.1069" lon="-1.06354">
        <ele>89.12</ele>
      </trkpt>
      <trkpt lat="49.1069" lon="-1.06348">
        <ele>89.36</ele>
      </trkpt>
      <trkpt lat="49.10694" lon="-1.06342">
        <ele>89.57</ele>
      </trkpt>
      <trkpt lat="49.10743" lon="-1.06291">
        <ele>89.27</ele>
      </trkpt>
      <trkpt lat="49.10757" lon="-1.06203">
        <ele>89.4</ele>
      </trkpt>
      <trkpt lat="49.1078" lon="-1.06176">
        <ele>89.31</ele>
      </trkpt>
      <trkpt lat="49.10823" lon="-1.06121">
        <ele>88.93</ele>
      </trkpt>
      <trkpt lat="49.10767" lon="-1.06054">
        <ele>87.31</ele>
      </trkpt>
      <trkpt lat="49.10746" lon="-1.06033">
        <ele>86.95</ele>
      </trkpt>
      <trkpt lat="49.10737" lon="-1.06016">
        <ele>86.56</ele>
      </trkpt>
      <trkpt lat="49.10736" lon="-1.06001">
        <ele>86.56</ele>
      </trkpt>
      <trkpt lat="49.10739" lon="-1.05988">
        <ele>86.38</ele>
      </trkpt>
      <trkpt lat="49.10723" lon="-1.05966">
        <ele>85.95</ele>
      </trkpt>
      <trkpt lat="49.10769" lon="-1.05888">
        <ele>83.02</ele>
      </trkpt>
      <trkpt lat="49.10814" lon="-1.0581">
        <ele>83.54</ele>
      </trkpt>
      <trkpt lat="49.1086" lon="-1.05732">
        <ele>85.43</ele>
      </trkpt>
      <trkpt lat="49.10829" lon="-1.05688">
        <ele>84.45</ele>
      </trkpt>
      <trkpt lat="49.10809" lon="-1.05668">
        <ele>81.94</ele>
      </trkpt>
      <trkpt lat="49.10804" lon="-1.0566">
        <ele>81.94</ele>
      </trkpt>
      <trkpt lat="49.10796" lon="-1.05633">
        <ele>81.24</ele>
      </trkpt>
      <trkpt lat="49.1079" lon="-1.05624">
        <ele>81.24</ele>
      </trkpt>
      <trkpt lat="49.10785" lon="-1.05621">
        <ele>80.95</ele>
      </trkpt>
      <trkpt lat="49.10784" lon="-1.05622">
        <ele>80.94</ele>
      </trkpt>
      <trkpt lat="49.10793" lon="-1.05606">
        <ele>81.07</ele>
      </trkpt>
      <trkpt lat="49.1085" lon="-1.05614">
        <ele>82.79</ele>
      </trkpt>
      <trkpt lat="49.10907" lon="-1.05621">
        <ele>84.24</ele>
      </trkpt>
      <trkpt lat="49.10882" lon="-1.05561">
        <ele>81.83</ele>
      </trkpt>
      <trkpt lat="49.10857" lon="-1.05501">
        <ele>79.65</ele>
      </trkpt>
      <trkpt lat="49.10837" lon="-1.0546">
        <ele>77.83</ele>
      </trkpt>
      <trkpt lat="49.10799" lon="-1.05392">
        <ele>76.08</ele>
      </trkpt>
      <trkpt lat="49.10795" lon="-1.05392">
        <ele>76.01</ele>
      </trkpt>
      <trkpt lat="49.10757" lon="-1.0544">
        <ele>75.22</ele>
      </trkpt>
      <trkpt lat="49.10719" lon="-1.05488">
        <ele>74.48</ele>
      </trkpt>
      <trkpt lat="49.1066" lon="-1.05549">
        <ele>72.87</ele>
      </trkpt>
      <trkpt lat="49.10613" lon="-1.05566">
        <ele>71.19</ele>
      </trkpt>
      <trkpt lat="49.10566" lon="-1.05582">
        <ele>68.55</ele>
      </trkpt>
      <trkpt lat="49.10546" lon="-1.0558">
        <ele>68.49</ele>
      </trkpt>
      <trkpt lat="49.10515" lon="-1.05567">
        <ele>68.39</ele>
      </trkpt>
      <trkpt lat="49.105" lon="-1.05565">
        <ele>68.67</ele>
      </trkpt>
      <trkpt lat="49.10452" lon="-1.05591">
        <ele>71.49</ele>
      </trkpt>
      <trkpt lat="49.10404" lon="-1.05616">
        <ele>74.88</ele>
      </trkpt>
      <trkpt lat="49.1038" lon="-1.05623">
        <ele>76.13</ele>
      </trkpt>
      <trkpt lat="49.10332" lon="-1.05611">
        <ele>77.85</ele>
      </trkpt>
      <trkpt lat="49.10284" lon="-1.05599">
        <ele>77.67</ele>
      </trkpt>
      <trkpt lat="49.10257" lon="-1.05583">
        <ele>77.76</ele>
      </trkpt>
      <trkpt lat="49.10199" lon="-1.05535">
        <ele>77.58</ele>
      </trkpt>
      <trkpt lat="49.10192" lon="-1.05532">
        <ele>77.52</ele>
      </trkpt>
      <trkpt lat="49.10183" lon="-1.05532">
        <ele>77.46</ele>
      </trkpt>
      <trkpt lat="49.10158" lon="-1.05546">
        <ele>77.43</ele>
      </trkpt>
      <trkpt lat="49.10087" lon="-1.05559">
        <ele>77.26</ele>
      </trkpt>
      <trkpt lat="49.10062" lon="-1.05566">
        <ele>77.64</ele>
      </trkpt>
      <trkpt lat="49.09998" lon="-1.05596">
        <ele>79.46</ele>
      </trkpt>
      <trkpt lat="49.09986" lon="-1.05606">
        <ele>79.46</ele>
      </trkpt>
      <trkpt lat="49.09952" lon="-1.05663">
        <ele>80.49</ele>
      </trkpt>
      <trkpt lat="49.09918" lon="-1.05719">
        <ele>80.19</ele>
      </trkpt>
      <trkpt lat="49.09889" lon="-1.05814">
        <ele>79.26</ele>
      </trkpt>
      <trkpt lat="49.09849" lon="-1.05751">
        <ele>75.89</ele>
      </trkpt>
      <trkpt lat="49.09834" lon="-1.05742">
        <ele>74.59</ele>
      </trkpt>
      <trkpt lat="49.09819" lon="-1.05735">
        <ele>73.76</ele>
      </trkpt>
      <trkpt lat="49.09798" lon="-1.05742">
        <ele>72.86</ele>
      </trkpt>
      <trkpt lat="49.09786" lon="-1.05755">
        <ele>71.5</ele>
      </trkpt>
      <trkpt lat="49.09767" lon="-1.05793">
        <ele>69.84</ele>
      </trkpt>
      <trkpt lat="49.0975" lon="-1.05817">
        <ele>65.45</ele>
      </trkpt>
      <trkpt lat="49.09733" lon="-1.05828">
        <ele>64.21</ele>
      </trkpt>
      <trkpt lat="49.09735" lon="-1.05864">
        <ele>63.41</ele>
      </trkpt>
      <trkpt lat="49.09728" lon="-1.05891">
        <ele>62.94</ele>
      </trkpt>
      <trkpt lat="49.09689" lon="-1.05942">
        <ele>61.24</ele>
      </trkpt>
      <trkpt lat="49.09666" lon="-1.05959">
        <ele>59.71</ele>
      </trkpt>
      <trkpt lat="49.09649" lon="-1.05956">
        <ele>58.57</ele>
      </trkpt>
      <trkpt lat="49.09648" lon="-1.05949">
        <ele>58.57</ele>
      </trkpt>
      <trkpt lat="49.09625" lon="-1.05918">
        <ele>56.52</ele>
      </trkpt>
      <trkpt lat="49.09616" lon="-1.05898">
        <ele>54.94</ele>
      </trkpt>
      <trkpt lat="49.09599" lon="-1.05786">
        <ele>50.49</ele>
      </trkpt>
      <trkpt lat="49.09552" lon="-1.05716">
        <ele>44.03</ele>
      </trkpt>
      <trkpt lat="49.0949" lon="-1.05746">
        <ele>40.77</ele>
      </trkpt>
      <trkpt lat="49.09428" lon="-1.05776">
        <ele>40.53</ele>
      </trkpt>
      <trkpt lat="49.09413" lon="-1.05788">
        <ele>39.94</ele>
      </trkpt>
      <trkpt lat="49.09398" lon="-1.0581">
        <ele>39.43</ele>
      </trkpt>
      <trkpt lat="49.09386" lon="-1.05876">
        <ele>39.14</ele>
      </trkpt>
      <trkpt lat="49.09373" lon="-1.05942">
        <ele>39.11</ele>
      </trkpt>
      <trkpt lat="49.09348" lon="-1.0599">
        <ele>38.66</ele>
      </trkpt>
      <trkpt lat="49.093" lon="-1.06033">
        <ele>38.09</ele>
      </trkpt>
      <trkpt lat="49.09284" lon="-1.06067">
        <ele>37.59</ele>
      </trkpt>
      <trkpt lat="49.09279" lon="-1.06183">
        <ele>37.31</ele>
      </trkpt>
      <trkpt lat="49.09274" lon="-1.06207">
        <ele>37.23</ele>
      </trkpt>
      <trkpt lat="49.09264" lon="-1.06226">
        <ele>36.93</ele>
      </trkpt>
      <trkpt lat="49.09233" lon="-1.0626">
        <ele>36.72</ele>
      </trkpt>
      <trkpt lat="49.09187" lon="-1.06291">
        <ele>35.62</ele>
      </trkpt>
      <trkpt lat="49.0915" lon="-1.06311">
        <ele>34.16</ele>
      </trkpt>
      <trkpt lat="49.09121" lon="-1.06342">
        <ele>33.43</ele>
      </trkpt>
      <trkpt lat="49.09113" lon="-1.06359">
        <ele>33.36</ele>
      </trkpt>
      <trkpt lat="49.09054" lon="-1.06444">
        <ele>32.78</ele>
      </trkpt>
      <trkpt lat="49.09014" lon="-1.06562">
        <ele>33.25</ele>
      </trkpt>
      <trkpt lat="49.09008" lon="-1.06603">
        <ele>34.04</ele>
      </trkpt>
      <trkpt lat="49.08998" lon="-1.06608">
        <ele>34.23</ele>
      </trkpt>
      <trkpt lat="49.08983" lon="-1.0663">
        <ele>33.59</ele>
      </trkpt>
      <trkpt lat="49.08983" lon="-1.0664">
        <ele>33.81</ele>
      </trkpt>
      <trkpt lat="49.0896" lon="-1.06677">
        <ele>36.18</ele>
      </trkpt>
      <trkpt lat="49.08947" lon="-1.06694">
        <ele>38.59</ele>
      </trkpt>
      <trkpt lat="49.08919" lon="-1.06718">
        <ele>45.75</ele>
      </trkpt>
      <trkpt lat="49.08916" lon="-1.06759">
        <ele>50.48</ele>
      </trkpt>
      <trkpt lat="49.08919" lon="-1.06796">
        <ele>52.75</ele>
      </trkpt>
      <trkpt lat="49.08917" lon="-1.0681">
        <ele>53.3</ele>
      </trkpt>
      <trkpt lat="49.08934" lon="-1.06837">
        <ele>54.58</ele>
      </trkpt>
      <trkpt lat="49.08953" lon="-1.0686">
        <ele>55.52</ele>
      </trkpt>
      <trkpt lat="49.08963" lon="-1.06935">
        <ele>58.68</ele>
      </trkpt>
      <trkpt lat="49.08973" lon="-1.07009">
        <ele>61.41</ele>
      </trkpt>
      <trkpt lat="49.08973" lon="-1.0705">
        <ele>62.8</ele>
      </trkpt>
      <trkpt lat="49.08963" lon="-1.07156">
        <ele>65.89</ele>
      </trkpt>
      <trkpt lat="49.08957" lon="-1.07202">
        <ele>66.44</ele>
      </trkpt>
      <trkpt lat="49.08945" lon="-1.07223">
        <ele>67</ele>
      </trkpt>
      <trkpt lat="49.0892" lon="-1.07251">
        <ele>68.13</ele>
      </trkpt>
      <trkpt lat="49.08924" lon="-1.0728">
        <ele>68.84</ele>
      </trkpt>
      <trkpt lat="49.08933" lon="-1.07314">
        <ele>69.25</ele>
      </trkpt>
      <trkpt lat="49.08958" lon="-1.07362">
        <ele>71.93</ele>
      </trkpt>
      <trkpt lat="49.08962" lon="-1.07365">
        <ele>71.7</ele>
      </trkpt>
      <trkpt lat="49.08962" lon="-1.07371">
        <ele>72.07</ele>
        <extensions>
          <visugpx:TrkExtension xmlns:visugpx="https://www.visugpx.com/editgpx/">
            <visugpx:node>1</visugpx:node>
            </visugpx:TrkExtension>
        </extensions>
      </trkpt>
    </trkseg>
  </trk>
</gpx>