<?xml version="1.0" encoding="UTF-8" standalone="no" ?>
<gpx xmlns="http://www.topografix.com/GPX/1/1" xmlns:xsi="http://www.w3.org/2001/XMLSchema-instance" xsi:schemaLocation="http://www.topografix.com/GPX/1/1 http://www.topografix.com/GPX/1/1/gpx.xsd" version="1.1" creator="VisuGPX - https://www.visugpx.com">
  <metadata>
    <name>Challenge AGGLO VTT OK</name>
  </metadata>
  <wpt lat="49.09332" lon="-1.30669">
    <ele>84.9</ele>
    <name><![CDATA[LE LOREY NON]]></name>
    <type><![CDATA[alarm]]></type>
  </wpt>
  <wpt lat="48.96028" lon="-1.16617">
    <ele>167.2</ele>
    <name><![CDATA[HORS AGGLO]]></name>
    <type><![CDATA[Waypoint]]></type>
  </wpt>
  <wpt lat="48.93355" lon="-1.12301">
    <ele>185.7</ele>
    <name><![CDATA[HORS AGGLO]]></name>
    <type><![CDATA[Waypoint]]></type>
  </wpt>
  <wpt lat="48.93209" lon="-1.09537">
    <ele>142</ele>
    <name><![CDATA[Gouvet]]></name>
  </wpt>
  <wpt lat="48.93558" lon="-1.02774">
    <ele>48</ele>
    <type><![CDATA[Waypoint]]></type>
  </wpt>
  <wpt lat="49.02065" lon="-0.92388">
    <ele>139.7</ele>
    <type><![CDATA[alarm]]></type>
  </wpt>
  <wpt lat="49.02981" lon="-0.90702">
    <ele>181.2</ele>
    <type><![CDATA[alarm]]></type>
  </wpt>
  <wpt lat="49.05257" lon="-0.90144">
    <ele>134.3</ele>
    <type><![CDATA[alarm]]></type>
  </wpt>
  <wpt lat="49.08597" lon="-0.96383">
    <ele>140.7</ele>
  </wpt>
  <wpt lat="49.08152" lon="-0.88906">
    <ele>96.3</ele>
    <type><![CDATA[alarm]]></type>
  </wpt>
  <wpt lat="49.08517" lon="-0.90799">
    <ele>130.6</ele>
    <type><![CDATA[alarm]]></type>
  </wpt>
  <wpt lat="49.10422" lon="-0.9407">
    <ele>165.3</ele>
    <type><![CDATA[alarm]]></type>
  </wpt>
  <wpt lat="49.09815" lon="-0.90157">
    <ele>136.5</ele>
    <type><![CDATA[alarm]]></type>
  </wpt>
  <wpt lat="49.10905" lon="-0.8856">
    <ele>110.1</ele>
    <type><![CDATA[alarm]]></type>
  </wpt>
  <wpt lat="49.13006" lon="-0.85453">
    <ele>103.7</ele>
    <type><![CDATA[Waypoint]]></type>
  </wpt>
  <wpt lat="49.15387" lon="-0.90363">
    <ele>120.9</ele>
    <type><![CDATA[Waypoint]]></type>
  </wpt>
  <wpt lat="49.20807" lon="-1.02036">
    <ele>48</ele>
    <type><![CDATA[Waypoint]]></type>
  </wpt>
  <wpt lat="49.21154" lon="-1.04353">
    <ele>42</ele>
    <type><![CDATA[alarm]]></type>
  </wpt>
  <wpt lat="49.24764" lon="-1.04404">
    <ele>49.7</ele>
    <type><![CDATA[Waypoint]]></type>
  </wpt>
  <wpt lat="49.22163" lon="-1.07975">
    <ele>7</ele>
  </wpt>
  <wpt lat="49.21984" lon="-1.09108">
    <ele>10.4</ele>
  </wpt>
  <wpt lat="49.27486" lon="-1.14636">
    <ele>26.9</ele>
    <type><![CDATA[Waypoint]]></type>
  </wpt>
  <wpt lat="49.22578" lon="-1.1661">
    <ele>36.2</ele>
    <type><![CDATA[alarm]]></type>
  </wpt>
  <wpt lat="49.20392" lon="-1.16695">
    <ele>32.9</ele>
    <type><![CDATA[alarm]]></type>
  </wpt>
  <wpt lat="49.23867" lon="-1.20163">
    <ele>11.2</ele>
    <type><![CDATA[alarm]]></type>
  </wpt>
  <wpt lat="49.15432" lon="-1.17863">
    <ele>22.5</ele>
  </wpt>
  <wpt lat="49.18952" lon="-1.18887">
    <ele>7</ele>
    <type><![CDATA[alarm]]></type>
  </wpt>
  <wpt lat="49.18222" lon="-1.23039">
    <ele>26.4</ele>
    <type><![CDATA[alarm]]></type>
  </wpt>
  <wpt lat="49.21347" lon="-1.24204">
    <ele>4.8</ele>
    <type><![CDATA[Waypoint]]></type>
  </wpt>
  <wpt lat="49.1808" lon="-1.25758">
    <ele>13.8</ele>
    <type><![CDATA[alarm]]></type>
  </wpt>
  <wpt lat="49.18778" lon="-1.29084">
    <ele>16</ele>
    <type><![CDATA[Waypoint]]></type>
  </wpt>
  <wpt lat="49.16038" lon="-1.283">
    <ele>10.4</ele>
    <type><![CDATA[alarm]]></type>
  </wpt>
  <wpt lat="49.15028" lon="-1.23047">
    <ele>31.3</ele>
    <type><![CDATA[alarm]]></type>
  </wpt>
  <wpt lat="49.13635" lon="-1.23768">
    <ele>50.1</ele>
    <type><![CDATA[alarm]]></type>
  </wpt>
  <wpt lat="49.14219" lon="-1.26171">
    <ele>20.4</ele>
    <type><![CDATA[alarm]]></type>
  </wpt>
  <wpt lat="49.12665" lon="-1.30103">
    <ele>62.3</ele>
    <type><![CDATA[Waypoint]]></type>
  </wpt>
  <wpt lat="48.93677" lon="-1.03545">
    <ele>62.5</ele>
    <type><![CDATA[alarm]]></type>
  </wpt>
  <wpt lat="49.08957" lon="-1.07266">
    <ele>69.7</ele>
    <name><![CDATA[Parking]]></name>
    <type><![CDATA[park]]></type>
  </wpt>
  <wpt lat="49.09044" lon="-1.07268">
    <ele>74.8</ele>
    <name><![CDATA[Parking]]></name>
    <type><![CDATA[park]]></type>
  </wpt>
  <wpt lat="49.03772" lon="-1.10606">
    <ele>139.4</ele>
    <name><![CDATA[Test]]></name>
  </wpt>
  <trk>
    <name><![CDATA[Bourgvallée 1]]></name>
    <desc><![CDATA[Saint Samson/Gourfaleur/La Mancelliere/Saint Romphaire]]></desc>
    <extensions>
      <line xmlns="http://www.topografix.com/GPX/gpx_style/0/2">
        <color>FF0000</color>
        <opacity>1</opacity>
        <width>4</width>
          <extensions>
            <sens>1</sens>
          </extensions>
      </line>
    </extensions>
    <trkseg>
      <trkpt lat="49.09" lon="-1.11929">
        <ele>18</ele>
      </trkpt>
      <trkpt lat="49.09133" lon="-1.11783">
        <ele>17</ele>
      </trkpt>
      <trkpt lat="49.09068" lon="-1.11501">
        <ele>15</ele>
        <extensions>
          <visugpx:TrkExtension xmlns:visugpx="https://www.visugpx.com/editgpx/">
            <visugpx:node>1</visugpx:node>
            </visugpx:TrkExtension>
        </extensions>
      </trkpt>
      <trkpt lat="49.09016" lon="-1.10919">
        <ele>15.1</ele>
        <extensions>
          <visugpx:TrkExtension xmlns:visugpx="https://www.visugpx.com/editgpx/">
            <visugpx:node>2</visugpx:node>
            </visugpx:TrkExtension>
        </extensions>
      </trkpt>
      <trkpt lat="49.0901" lon="-1.10727">
        <ele>15</ele>
        <extensions>
          <visugpx:TrkExtension xmlns:visugpx="https://www.visugpx.com/editgpx/">
            <visugpx:node>3</visugpx:node>
            </visugpx:TrkExtension>
        </extensions>
      </trkpt>
      <trkpt lat="49.08986" lon="-1.10676">
        <ele>15.3</ele>
        <extensions>
          <visugpx:TrkExtension xmlns:visugpx="https://www.visugpx.com/editgpx/">
            <visugpx:node>4</visugpx:node>
            </visugpx:TrkExtension>
        </extensions>
      </trkpt>
      <trkpt lat="49.08831" lon="-1.10609">
        <ele>15.9</ele>
        <extensions>
          <visugpx:TrkExtension xmlns:visugpx="https://www.visugpx.com/editgpx/">
            <visugpx:node>5</visugpx:node>
            </visugpx:TrkExtension>
        </extensions>
      </trkpt>
      <trkpt lat="49.0877" lon="-1.10476">
        <ele>16</ele>
        <extensions>
          <visugpx:TrkExtension xmlns:visugpx="https://www.visugpx.com/editgpx/">
            <visugpx:node>6</visugpx:node>
            </visugpx:TrkExtension>
        </extensions>
      </trkpt>
      <trkpt lat="49.08716" lon="-1.10017">
        <ele>16.5</ele>
        <extensions>
          <visugpx:TrkExtension xmlns:visugpx="https://www.visugpx.com/editgpx/">
            <visugpx:node>7</visugpx:node>
            </visugpx:TrkExtension>
        </extensions>
      </trkpt>
      <trkpt lat="49.08688" lon="-1.0938">
        <ele>17.2</ele>
        <extensions>
          <visugpx:TrkExtension xmlns:visugpx="https://www.visugpx.com/editgpx/">
            <visugpx:node>8</visugpx:node>
            </visugpx:TrkExtension>
        </extensions>
      </trkpt>
      <trkpt lat="49.0867" lon="-1.09325">
        <ele>17.7</ele>
        <extensions>
          <visugpx:TrkExtension xmlns:visugpx="https://www.visugpx.com/editgpx/">
            <visugpx:node>9</visugpx:node>
            </visugpx:TrkExtension>
        </extensions>
      </trkpt>
      <trkpt lat="49.08503" lon="-1.09201">
        <ele>19.4</ele>
        <extensions>
          <visugpx:TrkExtension xmlns:visugpx="https://www.visugpx.com/editgpx/">
            <visugpx:node>10</visugpx:node>
            </visugpx:TrkExtension>
        </extensions>
      </trkpt>
      <trkpt lat="49.08054" lon="-1.08661">
        <ele>22.7</ele>
        <extensions>
          <visugpx:TrkExtension xmlns:visugpx="https://www.visugpx.com/editgpx/">
            <visugpx:node>11</visugpx:node>
            </visugpx:TrkExtension>
        </extensions>
      </trkpt>
      <trkpt lat="49.07869" lon="-1.08221">
        <ele>18</ele>
        <extensions>
          <visugpx:TrkExtension xmlns:visugpx="https://www.visugpx.com/editgpx/">
            <visugpx:node>12</visugpx:node>
            </visugpx:TrkExtension>
        </extensions>
      </trkpt>
      <trkpt lat="49.07509" lon="-1.08008">
        <ele>20.6</ele>
        <extensions>
          <visugpx:TrkExtension xmlns:visugpx="https://www.visugpx.com/editgpx/">
            <visugpx:node>13</visugpx:node>
            </visugpx:TrkExtension>
        </extensions>
      </trkpt>
      <trkpt lat="49.07444" lon="-1.07826">
        <ele>21</ele>
        <extensions>
          <visugpx:TrkExtension xmlns:visugpx="https://www.visugpx.com/editgpx/">
            <visugpx:node>14</visugpx:node>
            </visugpx:TrkExtension>
        </extensions>
      </trkpt>
      <trkpt lat="49.07448" lon="-1.07665">
        <ele>18.6</ele>
        <extensions>
          <visugpx:TrkExtension xmlns:visugpx="https://www.visugpx.com/editgpx/">
            <visugpx:node>15</visugpx:node>
            </visugpx:TrkExtension>
        </extensions>
      </trkpt>
      <trkpt lat="49.07309" lon="-1.07374">
        <ele>17.9</ele>
        <extensions>
          <visugpx:TrkExtension xmlns:visugpx="https://www.visugpx.com/editgpx/">
            <visugpx:node>16</visugpx:node>
            </visugpx:TrkExtension>
        </extensions>
      </trkpt>
      <trkpt lat="49.07166" lon="-1.07295">
        <ele>20.8</ele>
        <extensions>
          <visugpx:TrkExtension xmlns:visugpx="https://www.visugpx.com/editgpx/">
            <visugpx:node>17</visugpx:node>
            </visugpx:TrkExtension>
        </extensions>
      </trkpt>
      <trkpt lat="49.07036" lon="-1.07049">
        <ele>20.8</ele>
        <extensions>
          <visugpx:TrkExtension xmlns:visugpx="https://www.visugpx.com/editgpx/">
            <visugpx:node>18</visugpx:node>
            </visugpx:TrkExtension>
        </extensions>
      </trkpt>
      <trkpt lat="49.06931" lon="-1.07174">
        <ele>30.1</ele>
        <extensions>
          <visugpx:TrkExtension xmlns:visugpx="https://www.visugpx.com/editgpx/">
            <visugpx:node>19</visugpx:node>
            </visugpx:TrkExtension>
        </extensions>
      </trkpt>
      <trkpt lat="49.06716" lon="-1.07811">
        <ele>73.6</ele>
        <extensions>
          <visugpx:TrkExtension xmlns:visugpx="https://www.visugpx.com/editgpx/">
            <visugpx:node>20</visugpx:node>
            </visugpx:TrkExtension>
        </extensions>
      </trkpt>
      <trkpt lat="49.06484" lon="-1.08297">
        <ele>96.6</ele>
        <extensions>
          <visugpx:TrkExtension xmlns:visugpx="https://www.visugpx.com/editgpx/">
            <visugpx:node>21</visugpx:node>
            </visugpx:TrkExtension>
        </extensions>
      </trkpt>
      <trkpt lat="49.06368" lon="-1.08612">
        <ele>94</ele>
        <extensions>
          <visugpx:TrkExtension xmlns:visugpx="https://www.visugpx.com/editgpx/">
            <visugpx:node>22</visugpx:node>
            </visugpx:TrkExtension>
        </extensions>
      </trkpt>
      <trkpt lat="49.06175" lon="-1.08831">
        <ele>84.1</ele>
        <extensions>
          <visugpx:TrkExtension xmlns:visugpx="https://www.visugpx.com/editgpx/">
            <visugpx:node>23</visugpx:node>
            </visugpx:TrkExtension>
        </extensions>
      </trkpt>
      <trkpt lat="49.06124" lon="-1.08831">
        <ele>84</ele>
        <extensions>
          <visugpx:TrkExtension xmlns:visugpx="https://www.visugpx.com/editgpx/">
            <visugpx:node>24</visugpx:node>
            </visugpx:TrkExtension>
        </extensions>
      </trkpt>
      <trkpt lat="49.05724" lon="-1.08843">
        <ele>60.3</ele>
        <extensions>
          <visugpx:TrkExtension xmlns:visugpx="https://www.visugpx.com/editgpx/">
            <visugpx:node>25</visugpx:node>
            </visugpx:TrkExtension>
        </extensions>
      </trkpt>
      <trkpt lat="49.05708" lon="-1.0881">
        <ele>58.5</ele>
        <extensions>
          <visugpx:TrkExtension xmlns:visugpx="https://www.visugpx.com/editgpx/">
            <visugpx:node>26</visugpx:node>
            </visugpx:TrkExtension>
        </extensions>
      </trkpt>
      <trkpt lat="49.05666" lon="-1.08816">
        <ele>58.7</ele>
        <extensions>
          <visugpx:TrkExtension xmlns:visugpx="https://www.visugpx.com/editgpx/">
            <visugpx:node>27</visugpx:node>
            </visugpx:TrkExtension>
        </extensions>
      </trkpt>
      <trkpt lat="49.05529" lon="-1.09071">
        <ele>68.1</ele>
        <extensions>
          <visugpx:TrkExtension xmlns:visugpx="https://www.visugpx.com/editgpx/">
            <visugpx:node>28</visugpx:node>
            </visugpx:TrkExtension>
        </extensions>
      </trkpt>
      <trkpt lat="49.05127" lon="-1.09398">
        <ele>97.3</ele>
        <extensions>
          <visugpx:TrkExtension xmlns:visugpx="https://www.visugpx.com/editgpx/">
            <visugpx:node>29</visugpx:node>
            </visugpx:TrkExtension>
        </extensions>
      </trkpt>
      <trkpt lat="49.04988" lon="-1.09477">
        <ele>107.9</ele>
        <extensions>
          <visugpx:TrkExtension xmlns:visugpx="https://www.visugpx.com/editgpx/">
            <visugpx:node>30</visugpx:node>
            </visugpx:TrkExtension>
        </extensions>
      </trkpt>
      <trkpt lat="49.04728" lon="-1.09659">
        <ele>113.2</ele>
        <extensions>
          <visugpx:TrkExtension xmlns:visugpx="https://www.visugpx.com/editgpx/">
            <visugpx:node>31</visugpx:node>
            </visugpx:TrkExtension>
        </extensions>
      </trkpt>
      <trkpt lat="49.04499" lon="-1.09878">
        <ele>114</ele>
        <extensions>
          <visugpx:TrkExtension xmlns:visugpx="https://www.visugpx.com/editgpx/">
            <visugpx:node>32</visugpx:node>
            </visugpx:TrkExtension>
        </extensions>
      </trkpt>
      <trkpt lat="49.04213" lon="-1.10063">
        <ele>113.1</ele>
        <extensions>
          <visugpx:TrkExtension xmlns:visugpx="https://www.visugpx.com/editgpx/">
            <visugpx:node>33</visugpx:node>
            </visugpx:TrkExtension>
        </extensions>
      </trkpt>
      <trkpt lat="49.04179" lon="-1.10148">
        <ele>113.7</ele>
      </trkpt>
      <trkpt lat="49.04154" lon="-1.10194">
        <ele>115</ele>
        <extensions>
          <visugpx:TrkExtension xmlns:visugpx="https://www.visugpx.com/editgpx/">
            <visugpx:node>34</visugpx:node>
            </visugpx:TrkExtension>
        </extensions>
      </trkpt>
      <trkpt lat="49.04137" lon="-1.10159">
        <ele>115</ele>
      </trkpt>
      <trkpt lat="49.04133" lon="-1.10155">
        <ele>115.1</ele>
        <extensions>
          <visugpx:TrkExtension xmlns:visugpx="https://www.visugpx.com/editgpx/">
            <visugpx:node>35</visugpx:node>
            </visugpx:TrkExtension>
        </extensions>
      </trkpt>
      <trkpt lat="49.04124" lon="-1.10159">
        <ele>115.4</ele>
      </trkpt>
      <trkpt lat="49.04053" lon="-1.10104">
        <ele>114.2</ele>
        <extensions>
          <visugpx:TrkExtension xmlns:visugpx="https://www.visugpx.com/editgpx/">
            <visugpx:node>36</visugpx:node>
            </visugpx:TrkExtension>
        </extensions>
      </trkpt>
      <trkpt lat="49.0399" lon="-1.10346">
        <ele>121.3</ele>
        <extensions>
          <visugpx:TrkExtension xmlns:visugpx="https://www.visugpx.com/editgpx/">
            <visugpx:node>37</visugpx:node>
            </visugpx:TrkExtension>
        </extensions>
      </trkpt>
      <trkpt lat="49.03986" lon="-1.1045">
        <ele>122.7</ele>
        <extensions>
          <visugpx:TrkExtension xmlns:visugpx="https://www.visugpx.com/editgpx/">
            <visugpx:node>38</visugpx:node>
            </visugpx:TrkExtension>
        </extensions>
      </trkpt>
      <trkpt lat="49.03854" lon="-1.10571">
        <ele>132.5</ele>
      </trkpt>
      <trkpt lat="49.03817" lon="-1.10602">
        <ele>136</ele>
        <extensions>
          <visugpx:TrkExtension xmlns:visugpx="https://www.visugpx.com/editgpx/">
            <visugpx:node>39</visugpx:node>
            </visugpx:TrkExtension>
        </extensions>
      </trkpt>
      <trkpt lat="49.03772" lon="-1.10606">
        <ele>139.4</ele>
      </trkpt>
      <trkpt lat="49.03742" lon="-1.10597">
        <ele>140</ele>
        <extensions>
          <visugpx:TrkExtension xmlns:visugpx="https://www.visugpx.com/editgpx/">
            <visugpx:node>40</visugpx:node>
            </visugpx:TrkExtension>
        </extensions>
      </trkpt>
      <trkpt lat="49.03725" lon="-1.10633">
        <ele>140</ele>
      </trkpt>
      <trkpt lat="49.03647" lon="-1.107">
        <ele>137.9</ele>
        <extensions>
          <visugpx:TrkExtension xmlns:visugpx="https://www.visugpx.com/editgpx/">
            <visugpx:node>41</visugpx:node>
            </visugpx:TrkExtension>
        </extensions>
      </trkpt>
      <trkpt lat="49.03593" lon="-1.10789">
        <ele>135.4</ele>
      </trkpt>
      <trkpt lat="49.03547" lon="-1.10889">
        <ele>134.7</ele>
      </trkpt>
      <trkpt lat="49.03484" lon="-1.11079">
        <ele>135.7</ele>
        <extensions>
          <visugpx:TrkExtension xmlns:visugpx="https://www.visugpx.com/editgpx/">
            <visugpx:node>42</visugpx:node>
            </visugpx:TrkExtension>
        </extensions>
      </trkpt>
      <trkpt lat="49.03323" lon="-1.1158">
        <ele>146.2</ele>
        <extensions>
          <visugpx:TrkExtension xmlns:visugpx="https://www.visugpx.com/editgpx/">
            <visugpx:node>43</visugpx:node>
            </visugpx:TrkExtension>
        </extensions>
      </trkpt>
      <trkpt lat="49.03287" lon="-1.11714">
        <ele>147.3</ele>
        <extensions>
          <visugpx:TrkExtension xmlns:visugpx="https://www.visugpx.com/editgpx/">
            <visugpx:node>44</visugpx:node>
            </visugpx:TrkExtension>
        </extensions>
      </trkpt>
      <trkpt lat="49.03308" lon="-1.11726">
        <ele>148.3</ele>
      </trkpt>
      <trkpt lat="49.03403" lon="-1.11841">
        <ele>146.7</ele>
        <extensions>
          <visugpx:TrkExtension xmlns:visugpx="https://www.visugpx.com/editgpx/">
            <visugpx:node>45</visugpx:node>
            </visugpx:TrkExtension>
        </extensions>
      </trkpt>
      <trkpt lat="49.0338" lon="-1.1189">
        <ele>146.6</ele>
      </trkpt>
      <trkpt lat="49.03342" lon="-1.12009">
        <ele>147.3</ele>
      </trkpt>
      <trkpt lat="49.03287" lon="-1.12191">
        <ele>151</ele>
        <extensions>
          <visugpx:TrkExtension xmlns:visugpx="https://www.visugpx.com/editgpx/">
            <visugpx:node>46</visugpx:node>
            </visugpx:TrkExtension>
        </extensions>
      </trkpt>
      <trkpt lat="49.03358" lon="-1.12243">
        <ele>149.5</ele>
        <extensions>
          <visugpx:TrkExtension xmlns:visugpx="https://www.visugpx.com/editgpx/">
            <visugpx:node>47</visugpx:node>
            </visugpx:TrkExtension>
        </extensions>
      </trkpt>
      <trkpt lat="49.03539" lon="-1.12593">
        <ele>134.3</ele>
        <extensions>
          <visugpx:TrkExtension xmlns:visugpx="https://www.visugpx.com/editgpx/">
            <visugpx:node>48</visugpx:node>
            </visugpx:TrkExtension>
        </extensions>
      </trkpt>
      <trkpt lat="49.03877" lon="-1.1243">
        <ele>123.6</ele>
        <extensions>
          <visugpx:TrkExtension xmlns:visugpx="https://www.visugpx.com/editgpx/">
            <visugpx:node>49</visugpx:node>
            </visugpx:TrkExtension>
        </extensions>
      </trkpt>
      <trkpt lat="49.03928" lon="-1.12228">
        <ele>117.3</ele>
        <extensions>
          <visugpx:TrkExtension xmlns:visugpx="https://www.visugpx.com/editgpx/">
            <visugpx:node>50</visugpx:node>
            </visugpx:TrkExtension>
        </extensions>
      </trkpt>
      <trkpt lat="49.04206" lon="-1.12085">
        <ele>101.2</ele>
        <extensions>
          <visugpx:TrkExtension xmlns:visugpx="https://www.visugpx.com/editgpx/">
            <visugpx:node>51</visugpx:node>
            </visugpx:TrkExtension>
        </extensions>
      </trkpt>
      <trkpt lat="49.04272" lon="-1.12261">
        <ele>93.9</ele>
      </trkpt>
      <trkpt lat="49.0429" lon="-1.1234">
        <ele>95.2</ele>
      </trkpt>
      <trkpt lat="49.04296" lon="-1.12402">
        <ele>98.6</ele>
      </trkpt>
      <trkpt lat="49.04346" lon="-1.12583">
        <ele>110</ele>
      </trkpt>
      <trkpt lat="49.04375" lon="-1.12764">
        <ele>112</ele>
        <extensions>
          <visugpx:TrkExtension xmlns:visugpx="https://www.visugpx.com/editgpx/">
            <visugpx:node>52</visugpx:node>
            </visugpx:TrkExtension>
        </extensions>
      </trkpt>
      <trkpt lat="49.04496" lon="-1.12761">
        <ele>112</ele>
      </trkpt>
      <trkpt lat="49.04545" lon="-1.12774">
        <ele>111.1</ele>
      </trkpt>
      <trkpt lat="49.04557" lon="-1.12795">
        <ele>111</ele>
      </trkpt>
      <trkpt lat="49.04578" lon="-1.1279">
        <ele>111</ele>
        <extensions>
          <visugpx:TrkExtension xmlns:visugpx="https://www.visugpx.com/editgpx/">
            <visugpx:node>53</visugpx:node>
            </visugpx:TrkExtension>
        </extensions>
      </trkpt>
      <trkpt lat="49.04585" lon="-1.12811">
        <ele>110.8</ele>
      </trkpt>
      <trkpt lat="49.04644" lon="-1.12866">
        <ele>107.8</ele>
      </trkpt>
      <trkpt lat="49.04639" lon="-1.12879">
        <ele>107.4</ele>
        <extensions>
          <visugpx:TrkExtension xmlns:visugpx="https://www.visugpx.com/editgpx/">
            <visugpx:node>54</visugpx:node>
            </visugpx:TrkExtension>
        </extensions>
      </trkpt>
      <trkpt lat="49.04276" lon="-1.13142">
        <ele>102.2</ele>
        <extensions>
          <visugpx:TrkExtension xmlns:visugpx="https://www.visugpx.com/editgpx/">
            <visugpx:node>55</visugpx:node>
            </visugpx:TrkExtension>
        </extensions>
      </trkpt>
      <trkpt lat="49.04214" lon="-1.13202">
        <ele>106</ele>
        <extensions>
          <visugpx:TrkExtension xmlns:visugpx="https://www.visugpx.com/editgpx/">
            <visugpx:node>56</visugpx:node>
            </visugpx:TrkExtension>
        </extensions>
      </trkpt>
      <trkpt lat="49.04125" lon="-1.13244">
        <ele>112.2</ele>
      </trkpt>
      <trkpt lat="49.03839" lon="-1.13313">
        <ele>118.5</ele>
        <extensions>
          <visugpx:TrkExtension xmlns:visugpx="https://www.visugpx.com/editgpx/">
            <visugpx:node>57</visugpx:node>
            </visugpx:TrkExtension>
        </extensions>
      </trkpt>
      <trkpt lat="49.03782" lon="-1.13313">
        <ele>117.4</ele>
        <extensions>
          <visugpx:TrkExtension xmlns:visugpx="https://www.visugpx.com/editgpx/">
            <visugpx:node>58</visugpx:node>
            </visugpx:TrkExtension>
        </extensions>
      </trkpt>
      <trkpt lat="49.0372" lon="-1.13364">
        <ele>113</ele>
      </trkpt>
      <trkpt lat="49.03691" lon="-1.134">
        <ele>114.7</ele>
        <extensions>
          <visugpx:TrkExtension xmlns:visugpx="https://www.visugpx.com/editgpx/">
            <visugpx:node>59</visugpx:node>
            </visugpx:TrkExtension>
        </extensions>
      </trkpt>
      <trkpt lat="49.03727" lon="-1.13431">
        <ele>115.2</ele>
      </trkpt>
      <trkpt lat="49.03823" lon="-1.13473">
        <ele>113.7</ele>
      </trkpt>
      <trkpt lat="49.03829" lon="-1.1349">
        <ele>113.9</ele>
        <extensions>
          <visugpx:TrkExtension xmlns:visugpx="https://www.visugpx.com/editgpx/">
            <visugpx:node>60</visugpx:node>
            </visugpx:TrkExtension>
        </extensions>
      </trkpt>
      <trkpt lat="49.0384" lon="-1.13606">
        <ele>113</ele>
        <extensions>
          <visugpx:TrkExtension xmlns:visugpx="https://www.visugpx.com/editgpx/">
            <visugpx:node>61</visugpx:node>
            </visugpx:TrkExtension>
        </extensions>
      </trkpt>
      <trkpt lat="49.03912" lon="-1.13637">
        <ele>110.3</ele>
      </trkpt>
      <trkpt lat="49.03968" lon="-1.13641">
        <ele>109.1</ele>
        <extensions>
          <visugpx:TrkExtension xmlns:visugpx="https://www.visugpx.com/editgpx/">
            <visugpx:node>62</visugpx:node>
            </visugpx:TrkExtension>
        </extensions>
      </trkpt>
      <trkpt lat="49.04067" lon="-1.13912">
        <ele>102</ele>
      </trkpt>
      <trkpt lat="49.0411" lon="-1.14155">
        <ele>99.4</ele>
        <extensions>
          <visugpx:TrkExtension xmlns:visugpx="https://www.visugpx.com/editgpx/">
            <visugpx:node>63</visugpx:node>
            </visugpx:TrkExtension>
        </extensions>
      </trkpt>
      <trkpt lat="49.04116" lon="-1.14588">
        <ele>81.7</ele>
        <extensions>
          <visugpx:TrkExtension xmlns:visugpx="https://www.visugpx.com/editgpx/">
            <visugpx:node>64</visugpx:node>
            </visugpx:TrkExtension>
        </extensions>
      </trkpt>
      <trkpt lat="49.04319" lon="-1.14747">
        <ele>82.5</ele>
        <extensions>
          <visugpx:TrkExtension xmlns:visugpx="https://www.visugpx.com/editgpx/">
            <visugpx:node>65</visugpx:node>
            </visugpx:TrkExtension>
        </extensions>
      </trkpt>
      <trkpt lat="49.04358" lon="-1.15078">
        <ele>107</ele>
        <extensions>
          <visugpx:TrkExtension xmlns:visugpx="https://www.visugpx.com/editgpx/">
            <visugpx:node>66</visugpx:node>
            </visugpx:TrkExtension>
        </extensions>
      </trkpt>
      <trkpt lat="49.0462" lon="-1.14932">
        <ele>98.9</ele>
        <extensions>
          <visugpx:TrkExtension xmlns:visugpx="https://www.visugpx.com/editgpx/">
            <visugpx:node>67</visugpx:node>
            </visugpx:TrkExtension>
        </extensions>
      </trkpt>
      <trkpt lat="49.04878" lon="-1.15">
        <ele>97.4</ele>
        <extensions>
          <visugpx:TrkExtension xmlns:visugpx="https://www.visugpx.com/editgpx/">
            <visugpx:node>68</visugpx:node>
            </visugpx:TrkExtension>
        </extensions>
      </trkpt>
      <trkpt lat="49.05056" lon="-1.15017">
        <ele>93</ele>
        <extensions>
          <visugpx:TrkExtension xmlns:visugpx="https://www.visugpx.com/editgpx/">
            <visugpx:node>69</visugpx:node>
            </visugpx:TrkExtension>
        </extensions>
      </trkpt>
      <trkpt lat="49.05286" lon="-1.14949">
        <ele>83.7</ele>
        <extensions>
          <visugpx:TrkExtension xmlns:visugpx="https://www.visugpx.com/editgpx/">
            <visugpx:node>70</visugpx:node>
            </visugpx:TrkExtension>
        </extensions>
      </trkpt>
      <trkpt lat="49.05325" lon="-1.14974">
        <ele>80.6</ele>
      </trkpt>
      <trkpt lat="49.05383" lon="-1.14976">
        <ele>77.5</ele>
      </trkpt>
      <trkpt lat="49.05478" lon="-1.14975">
        <ele>72.9</ele>
      </trkpt>
      <trkpt lat="49.05529" lon="-1.14963">
        <ele>70.6</ele>
      </trkpt>
      <trkpt lat="49.05566" lon="-1.14967">
        <ele>68.1</ele>
        <extensions>
          <visugpx:TrkExtension xmlns:visugpx="https://www.visugpx.com/editgpx/">
            <visugpx:node>71</visugpx:node>
            </visugpx:TrkExtension>
        </extensions>
      </trkpt>
      <trkpt lat="49.05612" lon="-1.14932">
        <ele>64.4</ele>
      </trkpt>
      <trkpt lat="49.05662" lon="-1.14885">
        <ele>61.2</ele>
      </trkpt>
      <trkpt lat="49.05704" lon="-1.14864">
        <ele>58.8</ele>
      </trkpt>
      <trkpt lat="49.05754" lon="-1.14828">
        <ele>57.2</ele>
      </trkpt>
      <trkpt lat="49.05784" lon="-1.14785">
        <ele>56.5</ele>
      </trkpt>
      <trkpt lat="49.05787" lon="-1.1476">
        <ele>56.9</ele>
        <extensions>
          <visugpx:TrkExtension xmlns:visugpx="https://www.visugpx.com/editgpx/">
            <visugpx:node>72</visugpx:node>
            </visugpx:TrkExtension>
        </extensions>
      </trkpt>
      <trkpt lat="49.05861" lon="-1.1477">
        <ele>53.4</ele>
      </trkpt>
      <trkpt lat="49.05885" lon="-1.14771">
        <ele>53.3</ele>
        <extensions>
          <visugpx:TrkExtension xmlns:visugpx="https://www.visugpx.com/editgpx/">
            <visugpx:node>73</visugpx:node>
            </visugpx:TrkExtension>
        </extensions>
      </trkpt>
      <trkpt lat="49.05909" lon="-1.14725">
        <ele>51.7</ele>
      </trkpt>
      <trkpt lat="49.05928" lon="-1.14676">
        <ele>49</ele>
        <extensions>
          <visugpx:TrkExtension xmlns:visugpx="https://www.visugpx.com/editgpx/">
            <visugpx:node>74</visugpx:node>
            </visugpx:TrkExtension>
        </extensions>
      </trkpt>
      <trkpt lat="49.06021" lon="-1.14598">
        <ele>46.4</ele>
      </trkpt>
      <trkpt lat="49.06111" lon="-1.14489">
        <ele>44.4</ele>
        <extensions>
          <visugpx:TrkExtension xmlns:visugpx="https://www.visugpx.com/editgpx/">
            <visugpx:node>75</visugpx:node>
            </visugpx:TrkExtension>
        </extensions>
      </trkpt>
      <trkpt lat="49.06153" lon="-1.14389">
        <ele>43.9</ele>
      </trkpt>
      <trkpt lat="49.06177" lon="-1.14355">
        <ele>43.5</ele>
        <extensions>
          <visugpx:TrkExtension xmlns:visugpx="https://www.visugpx.com/editgpx/">
            <visugpx:node>76</visugpx:node>
            </visugpx:TrkExtension>
        </extensions>
      </trkpt>
      <trkpt lat="49.06254" lon="-1.14326">
        <ele>43.6</ele>
      </trkpt>
      <trkpt lat="49.06274" lon="-1.14325">
        <ele>45.2</ele>
      </trkpt>
      <trkpt lat="49.06282" lon="-1.14313">
        <ele>43.9</ele>
      </trkpt>
      <trkpt lat="49.06408" lon="-1.14202">
        <ele>42.3</ele>
        <extensions>
          <visugpx:TrkExtension xmlns:visugpx="https://www.visugpx.com/editgpx/">
            <visugpx:node>77</visugpx:node>
            </visugpx:TrkExtension>
        </extensions>
      </trkpt>
      <trkpt lat="49.06571" lon="-1.13902">
        <ele>37.5</ele>
        <extensions>
          <visugpx:TrkExtension xmlns:visugpx="https://www.visugpx.com/editgpx/">
            <visugpx:node>78</visugpx:node>
            </visugpx:TrkExtension>
        </extensions>
      </trkpt>
      <trkpt lat="49.06861" lon="-1.13537">
        <ele>37.6</ele>
        <extensions>
          <visugpx:TrkExtension xmlns:visugpx="https://www.visugpx.com/editgpx/">
            <visugpx:node>79</visugpx:node>
            </visugpx:TrkExtension>
        </extensions>
      </trkpt>
      <trkpt lat="49.06931" lon="-1.13305">
        <ele>34.1</ele>
        <extensions>
          <visugpx:TrkExtension xmlns:visugpx="https://www.visugpx.com/editgpx/">
            <visugpx:node>80</visugpx:node>
            </visugpx:TrkExtension>
        </extensions>
      </trkpt>
      <trkpt lat="49.07091" lon="-1.13073">
        <ele>36.2</ele>
        <extensions>
          <visugpx:TrkExtension xmlns:visugpx="https://www.visugpx.com/editgpx/">
            <visugpx:node>81</visugpx:node>
            </visugpx:TrkExtension>
        </extensions>
      </trkpt>
      <trkpt lat="49.07412" lon="-1.1291">
        <ele>55.6</ele>
        <extensions>
          <visugpx:TrkExtension xmlns:visugpx="https://www.visugpx.com/editgpx/">
            <visugpx:node>82</visugpx:node>
            </visugpx:TrkExtension>
        </extensions>
      </trkpt>
      <trkpt lat="49.0769" lon="-1.1288">
        <ele>66.3</ele>
        <extensions>
          <visugpx:TrkExtension xmlns:visugpx="https://www.visugpx.com/editgpx/">
            <visugpx:node>83</visugpx:node>
            </visugpx:TrkExtension>
        </extensions>
      </trkpt>
      <trkpt lat="49.08022" lon="-1.12726">
        <ele>60</ele>
        <extensions>
          <visugpx:TrkExtension xmlns:visugpx="https://www.visugpx.com/editgpx/">
            <visugpx:node>84</visugpx:node>
            </visugpx:TrkExtension>
        </extensions>
      </trkpt>
      <trkpt lat="49.08345" lon="-1.12413">
        <ele>54.4</ele>
        <extensions>
          <visugpx:TrkExtension xmlns:visugpx="https://www.visugpx.com/editgpx/">
            <visugpx:node>85</visugpx:node>
            </visugpx:TrkExtension>
        </extensions>
      </trkpt>
      <trkpt lat="49.08562" lon="-1.12125">
        <ele>48</ele>
        <extensions>
          <visugpx:TrkExtension xmlns:visugpx="https://www.visugpx.com/editgpx/">
            <visugpx:node>86</visugpx:node>
            </visugpx:TrkExtension>
        </extensions>
      </trkpt>
      <trkpt lat="49.08635" lon="-1.12125">
        <ele>46.2</ele>
        <extensions>
          <visugpx:TrkExtension xmlns:visugpx="https://www.visugpx.com/editgpx/">
            <visugpx:node>87</visugpx:node>
            </visugpx:TrkExtension>
        </extensions>
      </trkpt>
      <trkpt lat="49.08784" lon="-1.12151">
        <ele>36.6</ele>
        <extensions>
          <visugpx:TrkExtension xmlns:visugpx="https://www.visugpx.com/editgpx/">
            <visugpx:node>88</visugpx:node>
            </visugpx:TrkExtension>
        </extensions>
      </trkpt>
      <trkpt lat="49.08879" lon="-1.12065">
        <ele>31.1</ele>
        <extensions>
          <visugpx:TrkExtension xmlns:visugpx="https://www.visugpx.com/editgpx/">
            <visugpx:node>89</visugpx:node>
            </visugpx:TrkExtension>
        </extensions>
      </trkpt>
      <trkpt lat="49.09" lon="-1.11929">
        <ele>18</ele>
        <extensions>
          <visugpx:TrkExtension xmlns:visugpx="https://www.visugpx.com/editgpx/">
            <visugpx:node>90</visugpx:node>
            </visugpx:TrkExtension>
        </extensions>
      </trkpt>
    </trkseg>
  </trk>
</gpx>