<?xml version="1.0" encoding="UTF-8" standalone="no" ?>
<gpx xmlns="http://www.topografix.com/GPX/1/1" xmlns:xsi="http://www.w3.org/2001/XMLSchema-instance" xsi:schemaLocation="http://www.topografix.com/GPX/1/1 http://www.topografix.com/GPX/1/1/gpx.xsd" version="1.1" creator="VisuGPX - https://www.visugpx.com">
  <metadata>
    <name>Challenge AGGLO VTT OK</name>
    <desc><![CDATA[Canisy + Saint Ebremond de Bonfossé]]></desc>
  </metadata>
  <wpt lat="49.09158" lon="-1.1181">
    <ele>16.4</ele>
    <name><![CDATA[Parking]]></name>
    <type><![CDATA[park]]></type>
  </wpt>
  <wpt lat="49.05034" lon="-1.047">
    <ele>24</ele>
    <name><![CDATA[Parking]]></name>
    <type><![CDATA[park]]></type>
  </wpt>
  <wpt lat="49.02659" lon="-1.05871">
    <ele>27.7</ele>
    <name><![CDATA[Parking]]></name>
    <type><![CDATA[park]]></type>
  </wpt>
  <wpt lat="49.0072" lon="-1.05875">
    <ele>33.3</ele>
    <name><![CDATA[Parking]]></name>
    <type><![CDATA[park]]></type>
  </wpt>
  <wpt lat="48.99544" lon="-1.08565">
    <ele>96.9</ele>
    <name><![CDATA[Parking]]></name>
    <type><![CDATA[park]]></type>
  </wpt>
  <wpt lat="49.00045" lon="-1.11641">
    <ele>81.6</ele>
    <name><![CDATA[Parking]]></name>
    <type><![CDATA[park]]></type>
  </wpt>
  <wpt lat="49.11935" lon="-1.08619">
    <ele>23.5</ele>
    <name><![CDATA[Parking]]></name>
    <type><![CDATA[park]]></type>
  </wpt>
  <wpt lat="49.10438" lon="-1.07246">
    <ele>88.4</ele>
    <name><![CDATA[Parking]]></name>
    <type><![CDATA[park]]></type>
  </wpt>
  <wpt lat="49.11127" lon="-1.03498">
    <ele>84.5</ele>
    <name><![CDATA[Parking]]></name>
    <type><![CDATA[park]]></type>
  </wpt>
  <wpt lat="49.04667" lon="-1.12833">
    <ele>109</ele>
    <name><![CDATA[Parking]]></name>
    <type><![CDATA[park]]></type>
  </wpt>
  <wpt lat="49.05377" lon="-1.16971">
    <ele>104.2</ele>
    <name><![CDATA[Parking]]></name>
    <type><![CDATA[park]]></type>
  </wpt>
  <wpt lat="49.07599" lon="-1.18106">
    <ele>51.1</ele>
    <name><![CDATA[Parking]]></name>
    <type><![CDATA[park]]></type>
  </wpt>
  <wpt lat="49.06752" lon="-1.1999">
    <ele>60.1</ele>
    <name><![CDATA[Parking]]></name>
    <type><![CDATA[park]]></type>
  </wpt>
  <trk>
    <name><![CDATA[Le Mesnil Rouxelin]]></name>
    <extensions>
      <line xmlns="http://www.topografix.com/GPX/gpx_style/0/2">
        <color>FF00FF</color>
        <opacity>1</opacity>
        <width>4</width>
          <extensions>
            <sens>1</sens>
          </extensions>
      </line>
    </extensions>
    <trkseg>
      <trkpt lat="49.14754" lon="-1.08588">
        <ele>85.59</ele>
      </trkpt>
      <trkpt lat="49.14737" lon="-1.08603">
        <ele>85.07</ele>
      </trkpt>
      <trkpt lat="49.1472" lon="-1.08613">
        <ele>84.07</ele>
      </trkpt>
      <trkpt lat="49.14693" lon="-1.08623">
        <ele>83.31</ele>
      </trkpt>
      <trkpt lat="49.14686" lon="-1.08629">
        <ele>83.31</ele>
      </trkpt>
      <trkpt lat="49.14674" lon="-1.08643">
        <ele>83.14</ele>
      </trkpt>
      <trkpt lat="49.14659" lon="-1.0867">
        <ele>82.91</ele>
      </trkpt>
      <trkpt lat="49.14653" lon="-1.08694">
        <ele>82.67</ele>
      </trkpt>
      <trkpt lat="49.14647" lon="-1.08754">
        <ele>81.93</ele>
      </trkpt>
      <trkpt lat="49.14628" lon="-1.08816">
        <ele>81.04</ele>
      </trkpt>
      <trkpt lat="49.14595" lon="-1.08894">
        <ele>80.93</ele>
      </trkpt>
      <trkpt lat="49.14562" lon="-1.08972">
        <ele>81</ele>
      </trkpt>
      <trkpt lat="49.14504" lon="-1.09067">
        <ele>80.24</ele>
      </trkpt>
      <trkpt lat="49.14462" lon="-1.09113">
        <ele>76.63</ele>
      </trkpt>
      <trkpt lat="49.14419" lon="-1.09159">
        <ele>74.28</ele>
      </trkpt>
      <trkpt lat="49.14369" lon="-1.09216">
        <ele>71.96</ele>
      </trkpt>
      <trkpt lat="49.14356" lon="-1.09236">
        <ele>71.52</ele>
      </trkpt>
      <trkpt lat="49.14347" lon="-1.09263">
        <ele>71.31</ele>
      </trkpt>
      <trkpt lat="49.14344" lon="-1.09297">
        <ele>70.42</ele>
      </trkpt>
      <trkpt lat="49.14343" lon="-1.09339">
        <ele>70.03</ele>
      </trkpt>
      <trkpt lat="49.14337" lon="-1.09351">
        <ele>69.97</ele>
      </trkpt>
      <trkpt lat="49.14325" lon="-1.09362">
        <ele>70.11</ele>
      </trkpt>
      <trkpt lat="49.1431" lon="-1.09368">
        <ele>70.31</ele>
      </trkpt>
      <trkpt lat="49.14258" lon="-1.09385">
        <ele>73.01</ele>
      </trkpt>
      <trkpt lat="49.14202" lon="-1.09389">
        <ele>77.86</ele>
      </trkpt>
      <trkpt lat="49.14146" lon="-1.09392">
        <ele>84.04</ele>
      </trkpt>
      <trkpt lat="49.14107" lon="-1.09412">
        <ele>88.94</ele>
      </trkpt>
      <trkpt lat="49.14064" lon="-1.09443">
        <ele>93.66</ele>
      </trkpt>
      <trkpt lat="49.14044" lon="-1.09453">
        <ele>95.17</ele>
      </trkpt>
      <trkpt lat="49.13998" lon="-1.09467">
        <ele>97.61</ele>
      </trkpt>
      <trkpt lat="49.13951" lon="-1.0948">
        <ele>99.76</ele>
      </trkpt>
      <trkpt lat="49.13921" lon="-1.09494">
        <ele>102.2</ele>
      </trkpt>
      <trkpt lat="49.13911" lon="-1.09502">
        <ele>102.67</ele>
      </trkpt>
      <trkpt lat="49.13896" lon="-1.09503">
        <ele>104.1</ele>
      </trkpt>
      <trkpt lat="49.13832" lon="-1.09536">
        <ele>105.4</ele>
      </trkpt>
      <trkpt lat="49.13844" lon="-1.09546">
        <ele>105.1</ele>
      </trkpt>
      <trkpt lat="49.139" lon="-1.0957">
        <ele>103.15</ele>
      </trkpt>
      <trkpt lat="49.13899" lon="-1.0957">
        <ele>103.15</ele>
      </trkpt>
      <trkpt lat="49.13956" lon="-1.09606">
        <ele>100.22</ele>
      </trkpt>
      <trkpt lat="49.14011" lon="-1.0966">
        <ele>99.19</ele>
      </trkpt>
      <trkpt lat="49.14056" lon="-1.09691">
        <ele>99.39</ele>
      </trkpt>
      <trkpt lat="49.14101" lon="-1.09708">
        <ele>98.71</ele>
      </trkpt>
      <trkpt lat="49.14135" lon="-1.09724">
        <ele>98.12</ele>
      </trkpt>
      <trkpt lat="49.14198" lon="-1.09745">
        <ele>95.06</ele>
      </trkpt>
      <trkpt lat="49.14252" lon="-1.09752">
        <ele>91.66</ele>
      </trkpt>
      <trkpt lat="49.14306" lon="-1.09758">
        <ele>86.94</ele>
      </trkpt>
      <trkpt lat="49.14357" lon="-1.09775">
        <ele>85.04</ele>
      </trkpt>
      <trkpt lat="49.14411" lon="-1.09823">
        <ele>85.89</ele>
      </trkpt>
      <trkpt lat="49.14463" lon="-1.09874">
        <ele>85.33</ele>
      </trkpt>
      <trkpt lat="49.14514" lon="-1.09925">
        <ele>83.01</ele>
      </trkpt>
      <trkpt lat="49.14586" lon="-1.09978">
        <ele>79.2</ele>
      </trkpt>
      <trkpt lat="49.14643" lon="-1.09995">
        <ele>79.07</ele>
      </trkpt>
      <trkpt lat="49.14699" lon="-1.10011">
        <ele>76.89</ele>
      </trkpt>
      <trkpt lat="49.14755" lon="-1.1004">
        <ele>73.08</ele>
      </trkpt>
      <trkpt lat="49.14817" lon="-1.1007">
        <ele>70.66</ele>
      </trkpt>
      <trkpt lat="49.14879" lon="-1.101">
        <ele>68.97</ele>
      </trkpt>
      <trkpt lat="49.14883" lon="-1.10097">
        <ele>67.68</ele>
      </trkpt>
      <trkpt lat="49.14892" lon="-1.10094">
        <ele>65.64</ele>
      </trkpt>
      <trkpt lat="49.14933" lon="-1.10089">
        <ele>59.91</ele>
      </trkpt>
      <trkpt lat="49.15002" lon="-1.10104">
        <ele>60.53</ele>
      </trkpt>
      <trkpt lat="49.15039" lon="-1.10117">
        <ele>59.04</ele>
      </trkpt>
      <trkpt lat="49.15097" lon="-1.10155">
        <ele>57.3</ele>
      </trkpt>
      <trkpt lat="49.15156" lon="-1.10189">
        <ele>58</ele>
      </trkpt>
      <trkpt lat="49.15186" lon="-1.10192">
        <ele>56.16</ele>
      </trkpt>
      <trkpt lat="49.15268" lon="-1.10206">
        <ele>48.4</ele>
      </trkpt>
      <trkpt lat="49.15339" lon="-1.1023">
        <ele>48.86</ele>
      </trkpt>
      <trkpt lat="49.154" lon="-1.1027">
        <ele>48.78</ele>
      </trkpt>
      <trkpt lat="49.15423" lon="-1.10294">
        <ele>48.87</ele>
      </trkpt>
      <trkpt lat="49.15472" lon="-1.10304">
        <ele>49.11</ele>
      </trkpt>
      <trkpt lat="49.15511" lon="-1.10318">
        <ele>48.27</ele>
      </trkpt>
      <trkpt lat="49.15556" lon="-1.10365">
        <ele>47.22</ele>
      </trkpt>
      <trkpt lat="49.15615" lon="-1.10419">
        <ele>50.73</ele>
      </trkpt>
      <trkpt lat="49.15698" lon="-1.10464">
        <ele>53.34</ele>
      </trkpt>
      <trkpt lat="49.15736" lon="-1.10494">
        <ele>52.65</ele>
      </trkpt>
      <trkpt lat="49.15737" lon="-1.10494">
        <ele>52.61</ele>
      </trkpt>
      <trkpt lat="49.15747" lon="-1.10447">
        <ele>49.27</ele>
      </trkpt>
      <trkpt lat="49.1574" lon="-1.10433">
        <ele>47.67</ele>
      </trkpt>
      <trkpt lat="49.15716" lon="-1.10416">
        <ele>44.37</ele>
      </trkpt>
      <trkpt lat="49.15721" lon="-1.10409">
        <ele>43.68</ele>
      </trkpt>
      <trkpt lat="49.15733" lon="-1.10403">
        <ele>41.51</ele>
      </trkpt>
      <trkpt lat="49.15758" lon="-1.10378">
        <ele>38.33</ele>
      </trkpt>
      <trkpt lat="49.15788" lon="-1.10375">
        <ele>38.43</ele>
      </trkpt>
      <trkpt lat="49.15822" lon="-1.10365">
        <ele>40.72</ele>
      </trkpt>
      <trkpt lat="49.15837" lon="-1.10336">
        <ele>44.33</ele>
      </trkpt>
      <trkpt lat="49.15849" lon="-1.1027">
        <ele>48.22</ele>
      </trkpt>
      <trkpt lat="49.15861" lon="-1.10191">
        <ele>52.16</ele>
      </trkpt>
      <trkpt lat="49.15872" lon="-1.10111">
        <ele>56.23</ele>
      </trkpt>
      <trkpt lat="49.15892" lon="-1.10021">
        <ele>59.02</ele>
      </trkpt>
      <trkpt lat="49.15911" lon="-1.09931">
        <ele>61.23</ele>
      </trkpt>
      <trkpt lat="49.15974" lon="-1.09943">
        <ele>59.1</ele>
      </trkpt>
      <trkpt lat="49.16036" lon="-1.09955">
        <ele>55.92</ele>
      </trkpt>
      <trkpt lat="49.16061" lon="-1.09928">
        <ele>53.97</ele>
      </trkpt>
      <trkpt lat="49.16074" lon="-1.09876">
        <ele>52.47</ele>
      </trkpt>
      <trkpt lat="49.16088" lon="-1.09887">
        <ele>51.63</ele>
      </trkpt>
      <trkpt lat="49.16164" lon="-1.09897">
        <ele>47.32</ele>
      </trkpt>
      <trkpt lat="49.16225" lon="-1.09917">
        <ele>38.9</ele>
      </trkpt>
      <trkpt lat="49.16293" lon="-1.09928">
        <ele>35.01</ele>
      </trkpt>
      <trkpt lat="49.16374" lon="-1.09921">
        <ele>30.1</ele>
      </trkpt>
      <trkpt lat="49.16421" lon="-1.09933">
        <ele>28.46</ele>
      </trkpt>
      <trkpt lat="49.16505" lon="-1.09928">
        <ele>26.08</ele>
      </trkpt>
      <trkpt lat="49.16552" lon="-1.09937">
        <ele>24.43</ele>
      </trkpt>
      <trkpt lat="49.16598" lon="-1.09945">
        <ele>23.48</ele>
      </trkpt>
      <trkpt lat="49.16682" lon="-1.09948">
        <ele>21.68</ele>
      </trkpt>
      <trkpt lat="49.16732" lon="-1.09934">
        <ele>21.43</ele>
      </trkpt>
      <trkpt lat="49.16771" lon="-1.09897">
        <ele>20.46</ele>
      </trkpt>
      <trkpt lat="49.16831" lon="-1.09844">
        <ele>19.49</ele>
      </trkpt>
      <trkpt lat="49.16892" lon="-1.09791">
        <ele>17.94</ele>
      </trkpt>
      <trkpt lat="49.16952" lon="-1.09737">
        <ele>18.63</ele>
      </trkpt>
      <trkpt lat="49.17012" lon="-1.09684">
        <ele>21.25</ele>
      </trkpt>
      <trkpt lat="49.17058" lon="-1.09637">
        <ele>21.34</ele>
      </trkpt>
      <trkpt lat="49.17059" lon="-1.09637">
        <ele>21.34</ele>
      </trkpt>
      <trkpt lat="49.17005" lon="-1.09542">
        <ele>23.05</ele>
      </trkpt>
      <trkpt lat="49.1695" lon="-1.09447">
        <ele>24.63</ele>
      </trkpt>
      <trkpt lat="49.16896" lon="-1.09352">
        <ele>26.09</ele>
      </trkpt>
      <trkpt lat="49.16841" lon="-1.09257">
        <ele>27.93</ele>
      </trkpt>
      <trkpt lat="49.16779" lon="-1.09158">
        <ele>29.53</ele>
      </trkpt>
      <trkpt lat="49.16769" lon="-1.09146">
        <ele>29.72</ele>
      </trkpt>
      <trkpt lat="49.16706" lon="-1.09135">
        <ele>30.25</ele>
      </trkpt>
      <trkpt lat="49.1664" lon="-1.0914">
        <ele>30.86</ele>
      </trkpt>
      <trkpt lat="49.16573" lon="-1.09145">
        <ele>31.92</ele>
      </trkpt>
      <trkpt lat="49.16496" lon="-1.09149">
        <ele>33.49</ele>
      </trkpt>
      <trkpt lat="49.16487" lon="-1.09036">
        <ele>31.81</ele>
      </trkpt>
      <trkpt lat="49.16479" lon="-1.08968">
        <ele>31.92</ele>
      </trkpt>
      <trkpt lat="49.1646" lon="-1.08897">
        <ele>34.27</ele>
      </trkpt>
      <trkpt lat="49.16431" lon="-1.08823">
        <ele>39.57</ele>
      </trkpt>
      <trkpt lat="49.16404" lon="-1.08718">
        <ele>49.14</ele>
      </trkpt>
      <trkpt lat="49.16391" lon="-1.08626">
        <ele>57.61</ele>
      </trkpt>
      <trkpt lat="49.16353" lon="-1.08572">
        <ele>63.64</ele>
      </trkpt>
      <trkpt lat="49.16344" lon="-1.08549">
        <ele>65.76</ele>
      </trkpt>
      <trkpt lat="49.16351" lon="-1.08462">
        <ele>67.81</ele>
      </trkpt>
      <trkpt lat="49.16358" lon="-1.08375">
        <ele>69.25</ele>
      </trkpt>
      <trkpt lat="49.1636" lon="-1.08287">
        <ele>70.78</ele>
      </trkpt>
      <trkpt lat="49.16362" lon="-1.08199">
        <ele>72.53</ele>
      </trkpt>
      <trkpt lat="49.16357" lon="-1.08124">
        <ele>73.53</ele>
      </trkpt>
      <trkpt lat="49.16421" lon="-1.08131">
        <ele>70.57</ele>
      </trkpt>
      <trkpt lat="49.16484" lon="-1.08138">
        <ele>64.66</ele>
      </trkpt>
      <trkpt lat="49.16548" lon="-1.08145">
        <ele>58.93</ele>
      </trkpt>
      <trkpt lat="49.16594" lon="-1.08178">
        <ele>50.81</ele>
      </trkpt>
      <trkpt lat="49.1664" lon="-1.0821">
        <ele>46.26</ele>
      </trkpt>
      <trkpt lat="49.16645" lon="-1.08218">
        <ele>45.29</ele>
      </trkpt>
      <trkpt lat="49.16664" lon="-1.08226">
        <ele>45.26</ele>
      </trkpt>
      <trkpt lat="49.1667" lon="-1.08214">
        <ele>45.48</ele>
      </trkpt>
      <trkpt lat="49.16697" lon="-1.08092">
        <ele>52.59</ele>
      </trkpt>
      <trkpt lat="49.16723" lon="-1.07969">
        <ele>51.65</ele>
      </trkpt>
      <trkpt lat="49.1673" lon="-1.07921">
        <ele>51.5</ele>
      </trkpt>
      <trkpt lat="49.16697" lon="-1.07905">
        <ele>54.03</ele>
      </trkpt>
      <trkpt lat="49.16683" lon="-1.07891">
        <ele>56.38</ele>
      </trkpt>
      <trkpt lat="49.16686" lon="-1.07793">
        <ele>63.48</ele>
      </trkpt>
      <trkpt lat="49.16688" lon="-1.07694">
        <ele>66.61</ele>
      </trkpt>
      <trkpt lat="49.16686" lon="-1.07642">
        <ele>67.16</ele>
      </trkpt>
      <trkpt lat="49.16685" lon="-1.07572">
        <ele>67.85</ele>
      </trkpt>
      <trkpt lat="49.16684" lon="-1.07501">
        <ele>68.06</ele>
      </trkpt>
      <trkpt lat="49.16746" lon="-1.07478">
        <ele>63.78</ele>
      </trkpt>
      <trkpt lat="49.16808" lon="-1.07461">
        <ele>56.71</ele>
      </trkpt>
      <trkpt lat="49.16869" lon="-1.07444">
        <ele>51.41</ele>
      </trkpt>
      <trkpt lat="49.16891" lon="-1.07441">
        <ele>49.53</ele>
      </trkpt>
      <trkpt lat="49.16893" lon="-1.0744">
        <ele>49.45</ele>
      </trkpt>
      <trkpt lat="49.16943" lon="-1.07437">
        <ele>46.86</ele>
      </trkpt>
      <trkpt lat="49.17019" lon="-1.07449">
        <ele>38.19</ele>
      </trkpt>
      <trkpt lat="49.17095" lon="-1.0746">
        <ele>32.23</ele>
      </trkpt>
      <trkpt lat="49.1714" lon="-1.07474">
        <ele>28.65</ele>
      </trkpt>
      <trkpt lat="49.17171" lon="-1.07498">
        <ele>26.93</ele>
      </trkpt>
      <trkpt lat="49.17203" lon="-1.07535">
        <ele>26.21</ele>
      </trkpt>
      <trkpt lat="49.17263" lon="-1.07559">
        <ele>26.06</ele>
      </trkpt>
      <trkpt lat="49.17331" lon="-1.07599">
        <ele>24.4</ele>
      </trkpt>
      <trkpt lat="49.17396" lon="-1.07643">
        <ele>22.49</ele>
      </trkpt>
      <trkpt lat="49.17448" lon="-1.07682">
        <ele>21.62</ele>
      </trkpt>
      <trkpt lat="49.17499" lon="-1.07721">
        <ele>20.94</ele>
      </trkpt>
      <trkpt lat="49.17573" lon="-1.07772">
        <ele>19.84</ele>
      </trkpt>
      <trkpt lat="49.17647" lon="-1.07813">
        <ele>18.52</ele>
      </trkpt>
      <trkpt lat="49.1773" lon="-1.07827">
        <ele>17.23</ele>
      </trkpt>
      <trkpt lat="49.17783" lon="-1.07862">
        <ele>16.39</ele>
      </trkpt>
      <trkpt lat="49.17835" lon="-1.07897">
        <ele>15.57</ele>
      </trkpt>
      <trkpt lat="49.17854" lon="-1.07914">
        <ele>15.35</ele>
      </trkpt>
      <trkpt lat="49.17855" lon="-1.07914">
        <ele>15.35</ele>
      </trkpt>
      <trkpt lat="49.17875" lon="-1.07857">
        <ele>15.35</ele>
      </trkpt>
      <trkpt lat="49.17913" lon="-1.07735">
        <ele>12.62</ele>
      </trkpt>
      <trkpt lat="49.17918" lon="-1.07732">
        <ele>12.62</ele>
      </trkpt>
      <trkpt lat="49.17912" lon="-1.07718">
        <ele>12.62</ele>
      </trkpt>
      <trkpt lat="49.17896" lon="-1.07697">
        <ele>12.62</ele>
      </trkpt>
      <trkpt lat="49.17881" lon="-1.07667">
        <ele>12.62</ele>
      </trkpt>
      <trkpt lat="49.17844" lon="-1.07565">
        <ele>12.62</ele>
      </trkpt>
      <trkpt lat="49.17831" lon="-1.07515">
        <ele>12.62</ele>
      </trkpt>
      <trkpt lat="49.17814" lon="-1.0744">
        <ele>12.62</ele>
      </trkpt>
      <trkpt lat="49.17796" lon="-1.07365">
        <ele>23.64</ele>
      </trkpt>
      <trkpt lat="49.17829" lon="-1.07294">
        <ele>23.64</ele>
      </trkpt>
      <trkpt lat="49.17856" lon="-1.0723">
        <ele>23.64</ele>
      </trkpt>
      <trkpt lat="49.17873" lon="-1.07179">
        <ele>23.64</ele>
      </trkpt>
      <trkpt lat="49.17899" lon="-1.07089">
        <ele>23.64</ele>
      </trkpt>
      <trkpt lat="49.17898" lon="-1.07088">
        <ele>23.64</ele>
      </trkpt>
      <trkpt lat="49.17939" lon="-1.07091">
        <ele>23.64</ele>
      </trkpt>
      <trkpt lat="49.18011" lon="-1.07103">
        <ele>27.4</ele>
      </trkpt>
      <trkpt lat="49.18083" lon="-1.07114">
        <ele>27.4</ele>
      </trkpt>
      <trkpt lat="49.1809" lon="-1.07119">
        <ele>27.4</ele>
      </trkpt>
      <trkpt lat="49.1813" lon="-1.07208">
        <ele>27.4</ele>
      </trkpt>
      <trkpt lat="49.1817" lon="-1.07297">
        <ele>27.4</ele>
      </trkpt>
      <trkpt lat="49.18201" lon="-1.07349">
        <ele>27.4</ele>
      </trkpt>
      <trkpt lat="49.18219" lon="-1.07375">
        <ele>27.4</ele>
      </trkpt>
      <trkpt lat="49.18282" lon="-1.07427">
        <ele>27.4</ele>
      </trkpt>
      <trkpt lat="49.18296" lon="-1.07447">
        <ele>27.4</ele>
      </trkpt>
      <trkpt lat="49.1833" lon="-1.07528">
        <ele>27.4</ele>
      </trkpt>
      <trkpt lat="49.18344" lon="-1.07569">
        <ele>19.34</ele>
      </trkpt>
      <trkpt lat="49.18359" lon="-1.076">
        <ele>19.34</ele>
      </trkpt>
      <trkpt lat="49.18396" lon="-1.07636">
        <ele>19.34</ele>
      </trkpt>
      <trkpt lat="49.18457" lon="-1.07613">
        <ele>19.34</ele>
      </trkpt>
      <trkpt lat="49.18517" lon="-1.07589">
        <ele>19.34</ele>
      </trkpt>
      <trkpt lat="49.1856" lon="-1.07562">
        <ele>19.34</ele>
      </trkpt>
      <trkpt lat="49.18602" lon="-1.07535">
        <ele>19.34</ele>
      </trkpt>
      <trkpt lat="49.18633" lon="-1.07518">
        <ele>19.34</ele>
      </trkpt>
      <trkpt lat="49.18657" lon="-1.07515">
        <ele>19.34</ele>
      </trkpt>
      <trkpt lat="49.18677" lon="-1.07518">
        <ele>19.34</ele>
      </trkpt>
      <trkpt lat="49.18676" lon="-1.07518">
        <ele>19.34</ele>
      </trkpt>
      <trkpt lat="49.18677" lon="-1.07518">
        <ele>19.34</ele>
      </trkpt>
      <trkpt lat="49.18687" lon="-1.07491">
        <ele>19.26</ele>
      </trkpt>
      <trkpt lat="49.18692" lon="-1.0747">
        <ele>19.26</ele>
      </trkpt>
      <trkpt lat="49.18695" lon="-1.07443">
        <ele>19.34</ele>
      </trkpt>
      <trkpt lat="49.18693" lon="-1.07417">
        <ele>19.49</ele>
      </trkpt>
      <trkpt lat="49.18687" lon="-1.07396">
        <ele>19.62</ele>
      </trkpt>
      <trkpt lat="49.18651" lon="-1.07291">
        <ele>20.71</ele>
      </trkpt>
      <trkpt lat="49.18614" lon="-1.07186">
        <ele>20.45</ele>
      </trkpt>
      <trkpt lat="49.18596" lon="-1.07146">
        <ele>20.19</ele>
      </trkpt>
      <trkpt lat="49.18574" lon="-1.07111">
        <ele>20.23</ele>
      </trkpt>
      <trkpt lat="49.18563" lon="-1.07097">
        <ele>20.06</ele>
      </trkpt>
      <trkpt lat="49.18535" lon="-1.07074">
        <ele>20</ele>
      </trkpt>
      <trkpt lat="49.1852" lon="-1.07053">
        <ele>20</ele>
      </trkpt>
      <trkpt lat="49.18484" lon="-1.06977">
        <ele>19.79</ele>
      </trkpt>
      <trkpt lat="49.18449" lon="-1.06902">
        <ele>19.67</ele>
      </trkpt>
      <trkpt lat="49.18413" lon="-1.06826">
        <ele>19.62</ele>
      </trkpt>
      <trkpt lat="49.18392" lon="-1.06775">
        <ele>19.36</ele>
      </trkpt>
      <trkpt lat="49.18385" lon="-1.06748">
        <ele>19.36</ele>
      </trkpt>
      <trkpt lat="49.18383" lon="-1.06711">
        <ele>19.16</ele>
      </trkpt>
      <trkpt lat="49.18388" lon="-1.06604">
        <ele>19.16</ele>
      </trkpt>
      <trkpt lat="49.18393" lon="-1.06496">
        <ele>19.66</ele>
      </trkpt>
      <trkpt lat="49.18398" lon="-1.06389">
        <ele>20.84</ele>
      </trkpt>
      <trkpt lat="49.18394" lon="-1.06348">
        <ele>21.57</ele>
      </trkpt>
      <trkpt lat="49.18357" lon="-1.06226">
        <ele>23.66</ele>
      </trkpt>
      <trkpt lat="49.18349" lon="-1.06189">
        <ele>25.39</ele>
      </trkpt>
      <trkpt lat="49.18341" lon="-1.06069">
        <ele>28.87</ele>
      </trkpt>
      <trkpt lat="49.18332" lon="-1.05948">
        <ele>32.21</ele>
      </trkpt>
      <trkpt lat="49.18332" lon="-1.05949">
        <ele>32.21</ele>
      </trkpt>
      <trkpt lat="49.18333" lon="-1.05901">
        <ele>34.05</ele>
      </trkpt>
      <trkpt lat="49.18343" lon="-1.0583">
        <ele>36.23</ele>
      </trkpt>
      <trkpt lat="49.18362" lon="-1.05713">
        <ele>38.23</ele>
      </trkpt>
      <trkpt lat="49.18381" lon="-1.05596">
        <ele>38.69</ele>
      </trkpt>
      <trkpt lat="49.18401" lon="-1.05517">
        <ele>39.32</ele>
      </trkpt>
      <trkpt lat="49.1843" lon="-1.05419">
        <ele>39.71</ele>
      </trkpt>
      <trkpt lat="49.18458" lon="-1.0532">
        <ele>40.42</ele>
      </trkpt>
      <trkpt lat="49.18475" lon="-1.0524">
        <ele>41.75</ele>
      </trkpt>
      <trkpt lat="49.18488" lon="-1.05166">
        <ele>43.27</ele>
      </trkpt>
      <trkpt lat="49.18511" lon="-1.05067">
        <ele>45.05</ele>
      </trkpt>
      <trkpt lat="49.18532" lon="-1.05003">
        <ele>45.83</ele>
      </trkpt>
      <trkpt lat="49.18553" lon="-1.04955">
        <ele>46.62</ele>
      </trkpt>
      <trkpt lat="49.1857" lon="-1.04927">
        <ele>46.9</ele>
      </trkpt>
      <trkpt lat="49.18627" lon="-1.04845">
        <ele>47.37</ele>
      </trkpt>
      <trkpt lat="49.1862" lon="-1.04837">
        <ele>47.15</ele>
      </trkpt>
      <trkpt lat="49.18587" lon="-1.04813">
        <ele>47.26</ele>
      </trkpt>
      <trkpt lat="49.18562" lon="-1.04799">
        <ele>48.2</ele>
      </trkpt>
      <trkpt lat="49.18534" lon="-1.04789">
        <ele>49.34</ele>
      </trkpt>
      <trkpt lat="49.18494" lon="-1.04766">
        <ele>51.17</ele>
      </trkpt>
      <trkpt lat="49.1846" lon="-1.04742">
        <ele>53.01</ele>
      </trkpt>
      <trkpt lat="49.18432" lon="-1.04711">
        <ele>54.38</ele>
      </trkpt>
      <trkpt lat="49.18458" lon="-1.0464">
        <ele>53.35</ele>
      </trkpt>
      <trkpt lat="49.18494" lon="-1.04583">
        <ele>51.96</ele>
      </trkpt>
      <trkpt lat="49.18518" lon="-1.04508">
        <ele>50.87</ele>
      </trkpt>
      <trkpt lat="49.18526" lon="-1.04488">
        <ele>50.83</ele>
      </trkpt>
      <trkpt lat="49.18549" lon="-1.04447">
        <ele>50.94</ele>
      </trkpt>
      <trkpt lat="49.18555" lon="-1.04427">
        <ele>51.04</ele>
      </trkpt>
      <trkpt lat="49.18561" lon="-1.04383">
        <ele>51.86</ele>
      </trkpt>
      <trkpt lat="49.18562" lon="-1.04359">
        <ele>52.07</ele>
      </trkpt>
      <trkpt lat="49.18557" lon="-1.04269">
        <ele>53.95</ele>
      </trkpt>
      <trkpt lat="49.18552" lon="-1.04179">
        <ele>56.22</ele>
      </trkpt>
      <trkpt lat="49.18551" lon="-1.04179">
        <ele>56.23</ele>
      </trkpt>
      <trkpt lat="49.18497" lon="-1.04193">
        <ele>57.33</ele>
      </trkpt>
      <trkpt lat="49.1842" lon="-1.04203">
        <ele>58.92</ele>
      </trkpt>
      <trkpt lat="49.18388" lon="-1.04213">
        <ele>59.96</ele>
      </trkpt>
      <trkpt lat="49.18367" lon="-1.04223">
        <ele>60.05</ele>
      </trkpt>
      <trkpt lat="49.18315" lon="-1.04264">
        <ele>60.72</ele>
      </trkpt>
      <trkpt lat="49.18276" lon="-1.04283">
        <ele>60.78</ele>
      </trkpt>
      <trkpt lat="49.18281" lon="-1.04386">
        <ele>57.2</ele>
      </trkpt>
      <trkpt lat="49.18286" lon="-1.0443">
        <ele>56.32</ele>
      </trkpt>
      <trkpt lat="49.1829" lon="-1.04441">
        <ele>56.42</ele>
      </trkpt>
      <trkpt lat="49.18291" lon="-1.04538">
        <ele>56.52</ele>
      </trkpt>
      <trkpt lat="49.18287" lon="-1.04616">
        <ele>57.42</ele>
      </trkpt>
      <trkpt lat="49.18282" lon="-1.04661">
        <ele>57.86</ele>
      </trkpt>
      <trkpt lat="49.18338" lon="-1.04699">
        <ele>56.94</ele>
      </trkpt>
      <trkpt lat="49.18394" lon="-1.04736">
        <ele>55.84</ele>
      </trkpt>
      <trkpt lat="49.18366" lon="-1.0478">
        <ele>55.36</ele>
      </trkpt>
      <trkpt lat="49.18323" lon="-1.04854">
        <ele>54.93</ele>
      </trkpt>
      <trkpt lat="49.18278" lon="-1.04936">
        <ele>54.24</ele>
      </trkpt>
      <trkpt lat="49.18252" lon="-1.0499">
        <ele>52.77</ele>
      </trkpt>
      <trkpt lat="49.18232" lon="-1.05047">
        <ele>50.71</ele>
      </trkpt>
      <trkpt lat="49.18228" lon="-1.05064">
        <ele>50.42</ele>
      </trkpt>
      <trkpt lat="49.18221" lon="-1.05128">
        <ele>49.76</ele>
      </trkpt>
      <trkpt lat="49.18217" lon="-1.05145">
        <ele>48.95</ele>
      </trkpt>
      <trkpt lat="49.18199" lon="-1.05186">
        <ele>48.2</ele>
      </trkpt>
      <trkpt lat="49.18193" lon="-1.05211">
        <ele>47.98</ele>
      </trkpt>
      <trkpt lat="49.18193" lon="-1.05227">
        <ele>48.02</ele>
      </trkpt>
      <trkpt lat="49.18189" lon="-1.05237">
        <ele>48.13</ele>
      </trkpt>
      <trkpt lat="49.18175" lon="-1.05257">
        <ele>48.44</ele>
      </trkpt>
      <trkpt lat="49.18151" lon="-1.05321">
        <ele>49.58</ele>
      </trkpt>
      <trkpt lat="49.18132" lon="-1.05399">
        <ele>49.9</ele>
      </trkpt>
      <trkpt lat="49.18116" lon="-1.05491">
        <ele>48.97</ele>
      </trkpt>
      <trkpt lat="49.18103" lon="-1.05546">
        <ele>48.47</ele>
      </trkpt>
      <trkpt lat="49.18065" lon="-1.05626">
        <ele>48.05</ele>
      </trkpt>
      <trkpt lat="49.18057" lon="-1.05647">
        <ele>48.05</ele>
      </trkpt>
      <trkpt lat="49.18043" lon="-1.05695">
        <ele>47.78</ele>
      </trkpt>
      <trkpt lat="49.18023" lon="-1.05787">
        <ele>46.78</ele>
      </trkpt>
      <trkpt lat="49.18003" lon="-1.0588">
        <ele>45.43</ele>
      </trkpt>
      <trkpt lat="49.17983" lon="-1.05972">
        <ele>41.88</ele>
      </trkpt>
      <trkpt lat="49.1798" lon="-1.05999">
        <ele>40.19</ele>
      </trkpt>
      <trkpt lat="49.17982" lon="-1.06077">
        <ele>33.86</ele>
      </trkpt>
      <trkpt lat="49.17973" lon="-1.06127">
        <ele>31.87</ele>
      </trkpt>
      <trkpt lat="49.17941" lon="-1.06238">
        <ele>34.74</ele>
      </trkpt>
      <trkpt lat="49.17908" lon="-1.06349">
        <ele>37.4</ele>
      </trkpt>
      <trkpt lat="49.17874" lon="-1.0645">
        <ele>35.94</ele>
      </trkpt>
      <trkpt lat="49.17848" lon="-1.06521">
        <ele>33.3</ele>
      </trkpt>
      <trkpt lat="49.17824" lon="-1.06569">
        <ele>32.02</ele>
      </trkpt>
      <trkpt lat="49.17801" lon="-1.06606">
        <ele>31.2</ele>
      </trkpt>
      <trkpt lat="49.17784" lon="-1.0663">
        <ele>30.72</ele>
      </trkpt>
      <trkpt lat="49.17745" lon="-1.06674">
        <ele>29.58</ele>
      </trkpt>
      <trkpt lat="49.17705" lon="-1.06718">
        <ele>28.78</ele>
      </trkpt>
      <trkpt lat="49.17684" lon="-1.0675">
        <ele>27.85</ele>
      </trkpt>
      <trkpt lat="49.17657" lon="-1.0683">
        <ele>25.27</ele>
      </trkpt>
      <trkpt lat="49.17648" lon="-1.06881">
        <ele>24.53</ele>
      </trkpt>
      <trkpt lat="49.17631" lon="-1.06911">
        <ele>23.64</ele>
      </trkpt>
      <trkpt lat="49.176" lon="-1.06938">
        <ele>23.25</ele>
      </trkpt>
      <trkpt lat="49.1755" lon="-1.06965">
        <ele>22.94</ele>
      </trkpt>
      <trkpt lat="49.175" lon="-1.06992">
        <ele>22.92</ele>
      </trkpt>
      <trkpt lat="49.17488" lon="-1.07003">
        <ele>22.98</ele>
      </trkpt>
      <trkpt lat="49.17463" lon="-1.0704">
        <ele>23.28</ele>
      </trkpt>
      <trkpt lat="49.17447" lon="-1.07051">
        <ele>23.36</ele>
      </trkpt>
      <trkpt lat="49.17448" lon="-1.07051">
        <ele>23.36</ele>
      </trkpt>
      <trkpt lat="49.17431" lon="-1.07056">
        <ele>23.75</ele>
      </trkpt>
      <trkpt lat="49.17423" lon="-1.07057">
        <ele>24.24</ele>
      </trkpt>
      <trkpt lat="49.17404" lon="-1.07044">
        <ele>25.78</ele>
      </trkpt>
      <trkpt lat="49.17362" lon="-1.06996">
        <ele>30.82</ele>
      </trkpt>
      <trkpt lat="49.17349" lon="-1.06986">
        <ele>31.95</ele>
      </trkpt>
      <trkpt lat="49.17331" lon="-1.06986">
        <ele>34.94</ele>
      </trkpt>
      <trkpt lat="49.17266" lon="-1.07006">
        <ele>41.22</ele>
      </trkpt>
      <trkpt lat="49.17254" lon="-1.07014">
        <ele>41.91</ele>
      </trkpt>
      <trkpt lat="49.17249" lon="-1.06999">
        <ele>42.32</ele>
      </trkpt>
      <trkpt lat="49.17238" lon="-1.06915">
        <ele>42.84</ele>
      </trkpt>
      <trkpt lat="49.17232" lon="-1.06905">
        <ele>42.97</ele>
      </trkpt>
      <trkpt lat="49.17223" lon="-1.06901">
        <ele>43.07</ele>
      </trkpt>
      <trkpt lat="49.17197" lon="-1.06891">
        <ele>43.85</ele>
      </trkpt>
      <trkpt lat="49.17116" lon="-1.06847">
        <ele>46.68</ele>
      </trkpt>
      <trkpt lat="49.17085" lon="-1.06837">
        <ele>47.2</ele>
      </trkpt>
      <trkpt lat="49.17004" lon="-1.06819">
        <ele>47.59</ele>
      </trkpt>
      <trkpt lat="49.16989" lon="-1.06813">
        <ele>46.7</ele>
      </trkpt>
      <trkpt lat="49.16954" lon="-1.06806">
        <ele>44.27</ele>
      </trkpt>
      <trkpt lat="49.16899" lon="-1.06792">
        <ele>40.38</ele>
      </trkpt>
      <trkpt lat="49.16835" lon="-1.06765">
        <ele>41.05</ele>
      </trkpt>
      <trkpt lat="49.16777" lon="-1.06775">
        <ele>43.92</ele>
      </trkpt>
      <trkpt lat="49.1676" lon="-1.06765">
        <ele>43.28</ele>
      </trkpt>
      <trkpt lat="49.16762" lon="-1.06767">
        <ele>43.35</ele>
      </trkpt>
      <trkpt lat="49.16699" lon="-1.0682">
        <ele>49.85</ele>
      </trkpt>
      <trkpt lat="49.16671" lon="-1.06861">
        <ele>53.94</ele>
      </trkpt>
      <trkpt lat="49.16632" lon="-1.06934">
        <ele>58.02</ele>
      </trkpt>
      <trkpt lat="49.16593" lon="-1.07008">
        <ele>61.42</ele>
      </trkpt>
      <trkpt lat="49.16554" lon="-1.07081">
        <ele>64.25</ele>
      </trkpt>
      <trkpt lat="49.16567" lon="-1.07174">
        <ele>71.02</ele>
      </trkpt>
      <trkpt lat="49.1658" lon="-1.07267">
        <ele>74.52</ele>
      </trkpt>
      <trkpt lat="49.1658" lon="-1.07315">
        <ele>74.96</ele>
      </trkpt>
      <trkpt lat="49.1658" lon="-1.07316">
        <ele>74.95</ele>
      </trkpt>
      <trkpt lat="49.16527" lon="-1.07331">
        <ele>74.96</ele>
      </trkpt>
      <trkpt lat="49.16474" lon="-1.07345">
        <ele>75.76</ele>
      </trkpt>
      <trkpt lat="49.16433" lon="-1.07348">
        <ele>77.19</ele>
      </trkpt>
      <trkpt lat="49.16398" lon="-1.07342">
        <ele>77.73</ele>
      </trkpt>
      <trkpt lat="49.1633" lon="-1.0731">
        <ele>77.67</ele>
      </trkpt>
      <trkpt lat="49.16262" lon="-1.07278">
        <ele>78.69</ele>
      </trkpt>
      <trkpt lat="49.16206" lon="-1.07247">
        <ele>79.05</ele>
      </trkpt>
      <trkpt lat="49.16196" lon="-1.07234">
        <ele>79.87</ele>
      </trkpt>
      <trkpt lat="49.16122" lon="-1.07233">
        <ele>82.57</ele>
      </trkpt>
      <trkpt lat="49.16116" lon="-1.07158">
        <ele>82.72</ele>
      </trkpt>
      <trkpt lat="49.16111" lon="-1.07128">
        <ele>83.3</ele>
      </trkpt>
      <trkpt lat="49.16072" lon="-1.07024">
        <ele>84.48</ele>
      </trkpt>
      <trkpt lat="49.16032" lon="-1.0692">
        <ele>84</ele>
      </trkpt>
      <trkpt lat="49.16006" lon="-1.06952">
        <ele>84.32</ele>
      </trkpt>
      <trkpt lat="49.16002" lon="-1.06955">
        <ele>84.69</ele>
      </trkpt>
      <trkpt lat="49.1593" lon="-1.06911">
        <ele>85.49</ele>
      </trkpt>
      <trkpt lat="49.15923" lon="-1.06911">
        <ele>85.49</ele>
      </trkpt>
      <trkpt lat="49.15919" lon="-1.06918">
        <ele>85.85</ele>
      </trkpt>
      <trkpt lat="49.15897" lon="-1.06996">
        <ele>88.32</ele>
      </trkpt>
      <trkpt lat="49.15875" lon="-1.07074">
        <ele>90.85</ele>
      </trkpt>
      <trkpt lat="49.15855" lon="-1.07111">
        <ele>92.27</ele>
      </trkpt>
      <trkpt lat="49.15827" lon="-1.07122">
        <ele>93.46</ele>
      </trkpt>
      <trkpt lat="49.15745" lon="-1.07169">
        <ele>95.92</ele>
      </trkpt>
      <trkpt lat="49.15662" lon="-1.07216">
        <ele>99.14</ele>
      </trkpt>
      <trkpt lat="49.15653" lon="-1.07244">
        <ele>99.53</ele>
      </trkpt>
      <trkpt lat="49.15652" lon="-1.07244">
        <ele>99.53</ele>
      </trkpt>
      <trkpt lat="49.15634" lon="-1.07229">
        <ele>99.82</ele>
      </trkpt>
      <trkpt lat="49.15665" lon="-1.07136">
        <ele>98.19</ele>
      </trkpt>
      <trkpt lat="49.15695" lon="-1.07042">
        <ele>95.11</ele>
      </trkpt>
      <trkpt lat="49.15726" lon="-1.06949">
        <ele>89.74</ele>
      </trkpt>
      <trkpt lat="49.15758" lon="-1.0688">
        <ele>86.81</ele>
      </trkpt>
      <trkpt lat="49.15789" lon="-1.0681">
        <ele>83.27</ele>
      </trkpt>
      <trkpt lat="49.15735" lon="-1.06775">
        <ele>80.7</ele>
      </trkpt>
      <trkpt lat="49.15681" lon="-1.06739">
        <ele>76.22</ele>
      </trkpt>
      <trkpt lat="49.15654" lon="-1.06806">
        <ele>77.24</ele>
      </trkpt>
      <trkpt lat="49.15618" lon="-1.06766">
        <ele>79.65</ele>
      </trkpt>
      <trkpt lat="49.15568" lon="-1.06745">
        <ele>82.47</ele>
      </trkpt>
      <trkpt lat="49.15536" lon="-1.06752">
        <ele>83.33</ele>
      </trkpt>
      <trkpt lat="49.15509" lon="-1.06755">
        <ele>84.53</ele>
      </trkpt>
      <trkpt lat="49.15458" lon="-1.06735">
        <ele>84.6</ele>
      </trkpt>
      <trkpt lat="49.15385" lon="-1.0667">
        <ele>82.15</ele>
      </trkpt>
      <trkpt lat="49.15371" lon="-1.06647">
        <ele>81.74</ele>
      </trkpt>
      <trkpt lat="49.1536" lon="-1.06596">
        <ele>79.91</ele>
      </trkpt>
      <trkpt lat="49.15347" lon="-1.06555">
        <ele>77.96</ele>
      </trkpt>
      <trkpt lat="49.15347" lon="-1.06556">
        <ele>77.96</ele>
      </trkpt>
      <trkpt lat="49.15348" lon="-1.06536">
        <ele>76.69</ele>
      </trkpt>
      <trkpt lat="49.15403" lon="-1.06455">
        <ele>78.15</ele>
      </trkpt>
      <trkpt lat="49.1545" lon="-1.06368">
        <ele>85.16</ele>
      </trkpt>
      <trkpt lat="49.15497" lon="-1.0628">
        <ele>89.43</ele>
      </trkpt>
      <trkpt lat="49.15544" lon="-1.06193">
        <ele>94.24</ele>
      </trkpt>
      <trkpt lat="49.15591" lon="-1.06105">
        <ele>95.32</ele>
      </trkpt>
      <trkpt lat="49.1561" lon="-1.0607">
        <ele>95.31</ele>
      </trkpt>
      <trkpt lat="49.15614" lon="-1.06055">
        <ele>95.31</ele>
      </trkpt>
      <trkpt lat="49.1562" lon="-1.0602">
        <ele>95.25</ele>
      </trkpt>
      <trkpt lat="49.1562" lon="-1.06019">
        <ele>95.28</ele>
      </trkpt>
      <trkpt lat="49.15606" lon="-1.06016">
        <ele>96.19</ele>
      </trkpt>
      <trkpt lat="49.15578" lon="-1.0602">
        <ele>97.11</ele>
      </trkpt>
      <trkpt lat="49.15513" lon="-1.06043">
        <ele>99.32</ele>
      </trkpt>
      <trkpt lat="49.1546" lon="-1.0603">
        <ele>101.62</ele>
      </trkpt>
      <trkpt lat="49.15393" lon="-1.06006">
        <ele>102.59</ele>
      </trkpt>
      <trkpt lat="49.15317" lon="-1.06015">
        <ele>102.69</ele>
      </trkpt>
      <trkpt lat="49.15241" lon="-1.06023">
        <ele>102.29</ele>
      </trkpt>
      <trkpt lat="49.15226" lon="-1.05925">
        <ele>106.04</ele>
      </trkpt>
      <trkpt lat="49.15215" lon="-1.05839">
        <ele>107.67</ele>
      </trkpt>
      <trkpt lat="49.15175" lon="-1.05861">
        <ele>108.32</ele>
      </trkpt>
      <trkpt lat="49.15137" lon="-1.05898">
        <ele>108.52</ele>
      </trkpt>
      <trkpt lat="49.15136" lon="-1.059">
        <ele>108.52</ele>
      </trkpt>
      <trkpt lat="49.15128" lon="-1.05911">
        <ele>108.51</ele>
      </trkpt>
      <trkpt lat="49.15106" lon="-1.05948">
        <ele>108.07</ele>
      </trkpt>
      <trkpt lat="49.15085" lon="-1.06015">
        <ele>105.83</ele>
      </trkpt>
      <trkpt lat="49.15084" lon="-1.06014">
        <ele>105.82</ele>
      </trkpt>
      <trkpt lat="49.15084" lon="-1.06044">
        <ele>104.67</ele>
      </trkpt>
      <trkpt lat="49.15054" lon="-1.06145">
        <ele>102.66</ele>
      </trkpt>
      <trkpt lat="49.15032" lon="-1.06179">
        <ele>103.37</ele>
      </trkpt>
      <trkpt lat="49.15002" lon="-1.06213">
        <ele>104.72</ele>
      </trkpt>
      <trkpt lat="49.14975" lon="-1.06254">
        <ele>104.38</ele>
      </trkpt>
      <trkpt lat="49.14921" lon="-1.06355">
        <ele>99.44</ele>
      </trkpt>
      <trkpt lat="49.14881" lon="-1.06396">
        <ele>98.08</ele>
      </trkpt>
      <trkpt lat="49.14849" lon="-1.0642">
        <ele>98.52</ele>
      </trkpt>
      <trkpt lat="49.14831" lon="-1.0645">
        <ele>99.26</ele>
      </trkpt>
      <trkpt lat="49.14809" lon="-1.06518">
        <ele>102.36</ele>
      </trkpt>
      <trkpt lat="49.14782" lon="-1.06583">
        <ele>105.71</ele>
      </trkpt>
      <trkpt lat="49.14725" lon="-1.06678">
        <ele>110.62</ele>
      </trkpt>
      <trkpt lat="49.14705" lon="-1.06694">
        <ele>111.2</ele>
      </trkpt>
      <trkpt lat="49.14682" lon="-1.06738">
        <ele>112.75</ele>
      </trkpt>
      <trkpt lat="49.14682" lon="-1.06748">
        <ele>112.75</ele>
      </trkpt>
      <trkpt lat="49.14641" lon="-1.06815">
        <ele>116.3</ele>
      </trkpt>
      <trkpt lat="49.14645" lon="-1.06829">
        <ele>116.26</ele>
      </trkpt>
      <trkpt lat="49.1468" lon="-1.06939">
        <ele>115.29</ele>
      </trkpt>
      <trkpt lat="49.14702" lon="-1.07043">
        <ele>114.05</ele>
      </trkpt>
      <trkpt lat="49.14726" lon="-1.07127">
        <ele>113.21</ele>
      </trkpt>
      <trkpt lat="49.1475" lon="-1.07211">
        <ele>112.69</ele>
      </trkpt>
      <trkpt lat="49.14764" lon="-1.07277">
        <ele>112.23</ele>
      </trkpt>
      <trkpt lat="49.14768" lon="-1.07275">
        <ele>111.93</ele>
      </trkpt>
      <trkpt lat="49.14826" lon="-1.07247">
        <ele>108.84</ele>
      </trkpt>
      <trkpt lat="49.14891" lon="-1.0727">
        <ele>108</ele>
      </trkpt>
      <trkpt lat="49.14944" lon="-1.07274">
        <ele>107.87</ele>
      </trkpt>
      <trkpt lat="49.14996" lon="-1.07278">
        <ele>108.39</ele>
      </trkpt>
      <trkpt lat="49.15034" lon="-1.07378">
        <ele>108.46</ele>
      </trkpt>
      <trkpt lat="49.15071" lon="-1.07478">
        <ele>107.15</ele>
      </trkpt>
      <trkpt lat="49.1512" lon="-1.07547">
        <ele>105.32</ele>
      </trkpt>
      <trkpt lat="49.15168" lon="-1.07616">
        <ele>103.89</ele>
      </trkpt>
      <trkpt lat="49.15205" lon="-1.07697">
        <ele>102.73</ele>
      </trkpt>
      <trkpt lat="49.15235" lon="-1.07789">
        <ele>102.18</ele>
      </trkpt>
      <trkpt lat="49.15284" lon="-1.07869">
        <ele>101.45</ele>
      </trkpt>
      <trkpt lat="49.15272" lon="-1.07977">
        <ele>99.69</ele>
      </trkpt>
      <trkpt lat="49.1526" lon="-1.08084">
        <ele>98.9</ele>
      </trkpt>
      <trkpt lat="49.15258" lon="-1.08145">
        <ele>98.49</ele>
      </trkpt>
      <trkpt lat="49.15257" lon="-1.08147">
        <ele>98.48</ele>
      </trkpt>
      <trkpt lat="49.15239" lon="-1.08241">
        <ele>98.12</ele>
      </trkpt>
      <trkpt lat="49.1522" lon="-1.08336">
        <ele>97.65</ele>
      </trkpt>
      <trkpt lat="49.15202" lon="-1.0843">
        <ele>97.2</ele>
      </trkpt>
      <trkpt lat="49.15189" lon="-1.08467">
        <ele>96.99</ele>
      </trkpt>
      <trkpt lat="49.15154" lon="-1.08525">
        <ele>96.28</ele>
      </trkpt>
      <trkpt lat="49.151" lon="-1.08585">
        <ele>95.88</ele>
      </trkpt>
      <trkpt lat="49.15042" lon="-1.0867">
        <ele>95.23</ele>
      </trkpt>
      <trkpt lat="49.15021" lon="-1.08684">
        <ele>95.15</ele>
      </trkpt>
      <trkpt lat="49.15002" lon="-1.08704">
        <ele>95.04</ele>
      </trkpt>
      <trkpt lat="49.14988" lon="-1.08735">
        <ele>94.95</ele>
      </trkpt>
      <trkpt lat="49.14978" lon="-1.08765">
        <ele>94.86</ele>
      </trkpt>
      <trkpt lat="49.14934" lon="-1.08752">
        <ele>94.12</ele>
      </trkpt>
      <trkpt lat="49.14923" lon="-1.08745">
        <ele>93.84</ele>
      </trkpt>
      <trkpt lat="49.14893" lon="-1.08711">
        <ele>93.19</ele>
      </trkpt>
      <trkpt lat="49.14872" lon="-1.08694">
        <ele>92.57</ele>
      </trkpt>
      <trkpt lat="49.14817" lon="-1.08667">
        <ele>88.71</ele>
      </trkpt>
      <trkpt lat="49.14765" lon="-1.08629">
        <ele>85.38</ele>
      </trkpt>
      <trkpt lat="49.14756" lon="-1.08593">
        <ele>85.56</ele>
      </trkpt>
    </trkseg>
  </trk>
</gpx>