<?xml version="1.0" encoding="UTF-8" standalone="no" ?>
<gpx xmlns="http://www.topografix.com/GPX/1/1" xmlns:xsi="http://www.w3.org/2001/XMLSchema-instance" xsi:schemaLocation="http://www.topografix.com/GPX/1/1 http://www.topografix.com/GPX/1/1/gpx.xsd" version="1.1" creator="VisuGPX - https://www.visugpx.com">
  <metadata>
    <name>Challenge AGGLO VTT OK</name>
    <desc><![CDATA[Canisy + Saint Ebremond de Bonfossé]]></desc>
  </metadata>
  <trk>
    <name><![CDATA[Moyon Village]]></name>
    <extensions>
      <line xmlns="http://www.topografix.com/GPX/gpx_style/0/2">
        <color>0000ff</color>
        <opacity>1</opacity>
        <width>4</width>
          <extensions>
            <sens>1</sens>
          </extensions>
      </line>
    </extensions>
    <trkseg>
      <trkpt lat="49.00043" lon="-1.11595">
        <ele>80.54</ele>
        <extensions>
          <visugpx:TrkExtension xmlns:visugpx="https://www.visugpx.com/editgpx/">
            <visugpx:node>2</visugpx:node>
            </visugpx:TrkExtension>
        </extensions>
      </trkpt>
      <trkpt lat="49.00022" lon="-1.11685">
        <ele>81.82</ele>
      </trkpt>
      <trkpt lat="49.00013" lon="-1.11677">
        <ele>81.39</ele>
      </trkpt>
      <trkpt lat="48.99964" lon="-1.1158">
        <ele>75.39</ele>
      </trkpt>
      <trkpt lat="48.99927" lon="-1.11497">
        <ele>69.35</ele>
      </trkpt>
      <trkpt lat="48.99911" lon="-1.1147">
        <ele>68.08</ele>
      </trkpt>
      <trkpt lat="48.99897" lon="-1.11453">
        <ele>65.63</ele>
      </trkpt>
      <trkpt lat="48.99857" lon="-1.11434">
        <ele>63.71</ele>
      </trkpt>
      <trkpt lat="48.99815" lon="-1.11395">
        <ele>62.59</ele>
      </trkpt>
      <trkpt lat="48.99804" lon="-1.11372">
        <ele>62.58</ele>
      </trkpt>
      <trkpt lat="48.99793" lon="-1.11372">
        <ele>62.89</ele>
      </trkpt>
      <trkpt lat="48.99762" lon="-1.11358">
        <ele>64.01</ele>
      </trkpt>
      <trkpt lat="48.99679" lon="-1.11328">
        <ele>69.83</ele>
      </trkpt>
      <trkpt lat="48.99642" lon="-1.11327">
        <ele>71.89</ele>
      </trkpt>
      <trkpt lat="48.99608" lon="-1.11311">
        <ele>73.93</ele>
      </trkpt>
      <trkpt lat="48.99562" lon="-1.113">
        <ele>76.12</ele>
      </trkpt>
      <trkpt lat="48.99515" lon="-1.11283">
        <ele>77.96</ele>
      </trkpt>
      <trkpt lat="48.99449" lon="-1.11273">
        <ele>81.01</ele>
      </trkpt>
      <trkpt lat="48.99437" lon="-1.11273">
        <ele>81.24</ele>
      </trkpt>
      <trkpt lat="48.99428" lon="-1.11286">
        <ele>81.39</ele>
      </trkpt>
      <trkpt lat="48.99414" lon="-1.11278">
        <ele>81.9</ele>
      </trkpt>
      <trkpt lat="48.99348" lon="-1.11192">
        <ele>85.05</ele>
      </trkpt>
      <trkpt lat="48.99308" lon="-1.11152">
        <ele>86.95</ele>
      </trkpt>
      <trkpt lat="48.99267" lon="-1.11111">
        <ele>88.71</ele>
      </trkpt>
      <trkpt lat="48.99206" lon="-1.11043">
        <ele>91.38</ele>
      </trkpt>
      <trkpt lat="48.99184" lon="-1.11005">
        <ele>91.94</ele>
      </trkpt>
      <trkpt lat="48.99147" lon="-1.10934">
        <ele>92.8</ele>
      </trkpt>
      <trkpt lat="48.99109" lon="-1.10863">
        <ele>94.09</ele>
      </trkpt>
      <trkpt lat="48.99094" lon="-1.10826">
        <ele>94.33</ele>
      </trkpt>
      <trkpt lat="48.99079" lon="-1.10806">
        <ele>94.36</ele>
      </trkpt>
      <trkpt lat="48.99064" lon="-1.10804">
        <ele>94.36</ele>
      </trkpt>
      <trkpt lat="48.99067" lon="-1.10792">
        <ele>94.36</ele>
      </trkpt>
      <trkpt lat="48.9907" lon="-1.10713">
        <ele>95.01</ele>
      </trkpt>
      <trkpt lat="48.99072" lon="-1.10633">
        <ele>95.24</ele>
      </trkpt>
      <trkpt lat="48.9907" lon="-1.10598">
        <ele>95.24</ele>
      </trkpt>
      <trkpt lat="48.99143" lon="-1.10565">
        <ele>94.31</ele>
      </trkpt>
      <trkpt lat="48.99217" lon="-1.10533">
        <ele>92.42</ele>
      </trkpt>
      <trkpt lat="48.9929" lon="-1.105">
        <ele>89.27</ele>
      </trkpt>
      <trkpt lat="48.99312" lon="-1.10497">
        <ele>87.59</ele>
      </trkpt>
      <trkpt lat="48.9935" lon="-1.10504">
        <ele>86.5</ele>
      </trkpt>
      <trkpt lat="48.99396" lon="-1.10522">
        <ele>85.16</ele>
      </trkpt>
      <trkpt lat="48.99367" lon="-1.1048">
        <ele>86.5</ele>
      </trkpt>
      <trkpt lat="48.9933" lon="-1.10382">
        <ele>91.72</ele>
      </trkpt>
      <trkpt lat="48.99322" lon="-1.10345">
        <ele>92.68</ele>
      </trkpt>
      <trkpt lat="48.99318" lon="-1.10311">
        <ele>93.23</ele>
      </trkpt>
      <trkpt lat="48.99318" lon="-1.10281">
        <ele>94.47</ele>
      </trkpt>
      <trkpt lat="48.99318" lon="-1.1028">
        <ele>94.51</ele>
      </trkpt>
      <trkpt lat="48.99246" lon="-1.10266">
        <ele>96.15</ele>
      </trkpt>
      <trkpt lat="48.99174" lon="-1.10252">
        <ele>96.93</ele>
      </trkpt>
      <trkpt lat="48.99102" lon="-1.10238">
        <ele>96.6</ele>
      </trkpt>
      <trkpt lat="48.99059" lon="-1.10219">
        <ele>95</ele>
      </trkpt>
      <trkpt lat="48.99015" lon="-1.10199">
        <ele>93.98</ele>
      </trkpt>
      <trkpt lat="48.98946" lon="-1.10141">
        <ele>90.08</ele>
      </trkpt>
      <trkpt lat="48.98886" lon="-1.10056">
        <ele>86.48</ele>
      </trkpt>
      <trkpt lat="48.98831" lon="-1.10007">
        <ele>81</ele>
      </trkpt>
      <trkpt lat="48.98776" lon="-1.09958">
        <ele>77.52</ele>
      </trkpt>
      <trkpt lat="48.98756" lon="-1.09911">
        <ele>72.74</ele>
      </trkpt>
      <trkpt lat="48.98712" lon="-1.09889">
        <ele>70.46</ele>
      </trkpt>
      <trkpt lat="48.98668" lon="-1.09867">
        <ele>68</ele>
      </trkpt>
      <trkpt lat="48.9864" lon="-1.09867">
        <ele>68.48</ele>
      </trkpt>
      <trkpt lat="48.98605" lon="-1.09856">
        <ele>70.94</ele>
      </trkpt>
      <trkpt lat="48.9857" lon="-1.09836">
        <ele>72.11</ele>
      </trkpt>
      <trkpt lat="48.98506" lon="-1.09785">
        <ele>71.48</ele>
      </trkpt>
      <trkpt lat="48.98445" lon="-1.09779">
        <ele>70.51</ele>
      </trkpt>
      <trkpt lat="48.98408" lon="-1.09768">
        <ele>69.43</ele>
      </trkpt>
      <trkpt lat="48.98395" lon="-1.09767">
        <ele>69.29</ele>
      </trkpt>
      <trkpt lat="48.98399" lon="-1.09789">
        <ele>70.19</ele>
      </trkpt>
      <trkpt lat="48.98406" lon="-1.0988">
        <ele>71.82</ele>
      </trkpt>
      <trkpt lat="48.98399" lon="-1.09907">
        <ele>71.94</ele>
      </trkpt>
      <trkpt lat="48.98384" lon="-1.09938">
        <ele>72.4</ele>
      </trkpt>
      <trkpt lat="48.98355" lon="-1.09982">
        <ele>72.64</ele>
      </trkpt>
      <trkpt lat="48.98303" lon="-1.09967">
        <ele>71.59</ele>
      </trkpt>
      <trkpt lat="48.9825" lon="-1.09952">
        <ele>70.13</ele>
      </trkpt>
      <trkpt lat="48.98233" lon="-1.09945">
        <ele>70.02</ele>
      </trkpt>
      <trkpt lat="48.98184" lon="-1.09915">
        <ele>70.99</ele>
      </trkpt>
      <trkpt lat="48.98113" lon="-1.09856">
        <ele>72.65</ele>
      </trkpt>
      <trkpt lat="48.98061" lon="-1.09817">
        <ele>73.38</ele>
      </trkpt>
      <trkpt lat="48.98062" lon="-1.09819">
        <ele>73.39</ele>
      </trkpt>
      <trkpt lat="48.98054" lon="-1.09806">
        <ele>73.23</ele>
      </trkpt>
      <trkpt lat="48.98017" lon="-1.09731">
        <ele>72.32</ele>
      </trkpt>
      <trkpt lat="48.97979" lon="-1.09656">
        <ele>71.67</ele>
      </trkpt>
      <trkpt lat="48.97969" lon="-1.09629">
        <ele>71.07</ele>
      </trkpt>
      <trkpt lat="48.97966" lon="-1.09599">
        <ele>70.52</ele>
      </trkpt>
      <trkpt lat="48.97964" lon="-1.09538">
        <ele>69.6</ele>
      </trkpt>
      <trkpt lat="48.97949" lon="-1.09504">
        <ele>68.7</ele>
      </trkpt>
      <trkpt lat="48.97928" lon="-1.09437">
        <ele>67.11</ele>
      </trkpt>
      <trkpt lat="48.97906" lon="-1.09369">
        <ele>66.39</ele>
      </trkpt>
      <trkpt lat="48.97895" lon="-1.09341">
        <ele>66.33</ele>
      </trkpt>
      <trkpt lat="48.97882" lon="-1.09273">
        <ele>65.66</ele>
      </trkpt>
      <trkpt lat="48.97829" lon="-1.09269">
        <ele>65.72</ele>
      </trkpt>
      <trkpt lat="48.97835" lon="-1.09187">
        <ele>63.36</ele>
      </trkpt>
      <trkpt lat="48.9784" lon="-1.09104">
        <ele>60.4</ele>
      </trkpt>
      <trkpt lat="48.97855" lon="-1.0897">
        <ele>55.76</ele>
      </trkpt>
      <trkpt lat="48.97869" lon="-1.08836">
        <ele>52.34</ele>
      </trkpt>
      <trkpt lat="48.9787" lon="-1.08759">
        <ele>50.2</ele>
      </trkpt>
      <trkpt lat="48.9787" lon="-1.08681">
        <ele>47.98</ele>
      </trkpt>
      <trkpt lat="48.97868" lon="-1.0867">
        <ele>47.78</ele>
      </trkpt>
      <trkpt lat="48.97862" lon="-1.08654">
        <ele>47.66</ele>
      </trkpt>
      <trkpt lat="48.97835" lon="-1.08629">
        <ele>48.19</ele>
      </trkpt>
      <trkpt lat="48.97823" lon="-1.08589">
        <ele>49.42</ele>
      </trkpt>
      <trkpt lat="48.97826" lon="-1.08538">
        <ele>51.88</ele>
      </trkpt>
      <trkpt lat="48.97802" lon="-1.08426">
        <ele>53.82</ele>
      </trkpt>
      <trkpt lat="48.97747" lon="-1.08348">
        <ele>57.58</ele>
      </trkpt>
      <trkpt lat="48.97719" lon="-1.08297">
        <ele>61.55</ele>
      </trkpt>
      <trkpt lat="48.97691" lon="-1.08213">
        <ele>66.78</ele>
      </trkpt>
      <trkpt lat="48.97663" lon="-1.08128">
        <ele>70</ele>
      </trkpt>
      <trkpt lat="48.97651" lon="-1.08024">
        <ele>71.19</ele>
      </trkpt>
      <trkpt lat="48.9764" lon="-1.0792">
        <ele>74.34</ele>
      </trkpt>
      <trkpt lat="48.97628" lon="-1.07816">
        <ele>76.72</ele>
      </trkpt>
      <trkpt lat="48.97608" lon="-1.07732">
        <ele>80.63</ele>
      </trkpt>
      <trkpt lat="48.9759" lon="-1.07669">
        <ele>84.41</ele>
      </trkpt>
      <trkpt lat="48.97572" lon="-1.07606">
        <ele>86.37</ele>
      </trkpt>
      <trkpt lat="48.97546" lon="-1.07528">
        <ele>88.55</ele>
      </trkpt>
      <trkpt lat="48.97477" lon="-1.07521">
        <ele>90.07</ele>
      </trkpt>
      <trkpt lat="48.97407" lon="-1.07514">
        <ele>92.33</ele>
      </trkpt>
      <trkpt lat="48.97386" lon="-1.07514">
        <ele>92.61</ele>
      </trkpt>
      <trkpt lat="48.9736" lon="-1.07517">
        <ele>92.95</ele>
      </trkpt>
      <trkpt lat="48.97322" lon="-1.07518">
        <ele>93.46</ele>
      </trkpt>
      <trkpt lat="48.97286" lon="-1.07525">
        <ele>94.06</ele>
      </trkpt>
      <trkpt lat="48.97234" lon="-1.07539">
        <ele>95.21</ele>
      </trkpt>
      <trkpt lat="48.97149" lon="-1.07538">
        <ele>93.63</ele>
      </trkpt>
      <trkpt lat="48.97142" lon="-1.0756">
        <ele>93.27</ele>
      </trkpt>
      <trkpt lat="48.97143" lon="-1.07558">
        <ele>93.3</ele>
      </trkpt>
      <trkpt lat="48.97135" lon="-1.07643">
        <ele>90.83</ele>
      </trkpt>
      <trkpt lat="48.97126" lon="-1.07728">
        <ele>87.25</ele>
      </trkpt>
      <trkpt lat="48.97108" lon="-1.07829">
        <ele>83.49</ele>
      </trkpt>
      <trkpt lat="48.971" lon="-1.07905">
        <ele>81.14</ele>
      </trkpt>
      <trkpt lat="48.97102" lon="-1.07992">
        <ele>78.01</ele>
      </trkpt>
      <trkpt lat="48.97117" lon="-1.08111">
        <ele>73.5</ele>
      </trkpt>
      <trkpt lat="48.97119" lon="-1.08158">
        <ele>75.79</ele>
      </trkpt>
      <trkpt lat="48.97112" lon="-1.08262">
        <ele>78.72</ele>
      </trkpt>
      <trkpt lat="48.97105" lon="-1.08365">
        <ele>80.17</ele>
      </trkpt>
      <trkpt lat="48.97097" lon="-1.08446">
        <ele>80.78</ele>
      </trkpt>
      <trkpt lat="48.9708" lon="-1.08533">
        <ele>81.42</ele>
      </trkpt>
      <trkpt lat="48.97062" lon="-1.08619">
        <ele>81.48</ele>
      </trkpt>
      <trkpt lat="48.97044" lon="-1.08752">
        <ele>80.98</ele>
      </trkpt>
      <trkpt lat="48.97032" lon="-1.08864">
        <ele>80.29</ele>
      </trkpt>
      <trkpt lat="48.97025" lon="-1.0887">
        <ele>80.19</ele>
      </trkpt>
      <trkpt lat="48.9702" lon="-1.0888">
        <ele>80.2</ele>
      </trkpt>
      <trkpt lat="48.97002" lon="-1.08947">
        <ele>80.1</ele>
      </trkpt>
      <trkpt lat="48.96983" lon="-1.09013">
        <ele>78.7</ele>
      </trkpt>
      <trkpt lat="48.96971" lon="-1.09074">
        <ele>78.09</ele>
      </trkpt>
      <trkpt lat="48.96962" lon="-1.09148">
        <ele>77.32</ele>
      </trkpt>
      <trkpt lat="48.96959" lon="-1.09231">
        <ele>76.76</ele>
      </trkpt>
      <trkpt lat="48.96955" lon="-1.09314">
        <ele>77.09</ele>
      </trkpt>
      <trkpt lat="48.9695" lon="-1.09355">
        <ele>76.86</ele>
      </trkpt>
      <trkpt lat="48.96935" lon="-1.09435">
        <ele>75.68</ele>
      </trkpt>
      <trkpt lat="48.96919" lon="-1.09514">
        <ele>74.16</ele>
      </trkpt>
      <trkpt lat="48.96913" lon="-1.09558">
        <ele>72.77</ele>
      </trkpt>
      <trkpt lat="48.96912" lon="-1.09568">
        <ele>72.25</ele>
      </trkpt>
      <trkpt lat="48.96909" lon="-1.09575">
        <ele>72.9</ele>
      </trkpt>
      <trkpt lat="48.96911" lon="-1.0959">
        <ele>73</ele>
      </trkpt>
      <trkpt lat="48.96917" lon="-1.0964">
        <ele>71.9</ele>
      </trkpt>
      <trkpt lat="48.9692" lon="-1.09676">
        <ele>68.5</ele>
      </trkpt>
      <trkpt lat="48.96925" lon="-1.09697">
        <ele>67.86</ele>
      </trkpt>
      <trkpt lat="48.96929" lon="-1.09703">
        <ele>68.12</ele>
      </trkpt>
      <trkpt lat="48.96935" lon="-1.09724">
        <ele>65.6</ele>
      </trkpt>
      <trkpt lat="48.9694" lon="-1.09747">
        <ele>65.1</ele>
      </trkpt>
      <trkpt lat="48.96918" lon="-1.09856">
        <ele>70.8</ele>
      </trkpt>
      <trkpt lat="48.96925" lon="-1.0997">
        <ele>74.5</ele>
      </trkpt>
      <trkpt lat="48.96936" lon="-1.10045">
        <ele>76.8</ele>
      </trkpt>
      <trkpt lat="48.96915" lon="-1.10126">
        <ele>76.4</ele>
      </trkpt>
      <trkpt lat="48.9689" lon="-1.102">
        <ele>77.3</ele>
      </trkpt>
      <trkpt lat="48.96874" lon="-1.10277">
        <ele>77.3</ele>
      </trkpt>
      <trkpt lat="48.96917" lon="-1.10308">
        <ele>80.1</ele>
      </trkpt>
      <trkpt lat="48.96923" lon="-1.10322">
        <ele>80.6</ele>
      </trkpt>
      <trkpt lat="48.96941" lon="-1.10353">
        <ele>81</ele>
      </trkpt>
      <trkpt lat="48.9694" lon="-1.10365">
        <ele>80.38</ele>
      </trkpt>
      <trkpt lat="48.9694" lon="-1.10366">
        <ele>80.82</ele>
      </trkpt>
      <trkpt lat="48.9694" lon="-1.10367">
        <ele>80.82</ele>
      </trkpt>
      <trkpt lat="48.96926" lon="-1.10493">
        <ele>81.6</ele>
      </trkpt>
      <trkpt lat="48.96913" lon="-1.10619">
        <ele>83.61</ele>
      </trkpt>
      <trkpt lat="48.96899" lon="-1.10745">
        <ele>85.04</ele>
      </trkpt>
      <trkpt lat="48.96895" lon="-1.10831">
        <ele>86.44</ele>
      </trkpt>
      <trkpt lat="48.9689" lon="-1.10917">
        <ele>86.8</ele>
      </trkpt>
      <trkpt lat="48.96881" lon="-1.11036">
        <ele>87.34</ele>
      </trkpt>
      <trkpt lat="48.96861" lon="-1.11141">
        <ele>87.47</ele>
      </trkpt>
      <trkpt lat="48.96859" lon="-1.1123">
        <ele>86.71</ele>
      </trkpt>
      <trkpt lat="48.96857" lon="-1.11319">
        <ele>85.91</ele>
      </trkpt>
      <trkpt lat="48.96859" lon="-1.11348">
        <ele>85.23</ele>
      </trkpt>
      <trkpt lat="48.96849" lon="-1.11428">
        <ele>82.73</ele>
      </trkpt>
      <trkpt lat="48.96838" lon="-1.11507">
        <ele>81.05</ele>
      </trkpt>
      <trkpt lat="48.96808" lon="-1.11636">
        <ele>84.99</ele>
      </trkpt>
      <trkpt lat="48.96797" lon="-1.11744">
        <ele>87.38</ele>
      </trkpt>
      <trkpt lat="48.96789" lon="-1.11869">
        <ele>88.7</ele>
      </trkpt>
      <trkpt lat="48.96781" lon="-1.11994">
        <ele>89.1</ele>
      </trkpt>
      <trkpt lat="48.96781" lon="-1.11995">
        <ele>89.09</ele>
      </trkpt>
      <trkpt lat="48.96823" lon="-1.12004">
        <ele>88.87</ele>
      </trkpt>
      <trkpt lat="48.96898" lon="-1.12012">
        <ele>88.32</ele>
      </trkpt>
      <trkpt lat="48.96907" lon="-1.12005">
        <ele>88.32</ele>
      </trkpt>
      <trkpt lat="48.96912" lon="-1.11995">
        <ele>88.15</ele>
      </trkpt>
      <trkpt lat="48.96918" lon="-1.11948">
        <ele>87.97</ele>
      </trkpt>
      <trkpt lat="48.96922" lon="-1.11937">
        <ele>87.9</ele>
      </trkpt>
      <trkpt lat="48.9693" lon="-1.11931">
        <ele>87.65</ele>
      </trkpt>
      <trkpt lat="48.96993" lon="-1.11904">
        <ele>86.71</ele>
      </trkpt>
      <trkpt lat="48.97015" lon="-1.11898">
        <ele>86.59</ele>
      </trkpt>
      <trkpt lat="48.97073" lon="-1.11886">
        <ele>85.23</ele>
      </trkpt>
      <trkpt lat="48.97131" lon="-1.11873">
        <ele>82.82</ele>
      </trkpt>
      <trkpt lat="48.97214" lon="-1.1186">
        <ele>76.28</ele>
      </trkpt>
      <trkpt lat="48.97258" lon="-1.1185">
        <ele>74.27</ele>
      </trkpt>
      <trkpt lat="48.97269" lon="-1.1185">
        <ele>74.35</ele>
      </trkpt>
      <trkpt lat="48.9733" lon="-1.11866">
        <ele>78.26</ele>
      </trkpt>
      <trkpt lat="48.97404" lon="-1.11935">
        <ele>84.72</ele>
      </trkpt>
      <trkpt lat="48.97411" lon="-1.11938">
        <ele>85.33</ele>
      </trkpt>
      <trkpt lat="48.97416" lon="-1.11938">
        <ele>85.33</ele>
      </trkpt>
      <trkpt lat="48.97422" lon="-1.11934">
        <ele>85.86</ele>
      </trkpt>
      <trkpt lat="48.97431" lon="-1.11924">
        <ele>86.31</ele>
      </trkpt>
      <trkpt lat="48.97442" lon="-1.11921">
        <ele>87.3</ele>
      </trkpt>
      <trkpt lat="48.97498" lon="-1.11928">
        <ele>88.97</ele>
      </trkpt>
      <trkpt lat="48.97565" lon="-1.11925">
        <ele>92.36</ele>
      </trkpt>
      <trkpt lat="48.97631" lon="-1.11921">
        <ele>94.58</ele>
      </trkpt>
      <trkpt lat="48.97671" lon="-1.11917">
        <ele>96.05</ele>
      </trkpt>
      <trkpt lat="48.97693" lon="-1.11917">
        <ele>96.05</ele>
      </trkpt>
      <trkpt lat="48.9772" lon="-1.11924">
        <ele>97.27</ele>
      </trkpt>
      <trkpt lat="48.97779" lon="-1.11943">
        <ele>98.88</ele>
      </trkpt>
      <trkpt lat="48.97837" lon="-1.11961">
        <ele>98.92</ele>
      </trkpt>
      <trkpt lat="48.9785" lon="-1.11961">
        <ele>98.71</ele>
      </trkpt>
      <trkpt lat="48.97864" lon="-1.11951">
        <ele>97.94</ele>
      </trkpt>
      <trkpt lat="48.97906" lon="-1.11917">
        <ele>97.01</ele>
      </trkpt>
      <trkpt lat="48.97923" lon="-1.11897">
        <ele>95.85</ele>
      </trkpt>
      <trkpt lat="48.9796" lon="-1.11846">
        <ele>95.44</ele>
      </trkpt>
      <trkpt lat="48.9797" lon="-1.11839">
        <ele>95.5</ele>
      </trkpt>
      <trkpt lat="48.97979" lon="-1.11836">
        <ele>95.62</ele>
      </trkpt>
      <trkpt lat="48.97988" lon="-1.11836">
        <ele>95.78</ele>
      </trkpt>
      <trkpt lat="48.98026" lon="-1.1187">
        <ele>97.11</ele>
      </trkpt>
      <trkpt lat="48.98039" lon="-1.11877">
        <ele>97.63</ele>
      </trkpt>
      <trkpt lat="48.98052" lon="-1.11877">
        <ele>97.84</ele>
      </trkpt>
      <trkpt lat="48.98065" lon="-1.11873">
        <ele>97.98</ele>
      </trkpt>
      <trkpt lat="48.98085" lon="-1.1186">
        <ele>98.21</ele>
      </trkpt>
      <trkpt lat="48.98118" lon="-1.11834">
        <ele>98.72</ele>
      </trkpt>
      <trkpt lat="48.98153" lon="-1.11807">
        <ele>99.69</ele>
      </trkpt>
      <trkpt lat="48.98166" lon="-1.11805">
        <ele>99.69</ele>
      </trkpt>
      <trkpt lat="48.98187" lon="-1.11806">
        <ele>100.13</ele>
      </trkpt>
      <trkpt lat="48.98275" lon="-1.11819">
        <ele>102.94</ele>
      </trkpt>
      <trkpt lat="48.98327" lon="-1.11829">
        <ele>103.91</ele>
      </trkpt>
      <trkpt lat="48.98395" lon="-1.11846">
        <ele>104.77</ele>
      </trkpt>
      <trkpt lat="48.98464" lon="-1.11862">
        <ele>104.93</ele>
      </trkpt>
      <trkpt lat="48.98532" lon="-1.11879">
        <ele>104.77</ele>
      </trkpt>
      <trkpt lat="48.98595" lon="-1.11895">
        <ele>104.11</ele>
      </trkpt>
      <trkpt lat="48.98657" lon="-1.11911">
        <ele>103.83</ele>
      </trkpt>
      <trkpt lat="48.98695" lon="-1.11917">
        <ele>103.71</ele>
      </trkpt>
      <trkpt lat="48.98743" lon="-1.11917">
        <ele>103.15</ele>
      </trkpt>
      <trkpt lat="48.9879" lon="-1.11917">
        <ele>101.27</ele>
      </trkpt>
      <trkpt lat="48.98821" lon="-1.11917">
        <ele>100.67</ele>
      </trkpt>
      <trkpt lat="48.98833" lon="-1.11921">
        <ele>100.52</ele>
      </trkpt>
      <trkpt lat="48.98834" lon="-1.11914">
        <ele>100.5</ele>
      </trkpt>
      <trkpt lat="48.9884" lon="-1.12011">
        <ele>101.61</ele>
      </trkpt>
      <trkpt lat="48.98846" lon="-1.12107">
        <ele>101.57</ele>
      </trkpt>
      <trkpt lat="48.98853" lon="-1.12178">
        <ele>101.39</ele>
      </trkpt>
      <trkpt lat="48.98853" lon="-1.12202">
        <ele>101.45</ele>
      </trkpt>
      <trkpt lat="48.9885" lon="-1.12212">
        <ele>101.45</ele>
      </trkpt>
      <trkpt lat="48.98871" lon="-1.12219">
        <ele>101.32</ele>
      </trkpt>
      <trkpt lat="48.98934" lon="-1.12216">
        <ele>100.31</ele>
      </trkpt>
      <trkpt lat="48.98997" lon="-1.12212">
        <ele>99.3</ele>
      </trkpt>
      <trkpt lat="48.99015" lon="-1.12213">
        <ele>99.18</ele>
      </trkpt>
      <trkpt lat="48.99024" lon="-1.12222">
        <ele>99.18</ele>
      </trkpt>
      <trkpt lat="48.99034" lon="-1.12334">
        <ele>99.38</ele>
      </trkpt>
      <trkpt lat="48.99032" lon="-1.12388">
        <ele>99.05</ele>
      </trkpt>
      <trkpt lat="48.99038" lon="-1.1247">
        <ele>98.55</ele>
      </trkpt>
      <trkpt lat="48.99044" lon="-1.12494">
        <ele>98.02</ele>
      </trkpt>
      <trkpt lat="48.99081" lon="-1.12545">
        <ele>97.54</ele>
      </trkpt>
      <trkpt lat="48.99118" lon="-1.12596">
        <ele>97.26</ele>
      </trkpt>
      <trkpt lat="48.99174" lon="-1.1264">
        <ele>96.05</ele>
      </trkpt>
      <trkpt lat="48.9919" lon="-1.12646">
        <ele>95.76</ele>
      </trkpt>
      <trkpt lat="48.99228" lon="-1.12643">
        <ele>94.66</ele>
      </trkpt>
      <trkpt lat="48.99278" lon="-1.12646">
        <ele>93.62</ele>
      </trkpt>
      <trkpt lat="48.99303" lon="-1.12639">
        <ele>92.68</ele>
      </trkpt>
      <trkpt lat="48.99333" lon="-1.12621">
        <ele>91.87</ele>
      </trkpt>
      <trkpt lat="48.99344" lon="-1.12619">
        <ele>91.78</ele>
      </trkpt>
      <trkpt lat="48.99371" lon="-1.12626">
        <ele>91.71</ele>
      </trkpt>
      <trkpt lat="48.99457" lon="-1.12614">
        <ele>89.18</ele>
      </trkpt>
      <trkpt lat="48.99455" lon="-1.12615">
        <ele>89.24</ele>
      </trkpt>
      <trkpt lat="48.99483" lon="-1.12595">
        <ele>87.17</ele>
      </trkpt>
      <trkpt lat="48.99545" lon="-1.12585">
        <ele>85.11</ele>
      </trkpt>
      <trkpt lat="48.99591" lon="-1.12548">
        <ele>81.92</ele>
      </trkpt>
      <trkpt lat="48.99646" lon="-1.12489">
        <ele>77.93</ele>
      </trkpt>
      <trkpt lat="48.99701" lon="-1.12429">
        <ele>71.58</ele>
      </trkpt>
      <trkpt lat="48.99713" lon="-1.12399">
        <ele>69.73</ele>
      </trkpt>
      <trkpt lat="48.99716" lon="-1.12354">
        <ele>68.26</ele>
      </trkpt>
      <trkpt lat="48.99769" lon="-1.12341">
        <ele>67.04</ele>
      </trkpt>
      <trkpt lat="48.99785" lon="-1.12348">
        <ele>67.77</ele>
      </trkpt>
      <trkpt lat="48.99814" lon="-1.12395">
        <ele>68.35</ele>
      </trkpt>
      <trkpt lat="48.99829" lon="-1.12409">
        <ele>68.7</ele>
      </trkpt>
      <trkpt lat="48.99839" lon="-1.12412">
        <ele>69.47</ele>
      </trkpt>
      <trkpt lat="48.99858" lon="-1.12412">
        <ele>69.98</ele>
      </trkpt>
      <trkpt lat="48.99864" lon="-1.12416">
        <ele>70.82</ele>
      </trkpt>
      <trkpt lat="48.99875" lon="-1.12409">
        <ele>71.7</ele>
      </trkpt>
      <trkpt lat="48.9992" lon="-1.12399">
        <ele>75.77</ele>
      </trkpt>
      <trkpt lat="48.99936" lon="-1.12397">
        <ele>75.77</ele>
      </trkpt>
      <trkpt lat="48.99977" lon="-1.12395">
        <ele>78.69</ele>
      </trkpt>
      <trkpt lat="48.9999" lon="-1.12389">
        <ele>79.52</ele>
      </trkpt>
      <trkpt lat="49.00003" lon="-1.12372">
        <ele>80.4</ele>
      </trkpt>
      <trkpt lat="49.00013" lon="-1.12341">
        <ele>81.46</ele>
      </trkpt>
      <trkpt lat="49.00025" lon="-1.12267">
        <ele>84.29</ele>
      </trkpt>
      <trkpt lat="49.00037" lon="-1.12192">
        <ele>86.42</ele>
      </trkpt>
      <trkpt lat="49.00044" lon="-1.12141">
        <ele>86.88</ele>
      </trkpt>
      <trkpt lat="49.00045" lon="-1.12092">
        <ele>86.68</ele>
      </trkpt>
      <trkpt lat="49.0004" lon="-1.11975">
        <ele>85.79</ele>
      </trkpt>
      <trkpt lat="49.00041" lon="-1.11927">
        <ele>85.32</ele>
      </trkpt>
      <trkpt lat="49.00045" lon="-1.1188">
        <ele>85.06</ele>
      </trkpt>
      <trkpt lat="49.00049" lon="-1.11859">
        <ele>85.13</ele>
      </trkpt>
      <trkpt lat="49.00053" lon="-1.1186">
        <ele>85.23</ele>
      </trkpt>
      <trkpt lat="49.00057" lon="-1.11855">
        <ele>85.23</ele>
      </trkpt>
      <trkpt lat="49.00058" lon="-1.11849">
        <ele>85.23</ele>
      </trkpt>
      <trkpt lat="49.00055" lon="-1.1184">
        <ele>85.1</ele>
      </trkpt>
      <trkpt lat="49.00065" lon="-1.11791">
        <ele>84.9</ele>
      </trkpt>
      <trkpt lat="49.00081" lon="-1.11798">
        <ele>85.15</ele>
      </trkpt>
      <trkpt lat="49.00082" lon="-1.11798">
        <ele>85.17</ele>
      </trkpt>
      <trkpt lat="49.00081" lon="-1.11798">
        <ele>85.17</ele>
      </trkpt>
      <trkpt lat="49.00109" lon="-1.11809">
        <ele>85.7</ele>
      </trkpt>
      <trkpt lat="49.00187" lon="-1.11821">
        <ele>88.86</ele>
      </trkpt>
      <trkpt lat="49.00264" lon="-1.11832">
        <ele>91.34</ele>
      </trkpt>
      <trkpt lat="49.00287" lon="-1.11829">
        <ele>91.85</ele>
      </trkpt>
      <trkpt lat="49.00311" lon="-1.11819">
        <ele>91.95</ele>
      </trkpt>
      <trkpt lat="49.00323" lon="-1.11821">
        <ele>91.93</ele>
      </trkpt>
      <trkpt lat="49.00371" lon="-1.11848">
        <ele>92.57</ele>
      </trkpt>
      <trkpt lat="49.00371" lon="-1.11851">
        <ele>92.65</ele>
      </trkpt>
      <trkpt lat="49.00381" lon="-1.11813">
        <ele>92.59</ele>
      </trkpt>
      <trkpt lat="49.00426" lon="-1.11704">
        <ele>91.42</ele>
      </trkpt>
      <trkpt lat="49.0046" lon="-1.11636">
        <ele>90.41</ele>
      </trkpt>
      <trkpt lat="49.00479" lon="-1.11612">
        <ele>90.56</ele>
      </trkpt>
      <trkpt lat="49.00518" lon="-1.11575">
        <ele>91.31</ele>
      </trkpt>
      <trkpt lat="49.00556" lon="-1.11538">
        <ele>91.23</ele>
      </trkpt>
      <trkpt lat="49.00609" lon="-1.11494">
        <ele>89.04</ele>
      </trkpt>
      <trkpt lat="49.00681" lon="-1.11446">
        <ele>83.02</ele>
      </trkpt>
      <trkpt lat="49.00731" lon="-1.11436">
        <ele>80.25</ele>
      </trkpt>
      <trkpt lat="49.0075" lon="-1.11426">
        <ele>79.51</ele>
      </trkpt>
      <trkpt lat="49.00815" lon="-1.11372">
        <ele>73.99</ele>
      </trkpt>
      <trkpt lat="49.00851" lon="-1.11335">
        <ele>75.27</ele>
      </trkpt>
      <trkpt lat="49.00861" lon="-1.11334">
        <ele>76.38</ele>
      </trkpt>
      <trkpt lat="49.00906" lon="-1.11338">
        <ele>80.28</ele>
      </trkpt>
      <trkpt lat="49.00923" lon="-1.11327">
        <ele>81.66</ele>
      </trkpt>
      <trkpt lat="49.00932" lon="-1.11321">
        <ele>82.71</ele>
      </trkpt>
      <trkpt lat="49.0097" lon="-1.11274">
        <ele>89.59</ele>
      </trkpt>
      <trkpt lat="49.01" lon="-1.11244">
        <ele>92.75</ele>
      </trkpt>
      <trkpt lat="49.01037" lon="-1.11215">
        <ele>95.66</ele>
      </trkpt>
      <trkpt lat="49.01075" lon="-1.11149">
        <ele>96.96</ele>
      </trkpt>
      <trkpt lat="49.0113" lon="-1.11257">
        <ele>94.31</ele>
      </trkpt>
      <trkpt lat="49.01154" lon="-1.11317">
        <ele>91.69</ele>
      </trkpt>
      <trkpt lat="49.01193" lon="-1.11436">
        <ele>84.83</ele>
      </trkpt>
      <trkpt lat="49.012" lon="-1.11453">
        <ele>84.63</ele>
      </trkpt>
      <trkpt lat="49.01209" lon="-1.11466">
        <ele>84.75</ele>
      </trkpt>
      <trkpt lat="49.01217" lon="-1.1147">
        <ele>84.96</ele>
      </trkpt>
      <trkpt lat="49.01261" lon="-1.11463">
        <ele>87.42</ele>
      </trkpt>
      <trkpt lat="49.01287" lon="-1.11463">
        <ele>88.81</ele>
      </trkpt>
      <trkpt lat="49.01296" lon="-1.11466">
        <ele>89.32</ele>
      </trkpt>
      <trkpt lat="49.01325" lon="-1.11466">
        <ele>90.61</ele>
      </trkpt>
      <trkpt lat="49.01354" lon="-1.11456">
        <ele>92.29</ele>
      </trkpt>
      <trkpt lat="49.01374" lon="-1.11453">
        <ele>94.06</ele>
      </trkpt>
      <trkpt lat="49.01376" lon="-1.11423">
        <ele>96.13</ele>
      </trkpt>
      <trkpt lat="49.01373" lon="-1.11409">
        <ele>96.72</ele>
      </trkpt>
      <trkpt lat="49.01362" lon="-1.11388">
        <ele>97.35</ele>
      </trkpt>
      <trkpt lat="49.01357" lon="-1.11369">
        <ele>97.69</ele>
      </trkpt>
      <trkpt lat="49.01344" lon="-1.11243">
        <ele>102.44</ele>
      </trkpt>
      <trkpt lat="49.01339" lon="-1.11145">
        <ele>106.48</ele>
      </trkpt>
      <trkpt lat="49.01333" lon="-1.11046">
        <ele>105.38</ele>
      </trkpt>
      <trkpt lat="49.01338" lon="-1.11033">
        <ele>105.54</ele>
      </trkpt>
      <trkpt lat="49.01348" lon="-1.11023">
        <ele>106.13</ele>
      </trkpt>
      <trkpt lat="49.01428" lon="-1.11006">
        <ele>111.14</ele>
      </trkpt>
      <trkpt lat="49.01507" lon="-1.10989">
        <ele>116.47</ele>
      </trkpt>
      <trkpt lat="49.01581" lon="-1.10961">
        <ele>120.63</ele>
      </trkpt>
      <trkpt lat="49.01583" lon="-1.10961">
        <ele>120.69</ele>
      </trkpt>
      <trkpt lat="49.01609" lon="-1.1106">
        <ele>121.16</ele>
      </trkpt>
      <trkpt lat="49.01613" lon="-1.1108">
        <ele>121.45</ele>
      </trkpt>
      <trkpt lat="49.0161" lon="-1.11107">
        <ele>121.47</ele>
      </trkpt>
      <trkpt lat="49.01575" lon="-1.11175">
        <ele>120.63</ele>
      </trkpt>
      <trkpt lat="49.01577" lon="-1.11216">
        <ele>120.3</ele>
      </trkpt>
      <trkpt lat="49.01585" lon="-1.11256">
        <ele>120.11</ele>
      </trkpt>
      <trkpt lat="49.01617" lon="-1.11382">
        <ele>119.9</ele>
      </trkpt>
      <trkpt lat="49.01623" lon="-1.11439">
        <ele>119.06</ele>
      </trkpt>
      <trkpt lat="49.01639" lon="-1.11561">
        <ele>115.05</ele>
      </trkpt>
      <trkpt lat="49.01655" lon="-1.11683">
        <ele>112.64</ele>
      </trkpt>
      <trkpt lat="49.01659" lon="-1.11791">
        <ele>104.52</ele>
      </trkpt>
      <trkpt lat="49.01609" lon="-1.118">
        <ele>100.97</ele>
      </trkpt>
      <trkpt lat="49.01559" lon="-1.11809">
        <ele>98.06</ele>
      </trkpt>
      <trkpt lat="49.01501" lon="-1.11839">
        <ele>95.75</ele>
      </trkpt>
      <trkpt lat="49.01458" lon="-1.11839">
        <ele>93.29</ele>
      </trkpt>
      <trkpt lat="49.01425" lon="-1.11843">
        <ele>91.66</ele>
      </trkpt>
      <trkpt lat="49.01406" lon="-1.11839">
        <ele>90.71</ele>
      </trkpt>
      <trkpt lat="49.01351" lon="-1.11819">
        <ele>84.66</ele>
      </trkpt>
      <trkpt lat="49.01333" lon="-1.11813">
        <ele>84.66</ele>
      </trkpt>
      <trkpt lat="49.01311" lon="-1.11819">
        <ele>82.07</ele>
      </trkpt>
      <trkpt lat="49.01264" lon="-1.11845">
        <ele>79.29</ele>
      </trkpt>
      <trkpt lat="49.01255" lon="-1.1186">
        <ele>79.1</ele>
      </trkpt>
      <trkpt lat="49.01252" lon="-1.11879">
        <ele>79.2</ele>
      </trkpt>
      <trkpt lat="49.01252" lon="-1.11877">
        <ele>79.19</ele>
      </trkpt>
      <trkpt lat="49.01255" lon="-1.11921">
        <ele>80.01</ele>
      </trkpt>
      <trkpt lat="49.01269" lon="-1.12006">
        <ele>80.06</ele>
      </trkpt>
      <trkpt lat="49.01282" lon="-1.1209">
        <ele>81.04</ele>
      </trkpt>
      <trkpt lat="49.0129" lon="-1.12115">
        <ele>81.52</ele>
      </trkpt>
      <trkpt lat="49.01323" lon="-1.12213">
        <ele>83.62</ele>
      </trkpt>
      <trkpt lat="49.01356" lon="-1.1231">
        <ele>87.65</ele>
      </trkpt>
      <trkpt lat="49.01407" lon="-1.12412">
        <ele>92.72</ele>
      </trkpt>
      <trkpt lat="49.01426" lon="-1.12466">
        <ele>89.48</ele>
      </trkpt>
      <trkpt lat="49.01441" lon="-1.12541">
        <ele>88.1</ele>
      </trkpt>
      <trkpt lat="49.01445" lon="-1.12554">
        <ele>88.45</ele>
      </trkpt>
      <trkpt lat="49.01455" lon="-1.12564">
        <ele>89.14</ele>
      </trkpt>
      <trkpt lat="49.01472" lon="-1.12622">
        <ele>90.24</ele>
      </trkpt>
      <trkpt lat="49.01479" lon="-1.12718">
        <ele>89</ele>
      </trkpt>
      <trkpt lat="49.01477" lon="-1.12736">
        <ele>88.91</ele>
      </trkpt>
      <trkpt lat="49.01482" lon="-1.12741">
        <ele>89.15</ele>
      </trkpt>
      <trkpt lat="49.01502" lon="-1.12778">
        <ele>90.79</ele>
      </trkpt>
      <trkpt lat="49.01507" lon="-1.12782">
        <ele>96.46</ele>
      </trkpt>
      <trkpt lat="49.01505" lon="-1.12789">
        <ele>96.3</ele>
      </trkpt>
      <trkpt lat="49.01516" lon="-1.12825">
        <ele>96.69</ele>
      </trkpt>
      <trkpt lat="49.01524" lon="-1.12824">
        <ele>90.85</ele>
      </trkpt>
      <trkpt lat="49.01528" lon="-1.12907">
        <ele>89.35</ele>
      </trkpt>
      <trkpt lat="49.01558" lon="-1.13012">
        <ele>90.33</ele>
      </trkpt>
      <trkpt lat="49.01573" lon="-1.13056">
        <ele>91.1</ele>
      </trkpt>
      <trkpt lat="49.01611" lon="-1.13117">
        <ele>93.93</ele>
      </trkpt>
      <trkpt lat="49.01609" lon="-1.13115">
        <ele>93.93</ele>
      </trkpt>
      <trkpt lat="49.01617" lon="-1.13127">
        <ele>94.55</ele>
      </trkpt>
      <trkpt lat="49.01618" lon="-1.13126">
        <ele>94.55</ele>
      </trkpt>
      <trkpt lat="49.01615" lon="-1.13125">
        <ele>94.47</ele>
      </trkpt>
      <trkpt lat="49.01617" lon="-1.13127">
        <ele>94.62</ele>
      </trkpt>
      <trkpt lat="49.0164" lon="-1.13124">
        <ele>94.77</ele>
      </trkpt>
      <trkpt lat="49.01647" lon="-1.13148">
        <ele>95.55</ele>
      </trkpt>
      <trkpt lat="49.01698" lon="-1.13151">
        <ele>98.93</ele>
      </trkpt>
      <trkpt lat="49.01786" lon="-1.13128">
        <ele>101.23</ele>
      </trkpt>
      <trkpt lat="49.0181" lon="-1.13145">
        <ele>102.51</ele>
      </trkpt>
      <trkpt lat="49.01856" lon="-1.13202">
        <ele>106.18</ele>
      </trkpt>
      <trkpt lat="49.01901" lon="-1.13259">
        <ele>108.84</ele>
      </trkpt>
      <trkpt lat="49.01911" lon="-1.13264">
        <ele>109.56</ele>
      </trkpt>
      <trkpt lat="49.01982" lon="-1.13277">
        <ele>112.55</ele>
      </trkpt>
      <trkpt lat="49.02052" lon="-1.1329">
        <ele>115.98</ele>
      </trkpt>
      <trkpt lat="49.02063" lon="-1.13294">
        <ele>116.66</ele>
      </trkpt>
      <trkpt lat="49.02114" lon="-1.13301">
        <ele>120.56</ele>
      </trkpt>
      <trkpt lat="49.02165" lon="-1.13307">
        <ele>121.79</ele>
      </trkpt>
      <trkpt lat="49.02192" lon="-1.13314">
        <ele>122.74</ele>
      </trkpt>
      <trkpt lat="49.02269" lon="-1.13355">
        <ele>125.96</ele>
      </trkpt>
      <trkpt lat="49.02321" lon="-1.13375">
        <ele>130.39</ele>
      </trkpt>
      <trkpt lat="49.02358" lon="-1.13382">
        <ele>132.18</ele>
      </trkpt>
      <trkpt lat="49.02417" lon="-1.13383">
        <ele>136.66</ele>
      </trkpt>
      <trkpt lat="49.02475" lon="-1.13384">
        <ele>141.64</ele>
      </trkpt>
      <trkpt lat="49.02546" lon="-1.13376">
        <ele>144.14</ele>
      </trkpt>
      <trkpt lat="49.02616" lon="-1.13368">
        <ele>148.64</ele>
      </trkpt>
      <trkpt lat="49.02625" lon="-1.1336">
        <ele>149.42</ele>
      </trkpt>
      <trkpt lat="49.02632" lon="-1.13371">
        <ele>149.31</ele>
      </trkpt>
      <trkpt lat="49.02716" lon="-1.13375">
        <ele>148.42</ele>
      </trkpt>
      <trkpt lat="49.02756" lon="-1.13388">
        <ele>147.08</ele>
      </trkpt>
      <trkpt lat="49.02794" lon="-1.13415">
        <ele>144.81</ele>
      </trkpt>
      <trkpt lat="49.02866" lon="-1.13487">
        <ele>142.88</ele>
      </trkpt>
      <trkpt lat="49.02937" lon="-1.13558">
        <ele>143.25</ele>
      </trkpt>
      <trkpt lat="49.02939" lon="-1.13541">
        <ele>143.06</ele>
      </trkpt>
      <trkpt lat="49.02938" lon="-1.13449">
        <ele>143.37</ele>
      </trkpt>
      <trkpt lat="49.02941" lon="-1.13363">
        <ele>143.95</ele>
      </trkpt>
      <trkpt lat="49.02944" lon="-1.13276">
        <ele>145.05</ele>
      </trkpt>
      <trkpt lat="49.02956" lon="-1.13171">
        <ele>147.68</ele>
      </trkpt>
      <trkpt lat="49.02956" lon="-1.13104">
        <ele>148.8</ele>
      </trkpt>
      <trkpt lat="49.02953" lon="-1.13021">
        <ele>151.38</ele>
      </trkpt>
      <trkpt lat="49.0295" lon="-1.12937">
        <ele>152.87</ele>
      </trkpt>
      <trkpt lat="49.02953" lon="-1.12906">
        <ele>154.86</ele>
      </trkpt>
      <trkpt lat="49.0296" lon="-1.1288">
        <ele>155.23</ele>
      </trkpt>
      <trkpt lat="49.02989" lon="-1.12809">
        <ele>155.91</ele>
      </trkpt>
      <trkpt lat="49.03017" lon="-1.12737">
        <ele>154.74</ele>
      </trkpt>
      <trkpt lat="49.03066" lon="-1.12637">
        <ele>153.34</ele>
      </trkpt>
      <trkpt lat="49.03114" lon="-1.12537">
        <ele>152.52</ele>
      </trkpt>
      <trkpt lat="49.03157" lon="-1.12576">
        <ele>151.49</ele>
      </trkpt>
      <trkpt lat="49.032" lon="-1.12615">
        <ele>150.65</ele>
      </trkpt>
      <trkpt lat="49.03238" lon="-1.12632">
        <ele>149.12</ele>
      </trkpt>
      <trkpt lat="49.03297" lon="-1.12653">
        <ele>143.98</ele>
      </trkpt>
      <trkpt lat="49.03355" lon="-1.12656">
        <ele>140.12</ele>
      </trkpt>
      <trkpt lat="49.03408" lon="-1.12687">
        <ele>136.81</ele>
      </trkpt>
      <trkpt lat="49.03456" lon="-1.12706">
        <ele>135.18</ele>
      </trkpt>
      <trkpt lat="49.03504" lon="-1.12724">
        <ele>133.55</ele>
      </trkpt>
      <trkpt lat="49.03505" lon="-1.12724">
        <ele>133.53</ele>
      </trkpt>
      <trkpt lat="49.03529" lon="-1.12622">
        <ele>133.26</ele>
      </trkpt>
      <trkpt lat="49.03538" lon="-1.12599">
        <ele>133.36</ele>
      </trkpt>
      <trkpt lat="49.035" lon="-1.12521">
        <ele>135.34</ele>
      </trkpt>
      <trkpt lat="49.03456" lon="-1.12409">
        <ele>141.55</ele>
      </trkpt>
      <trkpt lat="49.0341" lon="-1.12331">
        <ele>145.09</ele>
      </trkpt>
      <trkpt lat="49.03363" lon="-1.12253">
        <ele>148.46</ele>
      </trkpt>
      <trkpt lat="49.03284" lon="-1.12194">
        <ele>150.25</ele>
      </trkpt>
      <trkpt lat="49.03315" lon="-1.12095">
        <ele>148.74</ele>
      </trkpt>
      <trkpt lat="49.03345" lon="-1.11996">
        <ele>146.67</ele>
      </trkpt>
      <trkpt lat="49.03376" lon="-1.11897">
        <ele>145.86</ele>
      </trkpt>
      <trkpt lat="49.03406" lon="-1.11846">
        <ele>145.93</ele>
      </trkpt>
      <trkpt lat="49.03354" lon="-1.11782">
        <ele>148.19</ele>
      </trkpt>
      <trkpt lat="49.03302" lon="-1.11718">
        <ele>146.12</ele>
      </trkpt>
      <trkpt lat="49.03291" lon="-1.11711">
        <ele>146.12</ele>
      </trkpt>
      <trkpt lat="49.03217" lon="-1.11713">
        <ele>140.66</ele>
      </trkpt>
      <trkpt lat="49.032" lon="-1.1171">
        <ele>139.06</ele>
      </trkpt>
      <trkpt lat="49.03163" lon="-1.11694">
        <ele>137.2</ele>
      </trkpt>
      <trkpt lat="49.03113" lon="-1.1166">
        <ele>134.76</ele>
      </trkpt>
      <trkpt lat="49.03087" lon="-1.1166">
        <ele>134.06</ele>
      </trkpt>
      <trkpt lat="49.03065" lon="-1.11673">
        <ele>133.43</ele>
      </trkpt>
      <trkpt lat="49.03047" lon="-1.11697">
        <ele>132.01</ele>
      </trkpt>
      <trkpt lat="49.03036" lon="-1.11691">
        <ele>130.89</ele>
      </trkpt>
      <trkpt lat="49.03013" lon="-1.11654">
        <ele>129.52</ele>
      </trkpt>
      <trkpt lat="49.02991" lon="-1.11622">
        <ele>127.92</ele>
      </trkpt>
      <trkpt lat="49.02966" lon="-1.11595">
        <ele>127.38</ele>
      </trkpt>
      <trkpt lat="49.02934" lon="-1.11572">
        <ele>125.95</ele>
      </trkpt>
      <trkpt lat="49.02898" lon="-1.11559">
        <ele>124.93</ele>
      </trkpt>
      <trkpt lat="49.02884" lon="-1.11486">
        <ele>124.13</ele>
      </trkpt>
      <trkpt lat="49.0287" lon="-1.11413">
        <ele>123.47</ele>
      </trkpt>
      <trkpt lat="49.02854" lon="-1.11348">
        <ele>122.12</ele>
      </trkpt>
      <trkpt lat="49.02829" lon="-1.1126">
        <ele>119.3</ele>
      </trkpt>
      <trkpt lat="49.02851" lon="-1.11202">
        <ele>118.03</ele>
      </trkpt>
      <trkpt lat="49.02853" lon="-1.11179">
        <ele>118.03</ele>
      </trkpt>
      <trkpt lat="49.02847" lon="-1.11158">
        <ele>116.84</ele>
      </trkpt>
      <trkpt lat="49.02826" lon="-1.11107">
        <ele>115.5</ele>
      </trkpt>
      <trkpt lat="49.02785" lon="-1.11038">
        <ele>113.06</ele>
      </trkpt>
      <trkpt lat="49.02743" lon="-1.10968">
        <ele>112.45</ele>
      </trkpt>
      <trkpt lat="49.02723" lon="-1.10928">
        <ele>111.73</ele>
      </trkpt>
      <trkpt lat="49.02697" lon="-1.10851">
        <ele>111.42</ele>
      </trkpt>
      <trkpt lat="49.02696" lon="-1.10852">
        <ele>111.43</ele>
      </trkpt>
      <trkpt lat="49.02649" lon="-1.10878">
        <ele>111.62</ele>
      </trkpt>
      <trkpt lat="49.02602" lon="-1.10904">
        <ele>111.4</ele>
      </trkpt>
      <trkpt lat="49.02536" lon="-1.10939">
        <ele>109.02</ele>
      </trkpt>
      <trkpt lat="49.0247" lon="-1.10973">
        <ele>105.56</ele>
      </trkpt>
      <trkpt lat="49.0242" lon="-1.11002">
        <ele>106.17</ele>
      </trkpt>
      <trkpt lat="49.02414" lon="-1.10995">
        <ele>106.33</ele>
      </trkpt>
      <trkpt lat="49.0241" lon="-1.10985">
        <ele>106.13</ele>
      </trkpt>
      <trkpt lat="49.02402" lon="-1.10921">
        <ele>104.03</ele>
      </trkpt>
      <trkpt lat="49.02395" lon="-1.109">
        <ele>103.75</ele>
      </trkpt>
      <trkpt lat="49.02384" lon="-1.10883">
        <ele>104.05</ele>
      </trkpt>
      <trkpt lat="49.02369" lon="-1.10833">
        <ele>106.05</ele>
      </trkpt>
      <trkpt lat="49.02362" lon="-1.10826">
        <ele>106.66</ele>
      </trkpt>
      <trkpt lat="49.02351" lon="-1.10819">
        <ele>107.64</ele>
      </trkpt>
      <trkpt lat="49.02281" lon="-1.10796">
        <ele>110.11</ele>
      </trkpt>
      <trkpt lat="49.0221" lon="-1.10774">
        <ele>109.53</ele>
      </trkpt>
      <trkpt lat="49.0214" lon="-1.10751">
        <ele>108.15</ele>
      </trkpt>
      <trkpt lat="49.02089" lon="-1.10772">
        <ele>108.32</ele>
      </trkpt>
      <trkpt lat="49.02084" lon="-1.10769">
        <ele>108.32</ele>
      </trkpt>
      <trkpt lat="49.02053" lon="-1.10694">
        <ele>107.98</ele>
      </trkpt>
      <trkpt lat="49.02045" lon="-1.10687">
        <ele>108.02</ele>
      </trkpt>
      <trkpt lat="49.02019" lon="-1.10697">
        <ele>108.65</ele>
      </trkpt>
      <trkpt lat="49.01975" lon="-1.10687">
        <ele>111.01</ele>
      </trkpt>
      <trkpt lat="49.01967" lon="-1.1068">
        <ele>111.01</ele>
      </trkpt>
      <trkpt lat="49.01917" lon="-1.10619">
        <ele>112.77</ele>
      </trkpt>
      <trkpt lat="49.0189" lon="-1.10653">
        <ele>113.7</ele>
      </trkpt>
      <trkpt lat="49.01876" lon="-1.10673">
        <ele>114.58</ele>
      </trkpt>
      <trkpt lat="49.01833" lon="-1.10762">
        <ele>116.96</ele>
      </trkpt>
      <trkpt lat="49.01803" lon="-1.10814">
        <ele>123.43</ele>
      </trkpt>
      <trkpt lat="49.01772" lon="-1.10866">
        <ele>125.96</ele>
      </trkpt>
      <trkpt lat="49.01757" lon="-1.10846">
        <ele>125.36</ele>
      </trkpt>
      <trkpt lat="49.01712" lon="-1.10797">
        <ele>123.96</ele>
      </trkpt>
      <trkpt lat="49.01667" lon="-1.10747">
        <ele>122.05</ele>
      </trkpt>
      <trkpt lat="49.01629" lon="-1.10689">
        <ele>120.43</ele>
      </trkpt>
      <trkpt lat="49.01629" lon="-1.10689">
        <ele>120.43</ele>
      </trkpt>
      <trkpt lat="49.0162" lon="-1.10674">
        <ele>120.16</ele>
      </trkpt>
      <trkpt lat="49.01598" lon="-1.10622">
        <ele>119.62</ele>
      </trkpt>
      <trkpt lat="49.01575" lon="-1.10551">
        <ele>119.91</ele>
      </trkpt>
      <trkpt lat="49.0154" lon="-1.10476">
        <ele>121.45</ele>
      </trkpt>
      <trkpt lat="49.01528" lon="-1.10446">
        <ele>122.26</ele>
      </trkpt>
      <trkpt lat="49.01512" lon="-1.10406">
        <ele>123.45</ele>
      </trkpt>
      <trkpt lat="49.01481" lon="-1.10314">
        <ele>124.3</ele>
      </trkpt>
      <trkpt lat="49.01453" lon="-1.10206">
        <ele>122.9</ele>
      </trkpt>
      <trkpt lat="49.01425" lon="-1.10097">
        <ele>122.54</ele>
      </trkpt>
      <trkpt lat="49.01413" lon="-1.10002">
        <ele>121.75</ele>
      </trkpt>
      <trkpt lat="49.01414" lon="-1.09993">
        <ele>121.75</ele>
      </trkpt>
      <trkpt lat="49.01407" lon="-1.09986">
        <ele>122.56</ele>
      </trkpt>
      <trkpt lat="49.014" lon="-1.09976">
        <ele>123.06</ele>
      </trkpt>
      <trkpt lat="49.01393" lon="-1.09962">
        <ele>123.06</ele>
      </trkpt>
      <trkpt lat="49.01373" lon="-1.09898">
        <ele>125.86</ele>
      </trkpt>
      <trkpt lat="49.01352" lon="-1.09833">
        <ele>128.37</ele>
      </trkpt>
      <trkpt lat="49.0133" lon="-1.09779">
        <ele>130.36</ele>
      </trkpt>
      <trkpt lat="49.01322" lon="-1.09765">
        <ele>130.36</ele>
      </trkpt>
      <trkpt lat="49.01314" lon="-1.0976">
        <ele>130.81</ele>
      </trkpt>
      <trkpt lat="49.01313" lon="-1.09759">
        <ele>130.81</ele>
      </trkpt>
      <trkpt lat="49.01289" lon="-1.09742">
        <ele>131.68</ele>
      </trkpt>
      <trkpt lat="49.01289" lon="-1.0963">
        <ele>131.79</ele>
      </trkpt>
      <trkpt lat="49.01288" lon="-1.09518">
        <ele>129.98</ele>
      </trkpt>
      <trkpt lat="49.01285" lon="-1.09494">
        <ele>129.71</ele>
      </trkpt>
      <trkpt lat="49.01259" lon="-1.09469">
        <ele>128.4</ele>
      </trkpt>
      <trkpt lat="49.01201" lon="-1.09464">
        <ele>125.92</ele>
      </trkpt>
      <trkpt lat="49.01177" lon="-1.0946">
        <ele>124.26</ele>
      </trkpt>
      <trkpt lat="49.01164" lon="-1.0945">
        <ele>122.72</ele>
      </trkpt>
      <trkpt lat="49.01114" lon="-1.09399">
        <ele>118.06</ele>
      </trkpt>
      <trkpt lat="49.01095" lon="-1.09385">
        <ele>116.17</ele>
      </trkpt>
      <trkpt lat="49.01048" lon="-1.09358">
        <ele>115.24</ele>
      </trkpt>
      <trkpt lat="49.01043" lon="-1.09351">
        <ele>115.11</ele>
      </trkpt>
      <trkpt lat="49.01043" lon="-1.09328">
        <ele>114.76</ele>
      </trkpt>
      <trkpt lat="49.01066" lon="-1.09256">
        <ele>111.73</ele>
      </trkpt>
      <trkpt lat="49.01" lon="-1.09223">
        <ele>114.04</ele>
      </trkpt>
      <trkpt lat="49.00943" lon="-1.09201">
        <ele>113.65</ele>
      </trkpt>
      <trkpt lat="49.00943" lon="-1.09202">
        <ele>113.7</ele>
      </trkpt>
      <trkpt lat="49.00931" lon="-1.0925">
        <ele>115.86</ele>
      </trkpt>
      <trkpt lat="49.00922" lon="-1.09319">
        <ele>115.82</ele>
      </trkpt>
      <trkpt lat="49.00913" lon="-1.09388">
        <ele>113.41</ele>
      </trkpt>
      <trkpt lat="49.00913" lon="-1.09387">
        <ele>113.41</ele>
      </trkpt>
      <trkpt lat="49.0091" lon="-1.09457">
        <ele>109.88</ele>
      </trkpt>
      <trkpt lat="49.00908" lon="-1.09545">
        <ele>106.96</ele>
      </trkpt>
      <trkpt lat="49.00911" lon="-1.09616">
        <ele>106.37</ele>
      </trkpt>
      <trkpt lat="49.00913" lon="-1.09686">
        <ele>106.69</ele>
      </trkpt>
      <trkpt lat="49.00905" lon="-1.09751">
        <ele>106.92</ele>
      </trkpt>
      <trkpt lat="49.00896" lon="-1.09856">
        <ele>103.8</ele>
      </trkpt>
      <trkpt lat="49.00892" lon="-1.09975">
        <ele>99.38</ele>
      </trkpt>
      <trkpt lat="49.00894" lon="-1.10104">
        <ele>94.58</ele>
      </trkpt>
      <trkpt lat="49.00896" lon="-1.10233">
        <ele>88.26</ele>
      </trkpt>
      <trkpt lat="49.00894" lon="-1.10255">
        <ele>88.28</ele>
      </trkpt>
      <trkpt lat="49.00893" lon="-1.10254">
        <ele>88.24</ele>
      </trkpt>
      <trkpt lat="49.00825" lon="-1.10255">
        <ele>89.02</ele>
      </trkpt>
      <trkpt lat="49.00757" lon="-1.10256">
        <ele>91.41</ele>
      </trkpt>
      <trkpt lat="49.00724" lon="-1.10263">
        <ele>91.78</ele>
      </trkpt>
      <trkpt lat="49.00676" lon="-1.10264">
        <ele>92.5</ele>
      </trkpt>
      <trkpt lat="49.00684" lon="-1.10192">
        <ele>94.09</ele>
      </trkpt>
      <trkpt lat="49.00685" lon="-1.10118">
        <ele>94.86</ele>
      </trkpt>
      <trkpt lat="49.00626" lon="-1.10101">
        <ele>93.68</ele>
      </trkpt>
      <trkpt lat="49.00566" lon="-1.10084">
        <ele>92.13</ele>
      </trkpt>
      <trkpt lat="49.00508" lon="-1.09998">
        <ele>88.21</ele>
      </trkpt>
      <trkpt lat="49.00497" lon="-1.09934">
        <ele>89.06</ele>
      </trkpt>
      <trkpt lat="49.00501" lon="-1.09833">
        <ele>91.35</ele>
      </trkpt>
      <trkpt lat="49.00505" lon="-1.0979">
        <ele>92.59</ele>
      </trkpt>
      <trkpt lat="49.00449" lon="-1.09807">
        <ele>91.74</ele>
      </trkpt>
      <trkpt lat="49.00393" lon="-1.09823">
        <ele>89.83</ele>
      </trkpt>
      <trkpt lat="49.00337" lon="-1.0986">
        <ele>87.67</ele>
      </trkpt>
      <trkpt lat="49.00281" lon="-1.09897">
        <ele>86.25</ele>
      </trkpt>
      <trkpt lat="49.00241" lon="-1.09921">
        <ele>84.13</ele>
      </trkpt>
      <trkpt lat="49.00188" lon="-1.09947">
        <ele>78.12</ele>
      </trkpt>
      <trkpt lat="49.00135" lon="-1.09972">
        <ele>73.06</ele>
      </trkpt>
      <trkpt lat="49.00087" lon="-1.10009">
        <ele>67.19</ele>
      </trkpt>
      <trkpt lat="49.00039" lon="-1.10046">
        <ele>61.97</ele>
      </trkpt>
      <trkpt lat="49.00022" lon="-1.10104">
        <ele>60.79</ele>
      </trkpt>
      <trkpt lat="48.99997" lon="-1.10168">
        <ele>61.37</ele>
      </trkpt>
      <trkpt lat="48.99982" lon="-1.10202">
        <ele>61.93</ele>
      </trkpt>
      <trkpt lat="48.99966" lon="-1.1025">
        <ele>62.02</ele>
      </trkpt>
      <trkpt lat="48.99938" lon="-1.10358">
        <ele>62.09</ele>
      </trkpt>
      <trkpt lat="48.99921" lon="-1.10463">
        <ele>62.28</ele>
      </trkpt>
      <trkpt lat="48.99921" lon="-1.10494">
        <ele>62.63</ele>
      </trkpt>
      <trkpt lat="48.99924" lon="-1.10528">
        <ele>62.95</ele>
      </trkpt>
      <trkpt lat="48.99928" lon="-1.10548">
        <ele>63.97</ele>
      </trkpt>
      <trkpt lat="48.9994" lon="-1.10575">
        <ele>66.09</ele>
      </trkpt>
      <trkpt lat="48.99953" lon="-1.10589">
        <ele>69.27</ele>
      </trkpt>
      <trkpt lat="49" lon="-1.10629">
        <ele>73</ele>
      </trkpt>
      <trkpt lat="49.00057" lon="-1.10667">
        <ele>73.25</ele>
      </trkpt>
      <trkpt lat="49.00064" lon="-1.10673">
        <ele>73.25</ele>
      </trkpt>
      <trkpt lat="49.00072" lon="-1.10687">
        <ele>73.57</ele>
      </trkpt>
      <trkpt lat="49.00112" lon="-1.10799">
        <ele>73.19</ele>
      </trkpt>
      <trkpt lat="49.00136" lon="-1.10882">
        <ele>73.06</ele>
      </trkpt>
      <trkpt lat="49.00144" lon="-1.1089">
        <ele>73.37</ele>
      </trkpt>
      <trkpt lat="49.00157" lon="-1.10911">
        <ele>73.93</ele>
      </trkpt>
      <trkpt lat="49.00195" lon="-1.10996">
        <ele>76.53</ele>
      </trkpt>
      <trkpt lat="49.00233" lon="-1.1108">
        <ele>79.16</ele>
      </trkpt>
      <trkpt lat="49.00239" lon="-1.11087">
        <ele>79.59</ele>
      </trkpt>
      <trkpt lat="49.00241" lon="-1.11094">
        <ele>79.63</ele>
      </trkpt>
      <trkpt lat="49.00266" lon="-1.11155">
        <ele>80.33</ele>
      </trkpt>
      <trkpt lat="49.00272" lon="-1.11175">
        <ele>80.27</ele>
      </trkpt>
      <trkpt lat="49.00209" lon="-1.11243">
        <ele>75.83</ele>
      </trkpt>
      <trkpt lat="49.00181" lon="-1.11277">
        <ele>74.51</ele>
      </trkpt>
      <trkpt lat="49.00153" lon="-1.11324">
        <ele>74.1</ele>
      </trkpt>
      <trkpt lat="49.00117" lon="-1.11388">
        <ele>75.2</ele>
      </trkpt>
      <trkpt lat="49.00075" lon="-1.11491">
        <ele>77.79</ele>
      </trkpt>
      <trkpt lat="49.00061" lon="-1.11555">
        <ele>79.02</ele>
      </trkpt>
      <trkpt lat="49.00057" lon="-1.1159">
        <ele>80.17</ele>
      </trkpt>
      <trkpt lat="49.00047" lon="-1.1159">
        <ele>80.54</ele>
      </trkpt>
      <trkpt lat="49.00043" lon="-1.11595">
        <ele>80.54</ele>
        <extensions>
          <visugpx:TrkExtension xmlns:visugpx="https://www.visugpx.com/editgpx/">
            <visugpx:node>1</visugpx:node>
            </visugpx:TrkExtension>
        </extensions>
      </trkpt>
    </trkseg>
  </trk>
</gpx>