<?xml version="1.0" encoding="UTF-8" standalone="no" ?>
<gpx xmlns="http://www.topografix.com/GPX/1/1" xmlns:xsi="http://www.w3.org/2001/XMLSchema-instance" xsi:schemaLocation="http://www.topografix.com/GPX/1/1 http://www.topografix.com/GPX/1/1/gpx.xsd" version="1.1" creator="VisuGPX - https://www.visugpx.com">
  <metadata>
    <name>Quibou_Dangy_22kms</name>
  </metadata>
  <trk>
    <name><![CDATA[Quibou_Dangy_22kms_1]]></name>
    <trkseg>
      <trkpt lat="49.06326" lon="-1.18496">
        <ele>103.7</ele>
      </trkpt>
      <trkpt lat="49.0633" lon="-1.185">
        <ele>103.2</ele>
      </trkpt>
      <trkpt lat="49.0645" lon="-1.18747">
        <ele>98.4</ele>
      </trkpt>
      <trkpt lat="49.06495" lon="-1.18648">
        <ele>95.7</ele>
      </trkpt>
      <trkpt lat="49.06545" lon="-1.18601">
        <ele>91.5</ele>
      </trkpt>
      <trkpt lat="49.06594" lon="-1.18485">
        <ele>94.2</ele>
      </trkpt>
      <trkpt lat="49.06618" lon="-1.18485">
        <ele>94.8</ele>
      </trkpt>
      <trkpt lat="49.06646" lon="-1.18494">
        <ele>94.9</ele>
      </trkpt>
      <trkpt lat="49.06652" lon="-1.18515">
        <ele>93.2</ele>
      </trkpt>
      <trkpt lat="49.06741" lon="-1.18569">
        <ele>86.4</ele>
      </trkpt>
      <trkpt lat="49.06857" lon="-1.18571">
        <ele>78.5</ele>
      </trkpt>
      <trkpt lat="49.06922" lon="-1.18624">
        <ele>75.1</ele>
      </trkpt>
      <trkpt lat="49.06982" lon="-1.18783">
        <ele>67.3</ele>
      </trkpt>
      <trkpt lat="49.07077" lon="-1.18861">
        <ele>59.8</ele>
      </trkpt>
      <trkpt lat="49.07108" lon="-1.18908">
        <ele>55.1</ele>
      </trkpt>
      <trkpt lat="49.0713" lon="-1.18886">
        <ele>54.6</ele>
      </trkpt>
      <trkpt lat="49.0715" lon="-1.18903">
        <ele>52.1</ele>
      </trkpt>
      <trkpt lat="49.07223" lon="-1.19026">
        <ele>57.1</ele>
      </trkpt>
      <trkpt lat="49.07216" lon="-1.19049">
        <ele>57.1</ele>
      </trkpt>
      <trkpt lat="49.07234" lon="-1.19105">
        <ele>62.4</ele>
      </trkpt>
      <trkpt lat="49.07175" lon="-1.19268">
        <ele>65.1</ele>
      </trkpt>
      <trkpt lat="49.07093" lon="-1.1935">
        <ele>63.5</ele>
      </trkpt>
      <trkpt lat="49.07033" lon="-1.19461">
        <ele>60.5</ele>
      </trkpt>
      <trkpt lat="49.06961" lon="-1.19521">
        <ele>55.6</ele>
      </trkpt>
      <trkpt lat="49.06911" lon="-1.19406">
        <ele>55.1</ele>
      </trkpt>
      <trkpt lat="49.06885" lon="-1.19436">
        <ele>54.6</ele>
      </trkpt>
      <trkpt lat="49.06862" lon="-1.19517">
        <ele>54</ele>
      </trkpt>
      <trkpt lat="49.06838" lon="-1.19558">
        <ele>54.1</ele>
      </trkpt>
      <trkpt lat="49.06798" lon="-1.19575">
        <ele>55.4</ele>
      </trkpt>
      <trkpt lat="49.06682" lon="-1.19712">
        <ele>56.3</ele>
      </trkpt>
      <trkpt lat="49.06642" lon="-1.19781">
        <ele>56.9</ele>
      </trkpt>
      <trkpt lat="49.06634" lon="-1.19813">
        <ele>56.9</ele>
      </trkpt>
      <trkpt lat="49.06732" lon="-1.20002">
        <ele>59.5</ele>
      </trkpt>
      <trkpt lat="49.06769" lon="-1.20004">
        <ele>60.9</ele>
      </trkpt>
      <trkpt lat="49.06784" lon="-1.20041">
        <ele>62.9</ele>
      </trkpt>
      <trkpt lat="49.06793" lon="-1.20114">
        <ele>65</ele>
      </trkpt>
      <trkpt lat="49.06839" lon="-1.20122">
        <ele>66.7</ele>
      </trkpt>
      <trkpt lat="49.07141" lon="-1.20247">
        <ele>78</ele>
      </trkpt>
      <trkpt lat="49.07309" lon="-1.20219">
        <ele>83.2</ele>
      </trkpt>
      <trkpt lat="49.07346" lon="-1.20247">
        <ele>85.9</ele>
      </trkpt>
      <trkpt lat="49.07346" lon="-1.20356">
        <ele>89.4</ele>
      </trkpt>
      <trkpt lat="49.07389" lon="-1.2036">
        <ele>91</ele>
      </trkpt>
      <trkpt lat="49.07406" lon="-1.20285">
        <ele>90.2</ele>
      </trkpt>
      <trkpt lat="49.07386" lon="-1.20257">
        <ele>89.7</ele>
      </trkpt>
      <trkpt lat="49.07397" lon="-1.19908">
        <ele>86.8</ele>
      </trkpt>
      <trkpt lat="49.07436" lon="-1.19914">
        <ele>89.7</ele>
      </trkpt>
      <trkpt lat="49.07587" lon="-1.2006">
        <ele>96</ele>
      </trkpt>
      <trkpt lat="49.07684" lon="-1.20178">
        <ele>96.8</ele>
      </trkpt>
      <trkpt lat="49.07747" lon="-1.20279">
        <ele>95.2</ele>
      </trkpt>
      <trkpt lat="49.07883" lon="-1.20255">
        <ele>89</ele>
      </trkpt>
      <trkpt lat="49.07954" lon="-1.20234">
        <ele>87</ele>
      </trkpt>
      <trkpt lat="49.07986" lon="-1.20178">
        <ele>88.3</ele>
      </trkpt>
      <trkpt lat="49.08035" lon="-1.20122">
        <ele>89</ele>
      </trkpt>
      <trkpt lat="49.08082" lon="-1.20056">
        <ele>90.1</ele>
      </trkpt>
      <trkpt lat="49.08132" lon="-1.20094">
        <ele>90.1</ele>
      </trkpt>
      <trkpt lat="49.08221" lon="-1.20013">
        <ele>91.1</ele>
      </trkpt>
      <trkpt lat="49.08274" lon="-1.20069">
        <ele>88.7</ele>
      </trkpt>
      <trkpt lat="49.08335" lon="-1.20193">
        <ele>85</ele>
      </trkpt>
      <trkpt lat="49.08402" lon="-1.20122">
        <ele>84.4</ele>
      </trkpt>
      <trkpt lat="49.08434" lon="-1.20122">
        <ele>83.6</ele>
      </trkpt>
      <trkpt lat="49.08502" lon="-1.20075">
        <ele>82.2</ele>
      </trkpt>
      <trkpt lat="49.08602" lon="-1.20064">
        <ele>78.3</ele>
      </trkpt>
      <trkpt lat="49.0871" lon="-1.19948">
        <ele>74.4</ele>
      </trkpt>
      <trkpt lat="49.08848" lon="-1.19833">
        <ele>74.5</ele>
      </trkpt>
      <trkpt lat="49.0894" lon="-1.20021">
        <ele>68.4</ele>
      </trkpt>
      <trkpt lat="49.08978" lon="-1.20197">
        <ele>61.7</ele>
      </trkpt>
      <trkpt lat="49.09054" lon="-1.20294">
        <ele>54.5</ele>
      </trkpt>
      <trkpt lat="49.09055" lon="-1.20405">
        <ele>53.6</ele>
      </trkpt>
      <trkpt lat="49.08947" lon="-1.20474">
        <ele>57.3</ele>
      </trkpt>
      <trkpt lat="49.08918" lon="-1.20539">
        <ele>59.5</ele>
      </trkpt>
      <trkpt lat="49.08755" lon="-1.20652">
        <ele>58.7</ele>
      </trkpt>
      <trkpt lat="49.08763" lon="-1.20742">
        <ele>62.7</ele>
      </trkpt>
      <trkpt lat="49.08713" lon="-1.2086">
        <ele>65.6</ele>
      </trkpt>
      <trkpt lat="49.08597" lon="-1.21015">
        <ele>66.8</ele>
      </trkpt>
      <trkpt lat="49.08527" lon="-1.20918">
        <ele>59.1</ele>
      </trkpt>
      <trkpt lat="49.08465" lon="-1.21017">
        <ele>60.2</ele>
      </trkpt>
      <trkpt lat="49.08482" lon="-1.21144">
        <ele>65.8</ele>
      </trkpt>
      <trkpt lat="49.0837" lon="-1.21229">
        <ele>68.7</ele>
      </trkpt>
      <trkpt lat="49.08329" lon="-1.21262">
        <ele>69.3</ele>
      </trkpt>
      <trkpt lat="49.08349" lon="-1.21324">
        <ele>71.9</ele>
      </trkpt>
      <trkpt lat="49.08257" lon="-1.2147">
        <ele>72.1</ele>
      </trkpt>
      <trkpt lat="49.08195" lon="-1.21558">
        <ele>74.1</ele>
      </trkpt>
      <trkpt lat="49.08143" lon="-1.21541">
        <ele>71.2</ele>
      </trkpt>
      <trkpt lat="49.0789" lon="-1.2209">
        <ele>68.6</ele>
      </trkpt>
      <trkpt lat="49.07621" lon="-1.21832">
        <ele>70</ele>
      </trkpt>
      <trkpt lat="49.07543" lon="-1.21933">
        <ele>73.6</ele>
      </trkpt>
      <trkpt lat="49.07491" lon="-1.2191">
        <ele>75.5</ele>
      </trkpt>
      <trkpt lat="49.07154" lon="-1.22131">
        <ele>84.8</ele>
      </trkpt>
      <trkpt lat="49.07154" lon="-1.22167">
        <ele>85.5</ele>
      </trkpt>
      <trkpt lat="49.07136" lon="-1.22219">
        <ele>86</ele>
      </trkpt>
      <trkpt lat="49.0707" lon="-1.22161">
        <ele>88.4</ele>
      </trkpt>
      <trkpt lat="49.07019" lon="-1.22021">
        <ele>89</ele>
      </trkpt>
      <trkpt lat="49.07001" lon="-1.22002">
        <ele>89</ele>
      </trkpt>
      <trkpt lat="49.06911" lon="-1.22079">
        <ele>94.2</ele>
      </trkpt>
      <trkpt lat="49.06735" lon="-1.21998">
        <ele>100.1</ele>
      </trkpt>
      <trkpt lat="49.06662" lon="-1.21963">
        <ele>103.2</ele>
      </trkpt>
      <trkpt lat="49.06499" lon="-1.21957">
        <ele>106</ele>
      </trkpt>
      <trkpt lat="49.06428" lon="-1.2194">
        <ele>104.9</ele>
      </trkpt>
      <trkpt lat="49.06396" lon="-1.22008">
        <ele>103.7</ele>
      </trkpt>
      <trkpt lat="49.0634" lon="-1.2206">
        <ele>103.4</ele>
      </trkpt>
      <trkpt lat="49.06254" lon="-1.22217">
        <ele>104.1</ele>
      </trkpt>
      <trkpt lat="49.06181" lon="-1.2191">
        <ele>93.4</ele>
      </trkpt>
      <trkpt lat="49.06161" lon="-1.21882">
        <ele>92.1</ele>
      </trkpt>
      <trkpt lat="49.06154" lon="-1.21794">
        <ele>93.4</ele>
      </trkpt>
      <trkpt lat="49.06046" lon="-1.21749">
        <ele>86.7</ele>
      </trkpt>
      <trkpt lat="49.0595" lon="-1.21614">
        <ele>88.9</ele>
      </trkpt>
      <trkpt lat="49.05887" lon="-1.21425">
        <ele>81.7</ele>
      </trkpt>
      <trkpt lat="49.05807" lon="-1.21427">
        <ele>82.4</ele>
      </trkpt>
      <trkpt lat="49.05713" lon="-1.21474">
        <ele>77.7</ele>
      </trkpt>
      <trkpt lat="49.05593" lon="-1.21307">
        <ele>71.3</ele>
      </trkpt>
      <trkpt lat="49.05489" lon="-1.21442">
        <ele>72.3</ele>
      </trkpt>
      <trkpt lat="49.05455" lon="-1.21639">
        <ele>84.2</ele>
      </trkpt>
      <trkpt lat="49.05385" lon="-1.2192">
        <ele>94.1</ele>
      </trkpt>
      <trkpt lat="49.05391" lon="-1.2212">
        <ele>97.1</ele>
      </trkpt>
      <trkpt lat="49.05254" lon="-1.22122">
        <ele>93.6</ele>
      </trkpt>
      <trkpt lat="49.05236" lon="-1.22101">
        <ele>92.3</ele>
      </trkpt>
      <trkpt lat="49.05166" lon="-1.2206">
        <ele>83</ele>
      </trkpt>
      <trkpt lat="49.0516" lon="-1.22083">
        <ele>82.9</ele>
      </trkpt>
      <trkpt lat="49.0516" lon="-1.22137">
        <ele>85</ele>
      </trkpt>
      <trkpt lat="49.05115" lon="-1.22313">
        <ele>82.4</ele>
      </trkpt>
      <trkpt lat="49.05183" lon="-1.22367">
        <ele>90.4</ele>
      </trkpt>
      <trkpt lat="49.05083" lon="-1.22433">
        <ele>79</ele>
      </trkpt>
      <trkpt lat="49.05022" lon="-1.2239">
        <ele>77.7</ele>
      </trkpt>
      <trkpt lat="49.049" lon="-1.22395">
        <ele>93.2</ele>
      </trkpt>
      <trkpt lat="49.0466" lon="-1.22459">
        <ele>103.6</ele>
      </trkpt>
      <trkpt lat="49.04627" lon="-1.2247">
        <ele>104.4</ele>
      </trkpt>
      <trkpt lat="49.04562" lon="-1.22521">
        <ele>105.9</ele>
      </trkpt>
      <trkpt lat="49.04501" lon="-1.22549">
        <ele>105.8</ele>
      </trkpt>
      <trkpt lat="49.04517" lon="-1.22399">
        <ele>104</ele>
      </trkpt>
      <trkpt lat="49.04456" lon="-1.22362">
        <ele>102.4</ele>
      </trkpt>
      <trkpt lat="49.04442" lon="-1.22298">
        <ele>100.1</ele>
      </trkpt>
      <trkpt lat="49.04395" lon="-1.22249">
        <ele>99.2</ele>
      </trkpt>
      <trkpt lat="49.0437" lon="-1.22182">
        <ele>97.9</ele>
      </trkpt>
      <trkpt lat="49.04302" lon="-1.22118">
        <ele>95.4</ele>
      </trkpt>
      <trkpt lat="49.04215" lon="-1.22004">
        <ele>94</ele>
      </trkpt>
      <trkpt lat="49.04096" lon="-1.2194">
        <ele>99.6</ele>
      </trkpt>
      <trkpt lat="49.04022" lon="-1.21856">
        <ele>98.2</ele>
      </trkpt>
      <trkpt lat="49.04003" lon="-1.21762">
        <ele>93</ele>
      </trkpt>
      <trkpt lat="49.03958" lon="-1.21719">
        <ele>96.8</ele>
      </trkpt>
      <trkpt lat="49.03949" lon="-1.21584">
        <ele>94</ele>
      </trkpt>
      <trkpt lat="49.03903" lon="-1.21483">
        <ele>91.5</ele>
      </trkpt>
      <trkpt lat="49.03824" lon="-1.21378">
        <ele>105.2</ele>
      </trkpt>
      <trkpt lat="49.03706" lon="-1.213">
        <ele>111.4</ele>
      </trkpt>
      <trkpt lat="49.03589" lon="-1.21212">
        <ele>115.1</ele>
      </trkpt>
      <trkpt lat="49.03517" lon="-1.21071">
        <ele>112.9</ele>
      </trkpt>
      <trkpt lat="49.03427" lon="-1.20974">
        <ele>106.6</ele>
      </trkpt>
      <trkpt lat="49.03371" lon="-1.20961">
        <ele>108.5</ele>
      </trkpt>
      <trkpt lat="49.0334" lon="-1.20914">
        <ele>111.3</ele>
      </trkpt>
      <trkpt lat="49.03261" lon="-1.20839">
        <ele>114.9</ele>
      </trkpt>
      <trkpt lat="49.03157" lon="-1.20678">
        <ele>123.9</ele>
      </trkpt>
      <trkpt lat="49.03077" lon="-1.20644">
        <ele>130.2</ele>
      </trkpt>
      <trkpt lat="49.0296" lon="-1.20513">
        <ele>137.4</ele>
      </trkpt>
      <trkpt lat="49.02896" lon="-1.20493">
        <ele>138</ele>
      </trkpt>
      <trkpt lat="49.03018" lon="-1.19867">
        <ele>140.9</ele>
      </trkpt>
      <trkpt lat="49.03026" lon="-1.19805">
        <ele>141</ele>
      </trkpt>
      <trkpt lat="49.03153" lon="-1.19813">
        <ele>138.5</ele>
      </trkpt>
      <trkpt lat="49.03247" lon="-1.19841">
        <ele>133.2</ele>
      </trkpt>
      <trkpt lat="49.03333" lon="-1.19815">
        <ele>134</ele>
      </trkpt>
      <trkpt lat="49.03423" lon="-1.19753">
        <ele>132.8</ele>
      </trkpt>
      <trkpt lat="49.03553" lon="-1.1977">
        <ele>128.4</ele>
      </trkpt>
      <trkpt lat="49.03738" lon="-1.19781">
        <ele>125.5</ele>
      </trkpt>
      <trkpt lat="49.03959" lon="-1.19764">
        <ele>119.2</ele>
      </trkpt>
      <trkpt lat="49.04001" lon="-1.19708">
        <ele>116.9</ele>
      </trkpt>
      <trkpt lat="49.04097" lon="-1.19442">
        <ele>118.5</ele>
      </trkpt>
      <trkpt lat="49.04107" lon="-1.19408">
        <ele>118.2</ele>
      </trkpt>
      <trkpt lat="49.04253" lon="-1.19427">
        <ele>112.9</ele>
      </trkpt>
      <trkpt lat="49.04353" lon="-1.19423">
        <ele>109.3</ele>
      </trkpt>
      <trkpt lat="49.04453" lon="-1.19275">
        <ele>108</ele>
      </trkpt>
      <trkpt lat="49.04465" lon="-1.19178">
        <ele>105.5</ele>
      </trkpt>
      <trkpt lat="49.04523" lon="-1.19159">
        <ele>104.8</ele>
      </trkpt>
      <trkpt lat="49.04519" lon="-1.19019">
        <ele>100.8</ele>
      </trkpt>
      <trkpt lat="49.04543" lon="-1.19028">
        <ele>102.1</ele>
      </trkpt>
      <trkpt lat="49.04624" lon="-1.19032">
        <ele>104.2</ele>
      </trkpt>
      <trkpt lat="49.04637" lon="-1.19107">
        <ele>105.9</ele>
      </trkpt>
      <trkpt lat="49.04674" lon="-1.19101">
        <ele>105.5</ele>
      </trkpt>
      <trkpt lat="49.04703" lon="-1.19189">
        <ele>106.7</ele>
      </trkpt>
      <trkpt lat="49.04813" lon="-1.19129">
        <ele>102</ele>
      </trkpt>
      <trkpt lat="49.04889" lon="-1.18908">
        <ele>90.7</ele>
      </trkpt>
      <trkpt lat="49.04955" lon="-1.1891">
        <ele>87.8</ele>
      </trkpt>
      <trkpt lat="49.05004" lon="-1.18957">
        <ele>86.4</ele>
      </trkpt>
      <trkpt lat="49.05117" lon="-1.19129">
        <ele>91.4</ele>
      </trkpt>
      <trkpt lat="49.05223" lon="-1.19294">
        <ele>88.3</ele>
      </trkpt>
      <trkpt lat="49.05271" lon="-1.19307">
        <ele>85.9</ele>
      </trkpt>
      <trkpt lat="49.0537" lon="-1.19399">
        <ele>86.9</ele>
      </trkpt>
      <trkpt lat="49.05439" lon="-1.19418">
        <ele>85.3</ele>
      </trkpt>
      <trkpt lat="49.05526" lon="-1.19496">
        <ele>84.4</ele>
      </trkpt>
      <trkpt lat="49.05586" lon="-1.19528">
        <ele>78.7</ele>
      </trkpt>
      <trkpt lat="49.05704" lon="-1.19579">
        <ele>75.7</ele>
      </trkpt>
      <trkpt lat="49.05779" lon="-1.19654">
        <ele>71.6</ele>
      </trkpt>
      <trkpt lat="49.05828" lon="-1.19674">
        <ele>68.1</ele>
      </trkpt>
      <trkpt lat="49.05852" lon="-1.19644">
        <ele>66.5</ele>
      </trkpt>
      <trkpt lat="49.0586" lon="-1.19584">
        <ele>69.9</ele>
      </trkpt>
      <trkpt lat="49.05967" lon="-1.19363">
        <ele>82.9</ele>
      </trkpt>
      <trkpt lat="49.05984" lon="-1.19371">
        <ele>85.6</ele>
      </trkpt>
      <trkpt lat="49.06004" lon="-1.19309">
        <ele>84.4</ele>
      </trkpt>
      <trkpt lat="49.06026" lon="-1.19309">
        <ele>86.1</ele>
      </trkpt>
      <trkpt lat="49.06049" lon="-1.19285">
        <ele>87</ele>
      </trkpt>
      <trkpt lat="49.06055" lon="-1.19245">
        <ele>85.8</ele>
      </trkpt>
      <trkpt lat="49.06053" lon="-1.19163">
        <ele>83.6</ele>
      </trkpt>
      <trkpt lat="49.06056" lon="-1.19071">
        <ele>83.5</ele>
      </trkpt>
      <trkpt lat="49.06116" lon="-1.18689">
        <ele>96.7</ele>
      </trkpt>
      <trkpt lat="49.06167" lon="-1.18586">
        <ele>100.1</ele>
      </trkpt>
      <trkpt lat="49.06199" lon="-1.18509">
        <ele>102.9</ele>
      </trkpt>
      <trkpt lat="49.06195" lon="-1.18414">
        <ele>103</ele>
      </trkpt>
      <trkpt lat="49.06326" lon="-1.18496">
        <ele>103.7</ele>
      </trkpt>
    </trkseg>
  </trk>
</gpx>
