<?xml version="1.0" encoding="UTF-8" standalone="no" ?>
<gpx xmlns="http://www.topografix.com/GPX/1/1" xmlns:xsi="http://www.w3.org/2001/XMLSchema-instance" xsi:schemaLocation="http://www.topografix.com/GPX/1/1 http://www.topografix.com/GPX/1/1/gpx.xsd" version="1.1" creator="VisuGPX - https://www.visugpx.com">
  <metadata>
    <name>Challenge AGGLO VTT OK</name>
  </metadata>
  <wpt lat="49.09332" lon="-1.30669">
    <ele>84.9</ele>
    <name><![CDATA[LE LOREY NON]]></name>
    <type><![CDATA[alarm]]></type>
  </wpt>
  <wpt lat="48.96028" lon="-1.16617">
    <ele>167.2</ele>
    <name><![CDATA[HORS AGGLO]]></name>
    <type><![CDATA[Waypoint]]></type>
  </wpt>
  <wpt lat="48.93355" lon="-1.12301">
    <ele>185.7</ele>
    <name><![CDATA[HORS AGGLO]]></name>
    <type><![CDATA[Waypoint]]></type>
  </wpt>
  <wpt lat="48.93209" lon="-1.09537">
    <ele>142</ele>
    <name><![CDATA[Gouvet]]></name>
  </wpt>
  <wpt lat="48.93558" lon="-1.02774">
    <ele>48</ele>
    <type><![CDATA[Waypoint]]></type>
  </wpt>
  <wpt lat="49.02065" lon="-0.92388">
    <ele>139.7</ele>
    <type><![CDATA[alarm]]></type>
  </wpt>
  <wpt lat="49.02981" lon="-0.90702">
    <ele>181.2</ele>
    <type><![CDATA[alarm]]></type>
  </wpt>
  <wpt lat="49.05257" lon="-0.90144">
    <ele>134.3</ele>
    <type><![CDATA[alarm]]></type>
  </wpt>
  <wpt lat="49.08597" lon="-0.96383">
    <ele>140.7</ele>
  </wpt>
  <wpt lat="49.08152" lon="-0.88906">
    <ele>96.3</ele>
    <type><![CDATA[alarm]]></type>
  </wpt>
  <wpt lat="49.08517" lon="-0.90799">
    <ele>130.6</ele>
    <type><![CDATA[alarm]]></type>
  </wpt>
  <wpt lat="49.10422" lon="-0.9407">
    <ele>165.3</ele>
    <type><![CDATA[alarm]]></type>
  </wpt>
  <wpt lat="49.09815" lon="-0.90157">
    <ele>136.5</ele>
    <type><![CDATA[alarm]]></type>
  </wpt>
  <wpt lat="49.10905" lon="-0.8856">
    <ele>110.1</ele>
    <type><![CDATA[alarm]]></type>
  </wpt>
  <wpt lat="49.13006" lon="-0.85453">
    <ele>103.7</ele>
    <type><![CDATA[Waypoint]]></type>
  </wpt>
  <wpt lat="49.15387" lon="-0.90363">
    <ele>120.9</ele>
    <type><![CDATA[Waypoint]]></type>
  </wpt>
  <wpt lat="49.20807" lon="-1.02036">
    <ele>48</ele>
    <type><![CDATA[Waypoint]]></type>
  </wpt>
  <wpt lat="49.21154" lon="-1.04353">
    <ele>42</ele>
    <type><![CDATA[alarm]]></type>
  </wpt>
  <wpt lat="49.24764" lon="-1.04404">
    <ele>49.7</ele>
    <type><![CDATA[Waypoint]]></type>
  </wpt>
  <wpt lat="49.22163" lon="-1.07975">
    <ele>7</ele>
  </wpt>
  <wpt lat="49.21984" lon="-1.09108">
    <ele>10.4</ele>
  </wpt>
  <wpt lat="49.27486" lon="-1.14636">
    <ele>26.9</ele>
    <type><![CDATA[Waypoint]]></type>
  </wpt>
  <wpt lat="49.22578" lon="-1.1661">
    <ele>36.2</ele>
    <type><![CDATA[alarm]]></type>
  </wpt>
  <wpt lat="49.20392" lon="-1.16695">
    <ele>32.9</ele>
    <type><![CDATA[alarm]]></type>
  </wpt>
  <wpt lat="49.23867" lon="-1.20163">
    <ele>11.2</ele>
    <type><![CDATA[alarm]]></type>
  </wpt>
  <wpt lat="49.15432" lon="-1.17863">
    <ele>22.5</ele>
  </wpt>
  <wpt lat="49.18952" lon="-1.18887">
    <ele>7</ele>
    <type><![CDATA[alarm]]></type>
  </wpt>
  <wpt lat="49.18222" lon="-1.23039">
    <ele>26.4</ele>
    <type><![CDATA[alarm]]></type>
  </wpt>
  <wpt lat="49.21347" lon="-1.24204">
    <ele>4.8</ele>
    <type><![CDATA[Waypoint]]></type>
  </wpt>
  <wpt lat="49.1808" lon="-1.25758">
    <ele>13.8</ele>
    <type><![CDATA[alarm]]></type>
  </wpt>
  <wpt lat="49.18778" lon="-1.29084">
    <ele>16</ele>
    <type><![CDATA[Waypoint]]></type>
  </wpt>
  <wpt lat="49.16038" lon="-1.283">
    <ele>10.4</ele>
    <type><![CDATA[alarm]]></type>
  </wpt>
  <wpt lat="49.15028" lon="-1.23047">
    <ele>31.3</ele>
    <type><![CDATA[alarm]]></type>
  </wpt>
  <wpt lat="49.13635" lon="-1.23768">
    <ele>50.1</ele>
    <type><![CDATA[alarm]]></type>
  </wpt>
  <wpt lat="49.14219" lon="-1.26171">
    <ele>20.4</ele>
    <type><![CDATA[alarm]]></type>
  </wpt>
  <wpt lat="49.12665" lon="-1.30103">
    <ele>62.3</ele>
    <type><![CDATA[Waypoint]]></type>
  </wpt>
  <wpt lat="48.93677" lon="-1.03545">
    <ele>62.5</ele>
    <type><![CDATA[alarm]]></type>
  </wpt>
  <trk>
    <name><![CDATA[Sainte Suzanne sur Vire]]></name>
    <extensions>
      <line xmlns="http://www.topografix.com/GPX/gpx_style/0/2">
        <color>ff0000</color>
        <opacity>1</opacity>
        <width>4</width>
          <extensions>
            <sens>1</sens>
          </extensions>
      </line>
    </extensions>
    <trkseg>
      <trkpt lat="49.06126" lon="-1.06052">
        <ele>23.1</ele>
        <extensions>
          <visugpx:TrkExtension xmlns:visugpx="https://www.visugpx.com/editgpx/">
            <visugpx:node>90</visugpx:node>
            </visugpx:TrkExtension>
        </extensions>
      </trkpt>
      <trkpt lat="49.06048" lon="-1.06183">
        <ele>22.8</ele>
      </trkpt>
      <trkpt lat="49.06064" lon="-1.06295">
        <ele>23.4</ele>
      </trkpt>
      <trkpt lat="49.05928" lon="-1.06216">
        <ele>23.2</ele>
      </trkpt>
      <trkpt lat="49.05897" lon="-1.06101">
        <ele>20.6</ele>
      </trkpt>
      <trkpt lat="49.05792" lon="-1.05916">
        <ele>20</ele>
      </trkpt>
      <trkpt lat="49.05729" lon="-1.05869">
        <ele>21</ele>
      </trkpt>
      <trkpt lat="49.05588" lon="-1.05728">
        <ele>21.6</ele>
      </trkpt>
      <trkpt lat="49.05339" lon="-1.05409">
        <ele>23.3</ele>
      </trkpt>
      <trkpt lat="49.05168" lon="-1.05261">
        <ele>24.3</ele>
      </trkpt>
      <trkpt lat="49.05081" lon="-1.05121">
        <ele>23.1</ele>
      </trkpt>
      <trkpt lat="49.05063" lon="-1.04884">
        <ele>21.7</ele>
      </trkpt>
      <trkpt lat="49.04987" lon="-1.04805">
        <ele>21.9</ele>
      </trkpt>
      <trkpt lat="49.04925" lon="-1.04801">
        <ele>22.7</ele>
      </trkpt>
      <trkpt lat="49.04809" lon="-1.04734">
        <ele>21.9</ele>
      </trkpt>
      <trkpt lat="49.04556" lon="-1.04438">
        <ele>22.5</ele>
      </trkpt>
      <trkpt lat="49.04361" lon="-1.04356">
        <ele>23.5</ele>
      </trkpt>
      <trkpt lat="49.04193" lon="-1.04309">
        <ele>24.2</ele>
      </trkpt>
      <trkpt lat="49.04206" lon="-1.04393">
        <ele>26.5</ele>
      </trkpt>
      <trkpt lat="49.04315" lon="-1.04406">
        <ele>26.3</ele>
      </trkpt>
      <trkpt lat="49.04369" lon="-1.04519">
        <ele>28.1</ele>
      </trkpt>
      <trkpt lat="49.04314" lon="-1.04572">
        <ele>34.2</ele>
      </trkpt>
      <trkpt lat="49.0414" lon="-1.04977">
        <ele>60.1</ele>
      </trkpt>
      <trkpt lat="49.04217" lon="-1.05107">
        <ele>57.4</ele>
      </trkpt>
      <trkpt lat="49.04262" lon="-1.05119">
        <ele>58</ele>
      </trkpt>
      <trkpt lat="49.04299" lon="-1.05097">
        <ele>58.2</ele>
      </trkpt>
      <trkpt lat="49.04376" lon="-1.05203">
        <ele>58.8</ele>
      </trkpt>
      <trkpt lat="49.04235" lon="-1.05368">
        <ele>66.5</ele>
      </trkpt>
      <trkpt lat="49.0446" lon="-1.05696">
        <ele>54.3</ele>
      </trkpt>
      <trkpt lat="49.04582" lon="-1.05802">
        <ele>39.3</ele>
      </trkpt>
      <trkpt lat="49.04585" lon="-1.05907">
        <ele>32.2</ele>
      </trkpt>
      <trkpt lat="49.04631" lon="-1.05931">
        <ele>32.1</ele>
      </trkpt>
      <trkpt lat="49.04679" lon="-1.05927">
        <ele>37.6</ele>
      </trkpt>
      <trkpt lat="49.04678" lon="-1.05969">
        <ele>40.2</ele>
      </trkpt>
      <trkpt lat="49.0473" lon="-1.05987">
        <ele>46.7</ele>
      </trkpt>
      <trkpt lat="49.04731" lon="-1.06037">
        <ele>48.6</ele>
      </trkpt>
      <trkpt lat="49.04901" lon="-1.06141">
        <ele>52</ele>
      </trkpt>
      <trkpt lat="49.0497" lon="-1.0615">
        <ele>52</ele>
      </trkpt>
      <trkpt lat="49.05059" lon="-1.06066">
        <ele>51.5</ele>
      </trkpt>
      <trkpt lat="49.05088" lon="-1.06097">
        <ele>52.2</ele>
      </trkpt>
      <trkpt lat="49.05175" lon="-1.05808">
        <ele>45.6</ele>
      </trkpt>
      <trkpt lat="49.05759" lon="-1.06374">
        <ele>52</ele>
      </trkpt>
      <trkpt lat="49.05649" lon="-1.06572">
        <ele>57.6</ele>
      </trkpt>
      <trkpt lat="49.05441" lon="-1.06507">
        <ele>60</ele>
      </trkpt>
      <trkpt lat="49.0523" lon="-1.0716">
        <ele>61</ele>
      </trkpt>
      <trkpt lat="49.05545" lon="-1.07396">
        <ele>50</ele>
      </trkpt>
      <trkpt lat="49.05553" lon="-1.07559">
        <ele>43.4</ele>
      </trkpt>
      <trkpt lat="49.05641" lon="-1.0773">
        <ele>45.4</ele>
        <extensions>
          <visugpx:TrkExtension xmlns:visugpx="https://www.visugpx.com/editgpx/">
            <visugpx:node>1</visugpx:node>
            </visugpx:TrkExtension>
        </extensions>
      </trkpt>
      <trkpt lat="49.06065" lon="-1.07949">
        <ele>79.9</ele>
      </trkpt>
      <trkpt lat="49.06487" lon="-1.08258">
        <ele>95.5</ele>
        <extensions>
          <visugpx:TrkExtension xmlns:visugpx="https://www.visugpx.com/editgpx/">
            <visugpx:node>2</visugpx:node>
            </visugpx:TrkExtension>
        </extensions>
      </trkpt>
      <trkpt lat="49.06736" lon="-1.07726">
        <ele>68.6</ele>
      </trkpt>
      <trkpt lat="49.06934" lon="-1.07138">
        <ele>28.7</ele>
      </trkpt>
      <trkpt lat="49.07038" lon="-1.07014">
        <ele>19.9</ele>
        <extensions>
          <visugpx:TrkExtension xmlns:visugpx="https://www.visugpx.com/editgpx/">
            <visugpx:node>3</visugpx:node>
            </visugpx:TrkExtension>
        </extensions>
      </trkpt>
      <trkpt lat="49.07162" lon="-1.07271">
        <ele>19.9</ele>
        <extensions>
          <visugpx:TrkExtension xmlns:visugpx="https://www.visugpx.com/editgpx/">
            <visugpx:node>4</visugpx:node>
            </visugpx:TrkExtension>
        </extensions>
      </trkpt>
      <trkpt lat="49.07314" lon="-1.07357">
        <ele>17.4</ele>
        <extensions>
          <visugpx:TrkExtension xmlns:visugpx="https://www.visugpx.com/editgpx/">
            <visugpx:node>5</visugpx:node>
            </visugpx:TrkExtension>
        </extensions>
      </trkpt>
      <trkpt lat="49.07463" lon="-1.07649">
        <ele>17.5</ele>
        <extensions>
          <visugpx:TrkExtension xmlns:visugpx="https://www.visugpx.com/editgpx/">
            <visugpx:node>6</visugpx:node>
            </visugpx:TrkExtension>
        </extensions>
      </trkpt>
      <trkpt lat="49.07457" lon="-1.07838">
        <ele>19.7</ele>
        <extensions>
          <visugpx:TrkExtension xmlns:visugpx="https://www.visugpx.com/editgpx/">
            <visugpx:node>7</visugpx:node>
            </visugpx:TrkExtension>
        </extensions>
      </trkpt>
      <trkpt lat="49.07527" lon="-1.08005">
        <ele>18.4</ele>
        <extensions>
          <visugpx:TrkExtension xmlns:visugpx="https://www.visugpx.com/editgpx/">
            <visugpx:node>8</visugpx:node>
            </visugpx:TrkExtension>
        </extensions>
      </trkpt>
      <trkpt lat="49.07876" lon="-1.08198">
        <ele>17.1</ele>
        <extensions>
          <visugpx:TrkExtension xmlns:visugpx="https://www.visugpx.com/editgpx/">
            <visugpx:node>9</visugpx:node>
            </visugpx:TrkExtension>
        </extensions>
      </trkpt>
      <trkpt lat="49.07971" lon="-1.08391">
        <ele>17.2</ele>
        <extensions>
          <visugpx:TrkExtension xmlns:visugpx="https://www.visugpx.com/editgpx/">
            <visugpx:node>10</visugpx:node>
            </visugpx:TrkExtension>
        </extensions>
      </trkpt>
      <trkpt lat="49.08078" lon="-1.0867">
        <ele>20.2</ele>
        <extensions>
          <visugpx:TrkExtension xmlns:visugpx="https://www.visugpx.com/editgpx/">
            <visugpx:node>11</visugpx:node>
            </visugpx:TrkExtension>
        </extensions>
      </trkpt>
      <trkpt lat="49.084" lon="-1.09024">
        <ele>16.7</ele>
        <extensions>
          <visugpx:TrkExtension xmlns:visugpx="https://www.visugpx.com/editgpx/">
            <visugpx:node>12</visugpx:node>
            </visugpx:TrkExtension>
        </extensions>
      </trkpt>
      <trkpt lat="49.0851" lon="-1.09185">
        <ele>18.6</ele>
        <extensions>
          <visugpx:TrkExtension xmlns:visugpx="https://www.visugpx.com/editgpx/">
            <visugpx:node>13</visugpx:node>
            </visugpx:TrkExtension>
        </extensions>
      </trkpt>
      <trkpt lat="49.08684" lon="-1.0932">
        <ele>16.8</ele>
        <extensions>
          <visugpx:TrkExtension xmlns:visugpx="https://www.visugpx.com/editgpx/">
            <visugpx:node>14</visugpx:node>
            </visugpx:TrkExtension>
        </extensions>
      </trkpt>
      <trkpt lat="49.08705" lon="-1.09428">
        <ele>16.6</ele>
        <extensions>
          <visugpx:TrkExtension xmlns:visugpx="https://www.visugpx.com/editgpx/">
            <visugpx:node>15</visugpx:node>
            </visugpx:TrkExtension>
        </extensions>
      </trkpt>
      <trkpt lat="49.08722" lon="-1.10009">
        <ele>16</ele>
        <extensions>
          <visugpx:TrkExtension xmlns:visugpx="https://www.visugpx.com/editgpx/">
            <visugpx:node>16</visugpx:node>
            </visugpx:TrkExtension>
        </extensions>
      </trkpt>
      <trkpt lat="49.08754" lon="-1.10228">
        <ele>15.9</ele>
        <extensions>
          <visugpx:TrkExtension xmlns:visugpx="https://www.visugpx.com/editgpx/">
            <visugpx:node>17</visugpx:node>
            </visugpx:TrkExtension>
        </extensions>
      </trkpt>
      <trkpt lat="49.08782" lon="-1.10451">
        <ele>15.3</ele>
        <extensions>
          <visugpx:TrkExtension xmlns:visugpx="https://www.visugpx.com/editgpx/">
            <visugpx:node>18</visugpx:node>
            </visugpx:TrkExtension>
        </extensions>
      </trkpt>
      <trkpt lat="49.08816" lon="-1.10563">
        <ele>15.6</ele>
        <extensions>
          <visugpx:TrkExtension xmlns:visugpx="https://www.visugpx.com/editgpx/">
            <visugpx:node>19</visugpx:node>
            </visugpx:TrkExtension>
        </extensions>
      </trkpt>
      <trkpt lat="49.08872" lon="-1.10614">
        <ele>15.1</ele>
        <extensions>
          <visugpx:TrkExtension xmlns:visugpx="https://www.visugpx.com/editgpx/">
            <visugpx:node>20</visugpx:node>
            </visugpx:TrkExtension>
        </extensions>
      </trkpt>
      <trkpt lat="49.08942" lon="-1.10632">
        <ele>15.1</ele>
        <extensions>
          <visugpx:TrkExtension xmlns:visugpx="https://www.visugpx.com/editgpx/">
            <visugpx:node>21</visugpx:node>
            </visugpx:TrkExtension>
        </extensions>
      </trkpt>
      <trkpt lat="49.08993" lon="-1.10644">
        <ele>15.3</ele>
        <extensions>
          <visugpx:TrkExtension xmlns:visugpx="https://www.visugpx.com/editgpx/">
            <visugpx:node>22</visugpx:node>
            </visugpx:TrkExtension>
        </extensions>
      </trkpt>
      <trkpt lat="49.0902" lon="-1.10726">
        <ele>15</ele>
        <extensions>
          <visugpx:TrkExtension xmlns:visugpx="https://www.visugpx.com/editgpx/">
            <visugpx:node>23</visugpx:node>
            </visugpx:TrkExtension>
        </extensions>
      </trkpt>
      <trkpt lat="49.09027" lon="-1.10883">
        <ele>15</ele>
        <extensions>
          <visugpx:TrkExtension xmlns:visugpx="https://www.visugpx.com/editgpx/">
            <visugpx:node>24</visugpx:node>
            </visugpx:TrkExtension>
        </extensions>
      </trkpt>
      <trkpt lat="49.09048" lon="-1.11084">
        <ele>15</ele>
        <extensions>
          <visugpx:TrkExtension xmlns:visugpx="https://www.visugpx.com/editgpx/">
            <visugpx:node>25</visugpx:node>
            </visugpx:TrkExtension>
        </extensions>
      </trkpt>
      <trkpt lat="49.0908" lon="-1.11503">
        <ele>15</ele>
        <extensions>
          <visugpx:TrkExtension xmlns:visugpx="https://www.visugpx.com/editgpx/">
            <visugpx:node>26</visugpx:node>
            </visugpx:TrkExtension>
        </extensions>
      </trkpt>
      <trkpt lat="49.09141" lon="-1.11747">
        <ele>15.1</ele>
        <extensions>
          <visugpx:TrkExtension xmlns:visugpx="https://www.visugpx.com/editgpx/">
            <visugpx:node>27</visugpx:node>
            </visugpx:TrkExtension>
        </extensions>
      </trkpt>
      <trkpt lat="49.09236" lon="-1.11685">
        <ele>19.5</ele>
        <extensions>
          <visugpx:TrkExtension xmlns:visugpx="https://www.visugpx.com/editgpx/">
            <visugpx:node>28</visugpx:node>
            </visugpx:TrkExtension>
        </extensions>
      </trkpt>
      <trkpt lat="49.09139" lon="-1.11252">
        <ele>25</ele>
        <extensions>
          <visugpx:TrkExtension xmlns:visugpx="https://www.visugpx.com/editgpx/">
            <visugpx:node>29</visugpx:node>
            </visugpx:TrkExtension>
        </extensions>
      </trkpt>
      <trkpt lat="49.09118" lon="-1.11039">
        <ele>26.4</ele>
        <extensions>
          <visugpx:TrkExtension xmlns:visugpx="https://www.visugpx.com/editgpx/">
            <visugpx:node>30</visugpx:node>
            </visugpx:TrkExtension>
        </extensions>
      </trkpt>
      <trkpt lat="49.09159" lon="-1.10857">
        <ele>32.9</ele>
        <extensions>
          <visugpx:TrkExtension xmlns:visugpx="https://www.visugpx.com/editgpx/">
            <visugpx:node>31</visugpx:node>
            </visugpx:TrkExtension>
        </extensions>
      </trkpt>
      <trkpt lat="49.09254" lon="-1.10758">
        <ele>49.2</ele>
        <extensions>
          <visugpx:TrkExtension xmlns:visugpx="https://www.visugpx.com/editgpx/">
            <visugpx:node>32</visugpx:node>
            </visugpx:TrkExtension>
        </extensions>
      </trkpt>
      <trkpt lat="49.0937" lon="-1.10687">
        <ele>67.1</ele>
        <extensions>
          <visugpx:TrkExtension xmlns:visugpx="https://www.visugpx.com/editgpx/">
            <visugpx:node>33</visugpx:node>
            </visugpx:TrkExtension>
        </extensions>
      </trkpt>
      <trkpt lat="49.09406" lon="-1.10574">
        <ele>72.5</ele>
        <extensions>
          <visugpx:TrkExtension xmlns:visugpx="https://www.visugpx.com/editgpx/">
            <visugpx:node>34</visugpx:node>
            </visugpx:TrkExtension>
        </extensions>
      </trkpt>
      <trkpt lat="49.09427" lon="-1.1038">
        <ele>72</ele>
        <extensions>
          <visugpx:TrkExtension xmlns:visugpx="https://www.visugpx.com/editgpx/">
            <visugpx:node>35</visugpx:node>
            </visugpx:TrkExtension>
        </extensions>
      </trkpt>
      <trkpt lat="49.09686" lon="-1.10323">
        <ele>78.7</ele>
        <extensions>
          <visugpx:TrkExtension xmlns:visugpx="https://www.visugpx.com/editgpx/">
            <visugpx:node>36</visugpx:node>
            </visugpx:TrkExtension>
        </extensions>
      </trkpt>
      <trkpt lat="49.09794" lon="-1.10241">
        <ele>76.4</ele>
        <extensions>
          <visugpx:TrkExtension xmlns:visugpx="https://www.visugpx.com/editgpx/">
            <visugpx:node>37</visugpx:node>
            </visugpx:TrkExtension>
        </extensions>
      </trkpt>
      <trkpt lat="49.0983" lon="-1.09745">
        <ele>80.2</ele>
        <extensions>
          <visugpx:TrkExtension xmlns:visugpx="https://www.visugpx.com/editgpx/">
            <visugpx:node>38</visugpx:node>
            </visugpx:TrkExtension>
        </extensions>
      </trkpt>
      <trkpt lat="49.09826" lon="-1.09496">
        <ele>85.1</ele>
        <extensions>
          <visugpx:TrkExtension xmlns:visugpx="https://www.visugpx.com/editgpx/">
            <visugpx:node>39</visugpx:node>
            </visugpx:TrkExtension>
        </extensions>
      </trkpt>
      <trkpt lat="49.09797" lon="-1.09396">
        <ele>85</ele>
        <extensions>
          <visugpx:TrkExtension xmlns:visugpx="https://www.visugpx.com/editgpx/">
            <visugpx:node>40</visugpx:node>
            </visugpx:TrkExtension>
        </extensions>
      </trkpt>
      <trkpt lat="49.09805" lon="-1.09342">
        <ele>88.8</ele>
        <extensions>
          <visugpx:TrkExtension xmlns:visugpx="https://www.visugpx.com/editgpx/">
            <visugpx:node>41</visugpx:node>
            </visugpx:TrkExtension>
        </extensions>
      </trkpt>
      <trkpt lat="49.09815" lon="-1.0932">
        <ele>90.8</ele>
        <extensions>
          <visugpx:TrkExtension xmlns:visugpx="https://www.visugpx.com/editgpx/">
            <visugpx:node>42</visugpx:node>
            </visugpx:TrkExtension>
        </extensions>
      </trkpt>
      <trkpt lat="49.09811" lon="-1.08743">
        <ele>94.4</ele>
        <extensions>
          <visugpx:TrkExtension xmlns:visugpx="https://www.visugpx.com/editgpx/">
            <visugpx:node>43</visugpx:node>
            </visugpx:TrkExtension>
        </extensions>
      </trkpt>
      <trkpt lat="49.09616" lon="-1.08627">
        <ele>89.6</ele>
        <extensions>
          <visugpx:TrkExtension xmlns:visugpx="https://www.visugpx.com/editgpx/">
            <visugpx:node>44</visugpx:node>
            </visugpx:TrkExtension>
        </extensions>
      </trkpt>
      <trkpt lat="49.09455" lon="-1.08614">
        <ele>79.6</ele>
        <extensions>
          <visugpx:TrkExtension xmlns:visugpx="https://www.visugpx.com/editgpx/">
            <visugpx:node>45</visugpx:node>
            </visugpx:TrkExtension>
        </extensions>
      </trkpt>
      <trkpt lat="49.0932" lon="-1.08479">
        <ele>62</ele>
        <extensions>
          <visugpx:TrkExtension xmlns:visugpx="https://www.visugpx.com/editgpx/">
            <visugpx:node>46</visugpx:node>
            </visugpx:TrkExtension>
        </extensions>
      </trkpt>
      <trkpt lat="49.09245" lon="-1.08342">
        <ele>52.7</ele>
        <extensions>
          <visugpx:TrkExtension xmlns:visugpx="https://www.visugpx.com/editgpx/">
            <visugpx:node>47</visugpx:node>
            </visugpx:TrkExtension>
        </extensions>
      </trkpt>
      <trkpt lat="49.09072" lon="-1.0849">
        <ele>55.3</ele>
        <extensions>
          <visugpx:TrkExtension xmlns:visugpx="https://www.visugpx.com/editgpx/">
            <visugpx:node>48</visugpx:node>
            </visugpx:TrkExtension>
        </extensions>
      </trkpt>
      <trkpt lat="49.08844" lon="-1.08535">
        <ele>53.2</ele>
        <extensions>
          <visugpx:TrkExtension xmlns:visugpx="https://www.visugpx.com/editgpx/">
            <visugpx:node>49</visugpx:node>
            </visugpx:TrkExtension>
        </extensions>
      </trkpt>
      <trkpt lat="49.08774" lon="-1.08505">
        <ele>46.3</ele>
        <extensions>
          <visugpx:TrkExtension xmlns:visugpx="https://www.visugpx.com/editgpx/">
            <visugpx:node>50</visugpx:node>
            </visugpx:TrkExtension>
        </extensions>
      </trkpt>
      <trkpt lat="49.08608" lon="-1.08552">
        <ele>29.8</ele>
        <extensions>
          <visugpx:TrkExtension xmlns:visugpx="https://www.visugpx.com/editgpx/">
            <visugpx:node>51</visugpx:node>
            </visugpx:TrkExtension>
        </extensions>
      </trkpt>
      <trkpt lat="49.08573" lon="-1.08488">
        <ele>23.3</ele>
        <extensions>
          <visugpx:TrkExtension xmlns:visugpx="https://www.visugpx.com/editgpx/">
            <visugpx:node>52</visugpx:node>
            </visugpx:TrkExtension>
        </extensions>
      </trkpt>
      <trkpt lat="49.08528" lon="-1.08503">
        <ele>21.2</ele>
        <extensions>
          <visugpx:TrkExtension xmlns:visugpx="https://www.visugpx.com/editgpx/">
            <visugpx:node>53</visugpx:node>
            </visugpx:TrkExtension>
        </extensions>
      </trkpt>
      <trkpt lat="49.08557" lon="-1.08421">
        <ele>23.7</ele>
        <extensions>
          <visugpx:TrkExtension xmlns:visugpx="https://www.visugpx.com/editgpx/">
            <visugpx:node>54</visugpx:node>
            </visugpx:TrkExtension>
        </extensions>
      </trkpt>
      <trkpt lat="49.08582" lon="-1.08386">
        <ele>26.2</ele>
        <extensions>
          <visugpx:TrkExtension xmlns:visugpx="https://www.visugpx.com/editgpx/">
            <visugpx:node>55</visugpx:node>
            </visugpx:TrkExtension>
        </extensions>
      </trkpt>
      <trkpt lat="49.08583" lon="-1.08257">
        <ele>32.7</ele>
        <extensions>
          <visugpx:TrkExtension xmlns:visugpx="https://www.visugpx.com/editgpx/">
            <visugpx:node>56</visugpx:node>
            </visugpx:TrkExtension>
        </extensions>
      </trkpt>
      <trkpt lat="49.08609" lon="-1.08221">
        <ele>36</ele>
        <extensions>
          <visugpx:TrkExtension xmlns:visugpx="https://www.visugpx.com/editgpx/">
            <visugpx:node>57</visugpx:node>
            </visugpx:TrkExtension>
        </extensions>
      </trkpt>
      <trkpt lat="49.08603" lon="-1.08074">
        <ele>42.3</ele>
        <extensions>
          <visugpx:TrkExtension xmlns:visugpx="https://www.visugpx.com/editgpx/">
            <visugpx:node>58</visugpx:node>
            </visugpx:TrkExtension>
        </extensions>
      </trkpt>
      <trkpt lat="49.08798" lon="-1.0776">
        <ele>64.4</ele>
        <extensions>
          <visugpx:TrkExtension xmlns:visugpx="https://www.visugpx.com/editgpx/">
            <visugpx:node>59</visugpx:node>
            </visugpx:TrkExtension>
        </extensions>
      </trkpt>
      <trkpt lat="49.08784" lon="-1.07705">
        <ele>64.3</ele>
        <extensions>
          <visugpx:TrkExtension xmlns:visugpx="https://www.visugpx.com/editgpx/">
            <visugpx:node>60</visugpx:node>
            </visugpx:TrkExtension>
        </extensions>
      </trkpt>
      <trkpt lat="49.0884" lon="-1.07666">
        <ele>67.3</ele>
        <extensions>
          <visugpx:TrkExtension xmlns:visugpx="https://www.visugpx.com/editgpx/">
            <visugpx:node>61</visugpx:node>
            </visugpx:TrkExtension>
        </extensions>
      </trkpt>
      <trkpt lat="49.08951" lon="-1.07379">
        <ele>72.2</ele>
        <extensions>
          <visugpx:TrkExtension xmlns:visugpx="https://www.visugpx.com/editgpx/">
            <visugpx:node>62</visugpx:node>
            </visugpx:TrkExtension>
        </extensions>
      </trkpt>
      <trkpt lat="49.08914" lon="-1.07293">
        <ele>68</ele>
        <extensions>
          <visugpx:TrkExtension xmlns:visugpx="https://www.visugpx.com/editgpx/">
            <visugpx:node>63</visugpx:node>
            </visugpx:TrkExtension>
        </extensions>
      </trkpt>
      <trkpt lat="49.08914" lon="-1.07263">
        <ele>67.5</ele>
        <extensions>
          <visugpx:TrkExtension xmlns:visugpx="https://www.visugpx.com/editgpx/">
            <visugpx:node>64</visugpx:node>
            </visugpx:TrkExtension>
        </extensions>
      </trkpt>
      <trkpt lat="49.08947" lon="-1.07196">
        <ele>64.4</ele>
        <extensions>
          <visugpx:TrkExtension xmlns:visugpx="https://www.visugpx.com/editgpx/">
            <visugpx:node>65</visugpx:node>
            </visugpx:TrkExtension>
        </extensions>
      </trkpt>
      <trkpt lat="49.08966" lon="-1.0704">
        <ele>61.7</ele>
        <extensions>
          <visugpx:TrkExtension xmlns:visugpx="https://www.visugpx.com/editgpx/">
            <visugpx:node>66</visugpx:node>
            </visugpx:TrkExtension>
        </extensions>
      </trkpt>
      <trkpt lat="49.0894" lon="-1.06849">
        <ele>54.2</ele>
        <extensions>
          <visugpx:TrkExtension xmlns:visugpx="https://www.visugpx.com/editgpx/">
            <visugpx:node>67</visugpx:node>
            </visugpx:TrkExtension>
        </extensions>
      </trkpt>
      <trkpt lat="49.08912" lon="-1.06803">
        <ele>51.8</ele>
        <extensions>
          <visugpx:TrkExtension xmlns:visugpx="https://www.visugpx.com/editgpx/">
            <visugpx:node>68</visugpx:node>
            </visugpx:TrkExtension>
        </extensions>
      </trkpt>
      <trkpt lat="49.08906" lon="-1.06715">
        <ele>45</ele>
        <extensions>
          <visugpx:TrkExtension xmlns:visugpx="https://www.visugpx.com/editgpx/">
            <visugpx:node>69</visugpx:node>
            </visugpx:TrkExtension>
        </extensions>
      </trkpt>
      <trkpt lat="49.08978" lon="-1.06608">
        <ele>31.3</ele>
        <extensions>
          <visugpx:TrkExtension xmlns:visugpx="https://www.visugpx.com/editgpx/">
            <visugpx:node>70</visugpx:node>
            </visugpx:TrkExtension>
        </extensions>
      </trkpt>
      <trkpt lat="49.08893" lon="-1.0654">
        <ele>36.7</ele>
        <extensions>
          <visugpx:TrkExtension xmlns:visugpx="https://www.visugpx.com/editgpx/">
            <visugpx:node>71</visugpx:node>
            </visugpx:TrkExtension>
        </extensions>
      </trkpt>
      <trkpt lat="49.0884" lon="-1.0652">
        <ele>42.9</ele>
        <extensions>
          <visugpx:TrkExtension xmlns:visugpx="https://www.visugpx.com/editgpx/">
            <visugpx:node>72</visugpx:node>
            </visugpx:TrkExtension>
        </extensions>
      </trkpt>
      <trkpt lat="49.08803" lon="-1.06512">
        <ele>44.7</ele>
        <extensions>
          <visugpx:TrkExtension xmlns:visugpx="https://www.visugpx.com/editgpx/">
            <visugpx:node>73</visugpx:node>
            </visugpx:TrkExtension>
        </extensions>
      </trkpt>
      <trkpt lat="49.08701" lon="-1.06273">
        <ele>55.7</ele>
        <extensions>
          <visugpx:TrkExtension xmlns:visugpx="https://www.visugpx.com/editgpx/">
            <visugpx:node>74</visugpx:node>
            </visugpx:TrkExtension>
        </extensions>
      </trkpt>
      <trkpt lat="49.08484" lon="-1.06033">
        <ele>65.1</ele>
        <extensions>
          <visugpx:TrkExtension xmlns:visugpx="https://www.visugpx.com/editgpx/">
            <visugpx:node>75</visugpx:node>
            </visugpx:TrkExtension>
        </extensions>
      </trkpt>
      <trkpt lat="49.08411" lon="-1.06012">
        <ele>69</ele>
        <extensions>
          <visugpx:TrkExtension xmlns:visugpx="https://www.visugpx.com/editgpx/">
            <visugpx:node>76</visugpx:node>
            </visugpx:TrkExtension>
        </extensions>
      </trkpt>
      <trkpt lat="49.08177" lon="-1.05844">
        <ele>82.9</ele>
        <extensions>
          <visugpx:TrkExtension xmlns:visugpx="https://www.visugpx.com/editgpx/">
            <visugpx:node>77</visugpx:node>
            </visugpx:TrkExtension>
        </extensions>
      </trkpt>
      <trkpt lat="49.08011" lon="-1.05615">
        <ele>73.8</ele>
        <extensions>
          <visugpx:TrkExtension xmlns:visugpx="https://www.visugpx.com/editgpx/">
            <visugpx:node>78</visugpx:node>
            </visugpx:TrkExtension>
        </extensions>
      </trkpt>
      <trkpt lat="49.07923" lon="-1.05657">
        <ele>70.7</ele>
        <extensions>
          <visugpx:TrkExtension xmlns:visugpx="https://www.visugpx.com/editgpx/">
            <visugpx:node>79</visugpx:node>
            </visugpx:TrkExtension>
        </extensions>
      </trkpt>
      <trkpt lat="49.0776" lon="-1.0593">
        <ele>60.5</ele>
        <extensions>
          <visugpx:TrkExtension xmlns:visugpx="https://www.visugpx.com/editgpx/">
            <visugpx:node>80</visugpx:node>
            </visugpx:TrkExtension>
        </extensions>
      </trkpt>
      <trkpt lat="49.07607" lon="-1.06045">
        <ele>55.3</ele>
        <extensions>
          <visugpx:TrkExtension xmlns:visugpx="https://www.visugpx.com/editgpx/">
            <visugpx:node>81</visugpx:node>
            </visugpx:TrkExtension>
        </extensions>
      </trkpt>
      <trkpt lat="49.07309" lon="-1.05638">
        <ele>34.1</ele>
        <extensions>
          <visugpx:TrkExtension xmlns:visugpx="https://www.visugpx.com/editgpx/">
            <visugpx:node>82</visugpx:node>
            </visugpx:TrkExtension>
        </extensions>
      </trkpt>
      <trkpt lat="49.07014" lon="-1.0603">
        <ele>41.4</ele>
        <extensions>
          <visugpx:TrkExtension xmlns:visugpx="https://www.visugpx.com/editgpx/">
            <visugpx:node>83</visugpx:node>
            </visugpx:TrkExtension>
        </extensions>
      </trkpt>
      <trkpt lat="49.06909" lon="-1.06051">
        <ele>39.9</ele>
        <extensions>
          <visugpx:TrkExtension xmlns:visugpx="https://www.visugpx.com/editgpx/">
            <visugpx:node>84</visugpx:node>
            </visugpx:TrkExtension>
        </extensions>
      </trkpt>
      <trkpt lat="49.06698" lon="-1.06179">
        <ele>38.4</ele>
        <extensions>
          <visugpx:TrkExtension xmlns:visugpx="https://www.visugpx.com/editgpx/">
            <visugpx:node>85</visugpx:node>
            </visugpx:TrkExtension>
        </extensions>
      </trkpt>
      <trkpt lat="49.06581" lon="-1.06169">
        <ele>27.6</ele>
        <extensions>
          <visugpx:TrkExtension xmlns:visugpx="https://www.visugpx.com/editgpx/">
            <visugpx:node>86</visugpx:node>
            </visugpx:TrkExtension>
        </extensions>
      </trkpt>
      <trkpt lat="49.06478" lon="-1.06136">
        <ele>28.6</ele>
        <extensions>
          <visugpx:TrkExtension xmlns:visugpx="https://www.visugpx.com/editgpx/">
            <visugpx:node>87</visugpx:node>
            </visugpx:TrkExtension>
        </extensions>
      </trkpt>
      <trkpt lat="49.06333" lon="-1.0606">
        <ele>29.3</ele>
        <extensions>
          <visugpx:TrkExtension xmlns:visugpx="https://www.visugpx.com/editgpx/">
            <visugpx:node>88</visugpx:node>
            </visugpx:TrkExtension>
        </extensions>
      </trkpt>
      <trkpt lat="49.06234" lon="-1.0604">
        <ele>28.1</ele>
      </trkpt>
      <trkpt lat="49.06224" lon="-1.0605">
        <ele>26.7</ele>
        <extensions>
          <visugpx:TrkExtension xmlns:visugpx="https://www.visugpx.com/editgpx/">
            <visugpx:node>89</visugpx:node>
            </visugpx:TrkExtension>
        </extensions>
      </trkpt>
      <trkpt lat="49.06168" lon="-1.06071">
        <ele>23.5</ele>
        <extensions>
          <visugpx:TrkExtension xmlns:visugpx="https://www.visugpx.com/editgpx/">
            <visugpx:node>91</visugpx:node>
            </visugpx:TrkExtension>
        </extensions>
      </trkpt>
      <trkpt lat="49.06126" lon="-1.06052">
        <ele>23.1</ele>
        <extensions>
          <visugpx:TrkExtension xmlns:visugpx="https://www.visugpx.com/editgpx/">
            <visugpx:node>90</visugpx:node>
            </visugpx:TrkExtension>
        </extensions>
      </trkpt>
    </trkseg>
  </trk>
</gpx>