<?xml version="1.0" encoding="UTF-8" standalone="no" ?>
<gpx xmlns="http://www.topografix.com/GPX/1/1" xmlns:xsi="http://www.w3.org/2001/XMLSchema-instance" xsi:schemaLocation="http://www.topografix.com/GPX/1/1 http://www.topografix.com/GPX/1/1/gpx.xsd" version="1.1" creator="VisuGPX - https://www.visugpx.com">
  <metadata>
    <name>Challenge AGGLO VTT OK BRUT</name>
  </metadata>
  <trk>
    <name><![CDATA[St Georges Moncocq]]></name>
    <extensions>
      <line xmlns="http://www.topografix.com/GPX/gpx_style/0/2">
        <color>0000FF</color>
        <opacity>1</opacity>
        <width>4</width>
          <extensions>
            <sens>1</sens>
          </extensions>
      </line>
    </extensions>
    <trkseg>
      <trkpt lat="49.11941" lon="-1.08643">
        <ele>24.89</ele>
      </trkpt>
      <trkpt lat="49.11958" lon="-1.08618">
        <ele>25.67</ele>
      </trkpt>
      <trkpt lat="49.11989" lon="-1.08555">
        <ele>27.87</ele>
      </trkpt>
      <trkpt lat="49.12001" lon="-1.08538">
        <ele>28.92</ele>
      </trkpt>
      <trkpt lat="49.12026" lon="-1.08491">
        <ele>30.12</ele>
      </trkpt>
      <trkpt lat="49.12042" lon="-1.0844">
        <ele>31.79</ele>
      </trkpt>
      <trkpt lat="49.12044" lon="-1.08409">
        <ele>32.35</ele>
      </trkpt>
      <trkpt lat="49.12039" lon="-1.08365">
        <ele>32.63</ele>
      </trkpt>
      <trkpt lat="49.12028" lon="-1.08341">
        <ele>32.48</ele>
      </trkpt>
      <trkpt lat="49.12009" lon="-1.08318">
        <ele>31.73</ele>
      </trkpt>
      <trkpt lat="49.11996" lon="-1.08294">
        <ele>31.34</ele>
      </trkpt>
      <trkpt lat="49.11985" lon="-1.08257">
        <ele>31.12</ele>
      </trkpt>
      <trkpt lat="49.11975" lon="-1.08195">
        <ele>31.09</ele>
      </trkpt>
      <trkpt lat="49.11975" lon="-1.08169">
        <ele>31.99</ele>
      </trkpt>
      <trkpt lat="49.11986" lon="-1.08091">
        <ele>33.56</ele>
      </trkpt>
      <trkpt lat="49.11988" lon="-1.08061">
        <ele>33.96</ele>
      </trkpt>
      <trkpt lat="49.11988" lon="-1.07989">
        <ele>34.43</ele>
      </trkpt>
      <trkpt lat="49.11958" lon="-1.07925">
        <ele>29.68</ele>
      </trkpt>
      <trkpt lat="49.11953" lon="-1.07888">
        <ele>29.49</ele>
      </trkpt>
      <trkpt lat="49.11951" lon="-1.0786">
        <ele>29.99</ele>
      </trkpt>
      <trkpt lat="49.11942" lon="-1.0786">
        <ele>30.05</ele>
      </trkpt>
      <trkpt lat="49.11938" lon="-1.07865">
        <ele>29.98</ele>
      </trkpt>
      <trkpt lat="49.11932" lon="-1.07874">
        <ele>29.92</ele>
      </trkpt>
      <trkpt lat="49.1193" lon="-1.07887">
        <ele>29.92</ele>
      </trkpt>
      <trkpt lat="49.11934" lon="-1.07928">
        <ele>29.71</ele>
      </trkpt>
      <trkpt lat="49.11933" lon="-1.07941">
        <ele>29.71</ele>
      </trkpt>
      <trkpt lat="49.11924" lon="-1.07969">
        <ele>29.75</ele>
      </trkpt>
      <trkpt lat="49.11922" lon="-1.07989">
        <ele>29.75</ele>
      </trkpt>
      <trkpt lat="49.11924" lon="-1.08036">
        <ele>29.71</ele>
      </trkpt>
      <trkpt lat="49.1192" lon="-1.08067">
        <ele>29.65</ele>
      </trkpt>
      <trkpt lat="49.1192" lon="-1.08111">
        <ele>29.81</ele>
      </trkpt>
      <trkpt lat="49.11918" lon="-1.08128">
        <ele>29.8</ele>
      </trkpt>
      <trkpt lat="49.11904" lon="-1.08179">
        <ele>29.95</ele>
      </trkpt>
      <trkpt lat="49.119" lon="-1.08206">
        <ele>29.94</ele>
      </trkpt>
      <trkpt lat="49.11899" lon="-1.08236">
        <ele>29.94</ele>
      </trkpt>
      <trkpt lat="49.11906" lon="-1.08281">
        <ele>29.74</ele>
      </trkpt>
      <trkpt lat="49.11936" lon="-1.08331">
        <ele>29.4</ele>
      </trkpt>
      <trkpt lat="49.11943" lon="-1.08355">
        <ele>28.53</ele>
      </trkpt>
      <trkpt lat="49.11949" lon="-1.08362">
        <ele>28.17</ele>
      </trkpt>
      <trkpt lat="49.11953" lon="-1.08362">
        <ele>28.17</ele>
      </trkpt>
      <trkpt lat="49.11955" lon="-1.08344">
        <ele>26.38</ele>
      </trkpt>
      <trkpt lat="49.11961" lon="-1.08342">
        <ele>26.25</ele>
      </trkpt>
      <trkpt lat="49.11972" lon="-1.08345">
        <ele>26.07</ele>
      </trkpt>
      <trkpt lat="49.1198" lon="-1.0833">
        <ele>25.94</ele>
      </trkpt>
      <trkpt lat="49.11998" lon="-1.08365">
        <ele>25.45</ele>
      </trkpt>
      <trkpt lat="49.12004" lon="-1.08385">
        <ele>25.49</ele>
      </trkpt>
      <trkpt lat="49.12003" lon="-1.08423">
        <ele>25.87</ele>
      </trkpt>
      <trkpt lat="49.11998" lon="-1.08456">
        <ele>25.75</ele>
      </trkpt>
      <trkpt lat="49.11995" lon="-1.0846">
        <ele>25.75</ele>
      </trkpt>
      <trkpt lat="49.1198" lon="-1.08507">
        <ele>25.75</ele>
      </trkpt>
      <trkpt lat="49.11946" lon="-1.08555">
        <ele>25.65</ele>
      </trkpt>
      <trkpt lat="49.11944" lon="-1.08566">
        <ele>25.67</ele>
      </trkpt>
      <trkpt lat="49.11928" lon="-1.08602">
        <ele>25.62</ele>
      </trkpt>
      <trkpt lat="49.11898" lon="-1.0864">
        <ele>26.21</ele>
      </trkpt>
      <trkpt lat="49.11892" lon="-1.08636">
        <ele>26.2</ele>
      </trkpt>
      <trkpt lat="49.11887" lon="-1.08635">
        <ele>24.3</ele>
      </trkpt>
      <trkpt lat="49.11883" lon="-1.08656">
        <ele>24.1</ele>
      </trkpt>
      <trkpt lat="49.11869" lon="-1.08716">
        <ele>23.2</ele>
      </trkpt>
      <trkpt lat="49.11851" lon="-1.08796">
        <ele>22.4</ele>
      </trkpt>
      <trkpt lat="49.11842" lon="-1.08817">
        <ele>22.7</ele>
      </trkpt>
      <trkpt lat="49.11844" lon="-1.08822">
        <ele>22.6</ele>
      </trkpt>
      <trkpt lat="49.11845" lon="-1.0883">
        <ele>22.6</ele>
      </trkpt>
      <trkpt lat="49.1185" lon="-1.08844">
        <ele>22.4</ele>
      </trkpt>
      <trkpt lat="49.11854" lon="-1.08846">
        <ele>24.48</ele>
      </trkpt>
      <trkpt lat="49.11859" lon="-1.08847">
        <ele>24.48</ele>
      </trkpt>
      <trkpt lat="49.11849" lon="-1.08965">
        <ele>23.7</ele>
      </trkpt>
      <trkpt lat="49.11847" lon="-1.08975">
        <ele>23.59</ele>
      </trkpt>
      <trkpt lat="49.11821" lon="-1.09029">
        <ele>22.78</ele>
      </trkpt>
      <trkpt lat="49.11789" lon="-1.09084">
        <ele>21.94</ele>
      </trkpt>
      <trkpt lat="49.1178" lon="-1.09111">
        <ele>21.81</ele>
      </trkpt>
      <trkpt lat="49.11779" lon="-1.09117">
        <ele>21.81</ele>
      </trkpt>
      <trkpt lat="49.11751" lon="-1.09168">
        <ele>21.07</ele>
      </trkpt>
      <trkpt lat="49.11736" lon="-1.09205">
        <ele>20.22</ele>
      </trkpt>
      <trkpt lat="49.11729" lon="-1.09206">
        <ele>20.22</ele>
      </trkpt>
      <trkpt lat="49.1172" lon="-1.09243">
        <ele>19.78</ele>
      </trkpt>
      <trkpt lat="49.11718" lon="-1.0926">
        <ele>19.59</ele>
      </trkpt>
      <trkpt lat="49.11717" lon="-1.09301">
        <ele>19.1</ele>
      </trkpt>
      <trkpt lat="49.11718" lon="-1.09321">
        <ele>19.02</ele>
      </trkpt>
      <trkpt lat="49.11718" lon="-1.09321">
        <ele>19.02</ele>
        <extensions>
          <visugpx:TrkExtension xmlns:visugpx="https://www.visugpx.com/editgpx/">
            <visugpx:node>1</visugpx:node>
            </visugpx:TrkExtension>
        </extensions>
      </trkpt>
      <trkpt lat="49.1172" lon="-1.09337">
        <ele>18.92</ele>
      </trkpt>
      <trkpt lat="49.11742" lon="-1.0945">
        <ele>17.66</ele>
      </trkpt>
      <trkpt lat="49.11749" lon="-1.09501">
        <ele>17.27</ele>
      </trkpt>
      <trkpt lat="49.11753" lon="-1.09591">
        <ele>17.01</ele>
      </trkpt>
      <trkpt lat="49.11756" lon="-1.0968">
        <ele>16.41</ele>
      </trkpt>
      <trkpt lat="49.11768" lon="-1.09682">
        <ele>16.61</ele>
      </trkpt>
      <trkpt lat="49.11795" lon="-1.09684">
        <ele>16.47</ele>
      </trkpt>
      <trkpt lat="49.11838" lon="-1.09667">
        <ele>15.74</ele>
      </trkpt>
      <trkpt lat="49.11856" lon="-1.0966">
        <ele>15.4</ele>
      </trkpt>
      <trkpt lat="49.11863" lon="-1.0966">
        <ele>15.2</ele>
      </trkpt>
      <trkpt lat="49.11942" lon="-1.09668">
        <ele>15.24</ele>
      </trkpt>
      <trkpt lat="49.1202" lon="-1.09675">
        <ele>15.18</ele>
      </trkpt>
      <trkpt lat="49.12065" lon="-1.09681">
        <ele>15.06</ele>
      </trkpt>
      <trkpt lat="49.12096" lon="-1.09688">
        <ele>15.32</ele>
      </trkpt>
      <trkpt lat="49.12177" lon="-1.09731">
        <ele>14.79</ele>
      </trkpt>
      <trkpt lat="49.12207" lon="-1.09751">
        <ele>15.44</ele>
      </trkpt>
      <trkpt lat="49.12227" lon="-1.09762">
        <ele>15.57</ele>
      </trkpt>
      <trkpt lat="49.12283" lon="-1.09797">
        <ele>16.51</ele>
      </trkpt>
      <trkpt lat="49.12293" lon="-1.09789">
        <ele>18.13</ele>
      </trkpt>
      <trkpt lat="49.12319" lon="-1.09775">
        <ele>21.94</ele>
      </trkpt>
      <trkpt lat="49.12376" lon="-1.09751">
        <ele>28.59</ele>
      </trkpt>
      <trkpt lat="49.124" lon="-1.09745">
        <ele>30.8</ele>
      </trkpt>
      <trkpt lat="49.12423" lon="-1.09742">
        <ele>37.55</ele>
      </trkpt>
      <trkpt lat="49.12424" lon="-1.09743">
        <ele>37.8</ele>
      </trkpt>
      <trkpt lat="49.12423" lon="-1.09752">
        <ele>39.88</ele>
      </trkpt>
      <trkpt lat="49.12408" lon="-1.09768">
        <ele>42.73</ele>
      </trkpt>
      <trkpt lat="49.12393" lon="-1.09789">
        <ele>47.19</ele>
      </trkpt>
      <trkpt lat="49.12391" lon="-1.09802">
        <ele>48.34</ele>
      </trkpt>
      <trkpt lat="49.12391" lon="-1.09819">
        <ele>52.05</ele>
      </trkpt>
      <trkpt lat="49.12395" lon="-1.09823">
        <ele>54.36</ele>
      </trkpt>
      <trkpt lat="49.12424" lon="-1.09829">
        <ele>60.97</ele>
      </trkpt>
      <trkpt lat="49.12466" lon="-1.0984">
        <ele>70.04</ele>
      </trkpt>
      <trkpt lat="49.12484" lon="-1.09837">
        <ele>72.22</ele>
      </trkpt>
      <trkpt lat="49.12511" lon="-1.09829">
        <ele>78.23</ele>
      </trkpt>
      <trkpt lat="49.12523" lon="-1.09833">
        <ele>78.23</ele>
      </trkpt>
      <trkpt lat="49.12531" lon="-1.0984">
        <ele>78.23</ele>
      </trkpt>
      <trkpt lat="49.12553" lon="-1.0985">
        <ele>83.18</ele>
      </trkpt>
      <trkpt lat="49.12608" lon="-1.09863">
        <ele>87.78</ele>
      </trkpt>
      <trkpt lat="49.12666" lon="-1.09904">
        <ele>93.11</ele>
      </trkpt>
      <trkpt lat="49.12716" lon="-1.09925">
        <ele>95.6</ele>
      </trkpt>
      <trkpt lat="49.12765" lon="-1.09945">
        <ele>96.93</ele>
      </trkpt>
      <trkpt lat="49.12807" lon="-1.09968">
        <ele>98</ele>
      </trkpt>
      <trkpt lat="49.12868" lon="-1.09984">
        <ele>99.05</ele>
      </trkpt>
      <trkpt lat="49.12883" lon="-1.10077">
        <ele>94.7</ele>
      </trkpt>
      <trkpt lat="49.12884" lon="-1.10144">
        <ele>92.57</ele>
      </trkpt>
      <trkpt lat="49.12877" lon="-1.10233">
        <ele>94.3</ele>
      </trkpt>
      <trkpt lat="49.12961" lon="-1.10231">
        <ele>102.94</ele>
      </trkpt>
      <trkpt lat="49.13048" lon="-1.10236">
        <ele>105.25</ele>
      </trkpt>
      <trkpt lat="49.13053" lon="-1.10181">
        <ele>106.27</ele>
      </trkpt>
      <trkpt lat="49.13053" lon="-1.10158">
        <ele>106.3</ele>
      </trkpt>
      <trkpt lat="49.13079" lon="-1.10226">
        <ele>106.65</ele>
      </trkpt>
      <trkpt lat="49.13102" lon="-1.10246">
        <ele>106.66</ele>
      </trkpt>
      <trkpt lat="49.13121" lon="-1.10373">
        <ele>107.11</ele>
      </trkpt>
      <trkpt lat="49.13153" lon="-1.10308">
        <ele>107.32</ele>
      </trkpt>
      <trkpt lat="49.13185" lon="-1.10243">
        <ele>107.68</ele>
      </trkpt>
      <trkpt lat="49.13238" lon="-1.10345">
        <ele>106.21</ele>
      </trkpt>
      <trkpt lat="49.13283" lon="-1.1045">
        <ele>104.64</ele>
      </trkpt>
      <trkpt lat="49.13312" lon="-1.10498">
        <ele>104.01</ele>
      </trkpt>
      <trkpt lat="49.13331" lon="-1.10507">
        <ele>103.89</ele>
      </trkpt>
      <trkpt lat="49.13382" lon="-1.10517">
        <ele>102.52</ele>
      </trkpt>
      <trkpt lat="49.13451" lon="-1.10509">
        <ele>98.59</ele>
      </trkpt>
      <trkpt lat="49.1352" lon="-1.105">
        <ele>95.28</ele>
      </trkpt>
      <trkpt lat="49.13604" lon="-1.10506">
        <ele>89.98</ele>
      </trkpt>
      <trkpt lat="49.13687" lon="-1.10511">
        <ele>85.05</ele>
      </trkpt>
      <trkpt lat="49.13771" lon="-1.10517">
        <ele>87.71</ele>
      </trkpt>
      <trkpt lat="49.13837" lon="-1.10486">
        <ele>87.41</ele>
      </trkpt>
      <trkpt lat="49.13838" lon="-1.10487">
        <ele>87.35</ele>
      </trkpt>
      <trkpt lat="49.13833" lon="-1.105">
        <ele>86.73</ele>
      </trkpt>
      <trkpt lat="49.13832" lon="-1.10524">
        <ele>85.57</ele>
      </trkpt>
      <trkpt lat="49.13835" lon="-1.10561">
        <ele>83.87</ele>
      </trkpt>
      <trkpt lat="49.13832" lon="-1.10633">
        <ele>83.17</ele>
      </trkpt>
      <trkpt lat="49.13825" lon="-1.10704">
        <ele>86.74</ele>
      </trkpt>
      <trkpt lat="49.13818" lon="-1.10775">
        <ele>88.29</ele>
      </trkpt>
      <trkpt lat="49.13808" lon="-1.1084">
        <ele>88.13</ele>
      </trkpt>
      <trkpt lat="49.13808" lon="-1.10931">
        <ele>87.4</ele>
      </trkpt>
      <trkpt lat="49.13824" lon="-1.11056">
        <ele>89.87</ele>
      </trkpt>
      <trkpt lat="49.13824" lon="-1.11151">
        <ele>93.22</ele>
      </trkpt>
      <trkpt lat="49.13823" lon="-1.11246">
        <ele>94.14</ele>
      </trkpt>
      <trkpt lat="49.13827" lon="-1.1125">
        <ele>94.14</ele>
      </trkpt>
      <trkpt lat="49.13883" lon="-1.1126">
        <ele>91.7</ele>
      </trkpt>
      <trkpt lat="49.13939" lon="-1.1127">
        <ele>89.26</ele>
      </trkpt>
      <trkpt lat="49.13945" lon="-1.11283">
        <ele>89.26</ele>
      </trkpt>
      <trkpt lat="49.13943" lon="-1.11311">
        <ele>88.53</ele>
      </trkpt>
      <trkpt lat="49.1393" lon="-1.11362">
        <ele>87.14</ele>
      </trkpt>
      <trkpt lat="49.1393" lon="-1.11487">
        <ele>81.54</ele>
      </trkpt>
      <trkpt lat="49.13942" lon="-1.11527">
        <ele>79.56</ele>
      </trkpt>
      <trkpt lat="49.13956" lon="-1.11542">
        <ele>78.83</ele>
      </trkpt>
      <trkpt lat="49.14036" lon="-1.11538">
        <ele>81.59</ele>
      </trkpt>
      <trkpt lat="49.14084" lon="-1.11528">
        <ele>81.7</ele>
      </trkpt>
      <trkpt lat="49.14132" lon="-1.11517">
        <ele>81.3</ele>
      </trkpt>
      <trkpt lat="49.14194" lon="-1.11516">
        <ele>80.71</ele>
      </trkpt>
      <trkpt lat="49.14255" lon="-1.11514">
        <ele>79.56</ele>
      </trkpt>
      <trkpt lat="49.14308" lon="-1.11508">
        <ele>76.77</ele>
      </trkpt>
      <trkpt lat="49.14321" lon="-1.11507">
        <ele>76.15</ele>
      </trkpt>
      <trkpt lat="49.14332" lon="-1.11497">
        <ele>75.19</ele>
      </trkpt>
      <trkpt lat="49.14333" lon="-1.11497">
        <ele>75.12</ele>
      </trkpt>
      <trkpt lat="49.14281" lon="-1.11407">
        <ele>78.01</ele>
      </trkpt>
      <trkpt lat="49.14229" lon="-1.11317">
        <ele>79.86</ele>
      </trkpt>
      <trkpt lat="49.14175" lon="-1.11263">
        <ele>82.13</ele>
      </trkpt>
      <trkpt lat="49.1412" lon="-1.11209">
        <ele>83.8</ele>
      </trkpt>
      <trkpt lat="49.14066" lon="-1.11171">
        <ele>85.34</ele>
      </trkpt>
      <trkpt lat="49.14113" lon="-1.11108">
        <ele>84.84</ele>
      </trkpt>
      <trkpt lat="49.14161" lon="-1.11045">
        <ele>84.09</ele>
      </trkpt>
      <trkpt lat="49.14208" lon="-1.10982">
        <ele>83.17</ele>
      </trkpt>
      <trkpt lat="49.1429" lon="-1.10931">
        <ele>81.38</ele>
      </trkpt>
      <trkpt lat="49.14333" lon="-1.10914">
        <ele>79.91</ele>
      </trkpt>
      <trkpt lat="49.14393" lon="-1.10856">
        <ele>77.81</ele>
      </trkpt>
      <trkpt lat="49.14429" lon="-1.108">
        <ele>76.28</ele>
      </trkpt>
      <trkpt lat="49.14484" lon="-1.10735">
        <ele>71.22</ele>
      </trkpt>
      <trkpt lat="49.14539" lon="-1.1067">
        <ele>64.06</ele>
      </trkpt>
      <trkpt lat="49.14583" lon="-1.1064">
        <ele>60.52</ele>
      </trkpt>
      <trkpt lat="49.14627" lon="-1.10609">
        <ele>60.6</ele>
      </trkpt>
      <trkpt lat="49.14658" lon="-1.10556">
        <ele>65.08</ele>
      </trkpt>
      <trkpt lat="49.14659" lon="-1.10554">
        <ele>65.21</ele>
      </trkpt>
      <trkpt lat="49.14666" lon="-1.10582">
        <ele>64.05</ele>
      </trkpt>
      <trkpt lat="49.14672" lon="-1.10595">
        <ele>63.86</ele>
      </trkpt>
      <trkpt lat="49.14705" lon="-1.10616">
        <ele>64.96</ele>
      </trkpt>
      <trkpt lat="49.14765" lon="-1.10639">
        <ele>63.08</ele>
      </trkpt>
      <trkpt lat="49.1478" lon="-1.1065">
        <ele>62.47</ele>
      </trkpt>
      <trkpt lat="49.14822" lon="-1.10681">
        <ele>59.64</ele>
      </trkpt>
      <trkpt lat="49.14839" lon="-1.10704">
        <ele>58.56</ele>
      </trkpt>
      <trkpt lat="49.14852" lon="-1.10717">
        <ele>58.55</ele>
      </trkpt>
      <trkpt lat="49.14856" lon="-1.10719">
        <ele>58.55</ele>
      </trkpt>
      <trkpt lat="49.14874" lon="-1.10741">
        <ele>58.8</ele>
      </trkpt>
      <trkpt lat="49.14928" lon="-1.10843">
        <ele>59.09</ele>
      </trkpt>
      <trkpt lat="49.14959" lon="-1.10894">
        <ele>57.95</ele>
      </trkpt>
      <trkpt lat="49.15016" lon="-1.10952">
        <ele>55.01</ele>
      </trkpt>
      <trkpt lat="49.15022" lon="-1.10965">
        <ele>53.62</ele>
      </trkpt>
      <trkpt lat="49.15064" lon="-1.11012">
        <ele>52.71</ele>
      </trkpt>
      <trkpt lat="49.1511" lon="-1.11085">
        <ele>50.11</ele>
      </trkpt>
      <trkpt lat="49.15145" lon="-1.11165">
        <ele>49.89</ele>
      </trkpt>
      <trkpt lat="49.15146" lon="-1.11216">
        <ele>52.87</ele>
      </trkpt>
      <trkpt lat="49.15164" lon="-1.11296">
        <ele>54.93</ele>
      </trkpt>
      <trkpt lat="49.15182" lon="-1.11375">
        <ele>54.84</ele>
      </trkpt>
      <trkpt lat="49.15218" lon="-1.11403">
        <ele>52.01</ele>
      </trkpt>
      <trkpt lat="49.15238" lon="-1.11422">
        <ele>51.93</ele>
      </trkpt>
      <trkpt lat="49.15306" lon="-1.1147">
        <ele>49.22</ele>
      </trkpt>
      <trkpt lat="49.15319" lon="-1.11473">
        <ele>49.22</ele>
      </trkpt>
      <trkpt lat="49.15319" lon="-1.11474">
        <ele>49.22</ele>
      </trkpt>
      <trkpt lat="49.15317" lon="-1.1147">
        <ele>49.22</ele>
      </trkpt>
      <trkpt lat="49.15317" lon="-1.11463">
        <ele>49.22</ele>
      </trkpt>
      <trkpt lat="49.15367" lon="-1.1137">
        <ele>51.57</ele>
      </trkpt>
      <trkpt lat="49.15418" lon="-1.11278">
        <ele>56.64</ele>
      </trkpt>
      <trkpt lat="49.15468" lon="-1.11185">
        <ele>62.4</ele>
      </trkpt>
      <trkpt lat="49.15505" lon="-1.11087">
        <ele>67.52</ele>
      </trkpt>
      <trkpt lat="49.15537" lon="-1.11021">
        <ele>71.54</ele>
      </trkpt>
      <trkpt lat="49.15568" lon="-1.10955">
        <ele>73.73</ele>
      </trkpt>
      <trkpt lat="49.15581" lon="-1.10941">
        <ele>71.94</ele>
      </trkpt>
      <trkpt lat="49.15601" lon="-1.10946">
        <ele>70.56</ele>
      </trkpt>
      <trkpt lat="49.15648" lon="-1.10951">
        <ele>69.94</ele>
      </trkpt>
      <trkpt lat="49.15688" lon="-1.10951">
        <ele>68.3</ele>
      </trkpt>
      <trkpt lat="49.15754" lon="-1.10965">
        <ele>66.02</ele>
      </trkpt>
      <trkpt lat="49.1582" lon="-1.10979">
        <ele>63.01</ele>
      </trkpt>
      <trkpt lat="49.15888" lon="-1.10985">
        <ele>61.13</ele>
      </trkpt>
      <trkpt lat="49.15951" lon="-1.10992">
        <ele>59.02</ele>
      </trkpt>
      <trkpt lat="49.15984" lon="-1.10999">
        <ele>56.8</ele>
      </trkpt>
      <trkpt lat="49.16002" lon="-1.10999">
        <ele>56.15</ele>
      </trkpt>
      <trkpt lat="49.16012" lon="-1.11007">
        <ele>55.75</ele>
      </trkpt>
      <trkpt lat="49.16022" lon="-1.10956">
        <ele>58.65</ele>
      </trkpt>
      <trkpt lat="49.16022" lon="-1.10954">
        <ele>58.66</ele>
      </trkpt>
      <trkpt lat="49.16001" lon="-1.10875">
        <ele>58.86</ele>
      </trkpt>
      <trkpt lat="49.15979" lon="-1.10795">
        <ele>57.23</ele>
      </trkpt>
      <trkpt lat="49.15953" lon="-1.10778">
        <ele>57.33</ele>
      </trkpt>
      <trkpt lat="49.15892" lon="-1.10724">
        <ele>57.76</ele>
      </trkpt>
      <trkpt lat="49.15841" lon="-1.10658">
        <ele>56</ele>
      </trkpt>
      <trkpt lat="49.15798" lon="-1.10585">
        <ele>51.72</ele>
      </trkpt>
      <trkpt lat="49.15755" lon="-1.10511">
        <ele>52.75</ele>
      </trkpt>
      <trkpt lat="49.15737" lon="-1.10494">
        <ele>52.61</ele>
      </trkpt>
      <trkpt lat="49.15698" lon="-1.10464">
        <ele>53.34</ele>
      </trkpt>
      <trkpt lat="49.15615" lon="-1.10419">
        <ele>50.73</ele>
      </trkpt>
      <trkpt lat="49.15555" lon="-1.10364">
        <ele>47.35</ele>
      </trkpt>
      <trkpt lat="49.15511" lon="-1.10318">
        <ele>48.27</ele>
      </trkpt>
      <trkpt lat="49.15472" lon="-1.10304">
        <ele>49.11</ele>
      </trkpt>
      <trkpt lat="49.15423" lon="-1.10294">
        <ele>48.8</ele>
      </trkpt>
      <trkpt lat="49.154" lon="-1.1027">
        <ele>48.78</ele>
      </trkpt>
      <trkpt lat="49.15339" lon="-1.1023">
        <ele>48.71</ele>
      </trkpt>
      <trkpt lat="49.15268" lon="-1.10206">
        <ele>48.4</ele>
      </trkpt>
      <trkpt lat="49.15186" lon="-1.10192">
        <ele>56.16</ele>
      </trkpt>
      <trkpt lat="49.15156" lon="-1.10189">
        <ele>58</ele>
      </trkpt>
      <trkpt lat="49.15097" lon="-1.10155">
        <ele>57.3</ele>
      </trkpt>
      <trkpt lat="49.15039" lon="-1.10117">
        <ele>59.04</ele>
      </trkpt>
      <trkpt lat="49.15002" lon="-1.10104">
        <ele>60.53</ele>
      </trkpt>
      <trkpt lat="49.14933" lon="-1.10089">
        <ele>59.91</ele>
      </trkpt>
      <trkpt lat="49.14892" lon="-1.10094">
        <ele>67.68</ele>
      </trkpt>
      <trkpt lat="49.14883" lon="-1.10097">
        <ele>67.68</ele>
      </trkpt>
      <trkpt lat="49.14879" lon="-1.101">
        <ele>68.97</ele>
      </trkpt>
      <trkpt lat="49.14817" lon="-1.1007">
        <ele>70.66</ele>
      </trkpt>
      <trkpt lat="49.14755" lon="-1.1004">
        <ele>73.08</ele>
      </trkpt>
      <trkpt lat="49.14699" lon="-1.10011">
        <ele>76.89</ele>
      </trkpt>
      <trkpt lat="49.14648" lon="-1.09997">
        <ele>79.07</ele>
      </trkpt>
      <trkpt lat="49.14597" lon="-1.09982">
        <ele>79.27</ele>
      </trkpt>
      <trkpt lat="49.14598" lon="-1.09982">
        <ele>79.27</ele>
      </trkpt>
      <trkpt lat="49.14586" lon="-1.09978">
        <ele>79.21</ele>
      </trkpt>
      <trkpt lat="49.14514" lon="-1.09925">
        <ele>83.27</ele>
      </trkpt>
      <trkpt lat="49.14463" lon="-1.09874">
        <ele>85.49</ele>
      </trkpt>
      <trkpt lat="49.14411" lon="-1.09823">
        <ele>85.89</ele>
      </trkpt>
      <trkpt lat="49.14357" lon="-1.09775">
        <ele>85.04</ele>
      </trkpt>
      <trkpt lat="49.14306" lon="-1.09758">
        <ele>86.94</ele>
      </trkpt>
      <trkpt lat="49.14252" lon="-1.09752">
        <ele>91.66</ele>
      </trkpt>
      <trkpt lat="49.14198" lon="-1.09745">
        <ele>95.06</ele>
      </trkpt>
      <trkpt lat="49.14135" lon="-1.09724">
        <ele>98.12</ele>
      </trkpt>
      <trkpt lat="49.14101" lon="-1.09708">
        <ele>98.71</ele>
      </trkpt>
      <trkpt lat="49.14056" lon="-1.09691">
        <ele>99.39</ele>
      </trkpt>
      <trkpt lat="49.14011" lon="-1.0966">
        <ele>99.19</ele>
      </trkpt>
      <trkpt lat="49.13956" lon="-1.09606">
        <ele>100.22</ele>
      </trkpt>
      <trkpt lat="49.139" lon="-1.0957">
        <ele>103.15</ele>
      </trkpt>
      <trkpt lat="49.13844" lon="-1.09545">
        <ele>104.43</ele>
      </trkpt>
      <trkpt lat="49.13832" lon="-1.09535">
        <ele>105.27</ele>
      </trkpt>
      <trkpt lat="49.13833" lon="-1.09535">
        <ele>105.27</ele>
      </trkpt>
      <trkpt lat="49.13899" lon="-1.09504">
        <ele>102.67</ele>
      </trkpt>
      <trkpt lat="49.13911" lon="-1.09502">
        <ele>102.67</ele>
      </trkpt>
      <trkpt lat="49.13921" lon="-1.09494">
        <ele>102.2</ele>
      </trkpt>
      <trkpt lat="49.13951" lon="-1.0948">
        <ele>99.76</ele>
      </trkpt>
      <trkpt lat="49.13998" lon="-1.09467">
        <ele>97.61</ele>
      </trkpt>
      <trkpt lat="49.14044" lon="-1.09453">
        <ele>95.17</ele>
      </trkpt>
      <trkpt lat="49.14064" lon="-1.09443">
        <ele>93.66</ele>
      </trkpt>
      <trkpt lat="49.14107" lon="-1.09412">
        <ele>88.94</ele>
      </trkpt>
      <trkpt lat="49.14146" lon="-1.09392">
        <ele>84.04</ele>
      </trkpt>
      <trkpt lat="49.14202" lon="-1.09389">
        <ele>77.86</ele>
      </trkpt>
      <trkpt lat="49.14258" lon="-1.09385">
        <ele>73.01</ele>
      </trkpt>
      <trkpt lat="49.1431" lon="-1.09368">
        <ele>70.31</ele>
      </trkpt>
      <trkpt lat="49.14325" lon="-1.09362">
        <ele>70.11</ele>
      </trkpt>
      <trkpt lat="49.14337" lon="-1.09351">
        <ele>69.97</ele>
      </trkpt>
      <trkpt lat="49.14343" lon="-1.09339">
        <ele>70.03</ele>
      </trkpt>
      <trkpt lat="49.14344" lon="-1.09297">
        <ele>70.42</ele>
      </trkpt>
      <trkpt lat="49.14347" lon="-1.09263">
        <ele>71.31</ele>
      </trkpt>
      <trkpt lat="49.14356" lon="-1.09236">
        <ele>71.52</ele>
      </trkpt>
      <trkpt lat="49.14369" lon="-1.09216">
        <ele>71.96</ele>
      </trkpt>
      <trkpt lat="49.14419" lon="-1.09159">
        <ele>74.28</ele>
      </trkpt>
      <trkpt lat="49.14462" lon="-1.09113">
        <ele>76.63</ele>
      </trkpt>
      <trkpt lat="49.14504" lon="-1.09067">
        <ele>80.24</ele>
      </trkpt>
      <trkpt lat="49.14562" lon="-1.08972">
        <ele>81</ele>
      </trkpt>
      <trkpt lat="49.14595" lon="-1.08894">
        <ele>80.93</ele>
      </trkpt>
      <trkpt lat="49.14628" lon="-1.08816">
        <ele>81.04</ele>
      </trkpt>
      <trkpt lat="49.14647" lon="-1.08754">
        <ele>81.93</ele>
      </trkpt>
      <trkpt lat="49.14653" lon="-1.08694">
        <ele>82.67</ele>
      </trkpt>
      <trkpt lat="49.14659" lon="-1.0867">
        <ele>82.91</ele>
      </trkpt>
      <trkpt lat="49.14674" lon="-1.08643">
        <ele>83.14</ele>
      </trkpt>
      <trkpt lat="49.14686" lon="-1.08629">
        <ele>83.31</ele>
      </trkpt>
      <trkpt lat="49.14693" lon="-1.08623">
        <ele>83.31</ele>
      </trkpt>
      <trkpt lat="49.1472" lon="-1.08613">
        <ele>84.07</ele>
      </trkpt>
      <trkpt lat="49.14737" lon="-1.08603">
        <ele>85.07</ele>
      </trkpt>
      <trkpt lat="49.14755" lon="-1.08588">
        <ele>85.61</ele>
      </trkpt>
      <trkpt lat="49.14765" lon="-1.08629">
        <ele>85.38</ele>
      </trkpt>
      <trkpt lat="49.14817" lon="-1.08667">
        <ele>88.71</ele>
      </trkpt>
      <trkpt lat="49.14872" lon="-1.08694">
        <ele>92.57</ele>
      </trkpt>
      <trkpt lat="49.14893" lon="-1.08711">
        <ele>93.44</ele>
      </trkpt>
      <trkpt lat="49.14923" lon="-1.08745">
        <ele>93.84</ele>
      </trkpt>
      <trkpt lat="49.14934" lon="-1.08752">
        <ele>94.12</ele>
      </trkpt>
      <trkpt lat="49.14978" lon="-1.08765">
        <ele>94.86</ele>
      </trkpt>
      <trkpt lat="49.14988" lon="-1.08735">
        <ele>94.95</ele>
      </trkpt>
      <trkpt lat="49.15002" lon="-1.08704">
        <ele>95.04</ele>
      </trkpt>
      <trkpt lat="49.15021" lon="-1.08684">
        <ele>95.15</ele>
      </trkpt>
      <trkpt lat="49.15042" lon="-1.0867">
        <ele>95.23</ele>
      </trkpt>
      <trkpt lat="49.151" lon="-1.08585">
        <ele>95.88</ele>
      </trkpt>
      <trkpt lat="49.15154" lon="-1.08525">
        <ele>96.28</ele>
      </trkpt>
      <trkpt lat="49.15189" lon="-1.08467">
        <ele>96.99</ele>
      </trkpt>
      <trkpt lat="49.15201" lon="-1.08431">
        <ele>97.15</ele>
      </trkpt>
      <trkpt lat="49.15202" lon="-1.08429">
        <ele>97.16</ele>
      </trkpt>
      <trkpt lat="49.15221" lon="-1.08334">
        <ele>97.65</ele>
      </trkpt>
      <trkpt lat="49.15239" lon="-1.0824">
        <ele>98.12</ele>
      </trkpt>
      <trkpt lat="49.15258" lon="-1.08145">
        <ele>98.5</ele>
      </trkpt>
      <trkpt lat="49.1526" lon="-1.08084">
        <ele>98.9</ele>
      </trkpt>
      <trkpt lat="49.15272" lon="-1.07977">
        <ele>99.69</ele>
      </trkpt>
      <trkpt lat="49.15284" lon="-1.07869">
        <ele>101.45</ele>
      </trkpt>
      <trkpt lat="49.15235" lon="-1.07789">
        <ele>102.18</ele>
      </trkpt>
      <trkpt lat="49.15205" lon="-1.07697">
        <ele>102.73</ele>
      </trkpt>
      <trkpt lat="49.15168" lon="-1.07616">
        <ele>103.89</ele>
      </trkpt>
      <trkpt lat="49.1512" lon="-1.07547">
        <ele>105.32</ele>
      </trkpt>
      <trkpt lat="49.15071" lon="-1.07478">
        <ele>107.15</ele>
      </trkpt>
      <trkpt lat="49.15034" lon="-1.07378">
        <ele>108.46</ele>
      </trkpt>
      <trkpt lat="49.14996" lon="-1.07278">
        <ele>108.39</ele>
      </trkpt>
      <trkpt lat="49.14944" lon="-1.07274">
        <ele>107.87</ele>
      </trkpt>
      <trkpt lat="49.14891" lon="-1.0727">
        <ele>108</ele>
      </trkpt>
      <trkpt lat="49.14826" lon="-1.07247">
        <ele>108.84</ele>
      </trkpt>
      <trkpt lat="49.14764" lon="-1.07277">
        <ele>112.19</ele>
      </trkpt>
      <trkpt lat="49.1475" lon="-1.07211">
        <ele>112.69</ele>
      </trkpt>
      <trkpt lat="49.14726" lon="-1.07127">
        <ele>113.21</ele>
      </trkpt>
      <trkpt lat="49.14702" lon="-1.07043">
        <ele>114.05</ele>
      </trkpt>
      <trkpt lat="49.1468" lon="-1.06939">
        <ele>115.29</ele>
      </trkpt>
      <trkpt lat="49.14661" lon="-1.06877">
        <ele>116.09</ele>
      </trkpt>
      <trkpt lat="49.14641" lon="-1.06815">
        <ele>116.3</ele>
      </trkpt>
      <trkpt lat="49.14634" lon="-1.06801">
        <ele>116.3</ele>
      </trkpt>
      <trkpt lat="49.14614" lon="-1.06759">
        <ele>116.5</ele>
      </trkpt>
      <trkpt lat="49.14572" lon="-1.06703">
        <ele>115.78</ele>
      </trkpt>
      <trkpt lat="49.14529" lon="-1.06647">
        <ele>113.12</ele>
      </trkpt>
      <trkpt lat="49.1451" lon="-1.0663">
        <ele>112.93</ele>
      </trkpt>
      <trkpt lat="49.14505" lon="-1.06621">
        <ele>112.93</ele>
      </trkpt>
      <trkpt lat="49.14504" lon="-1.06621">
        <ele>112.93</ele>
      </trkpt>
      <trkpt lat="49.14482" lon="-1.06633">
        <ele>112.94</ele>
      </trkpt>
      <trkpt lat="49.14423" lon="-1.06677">
        <ele>114.62</ele>
      </trkpt>
      <trkpt lat="49.14364" lon="-1.06721">
        <ele>117.45</ele>
      </trkpt>
      <trkpt lat="49.14349" lon="-1.06722">
        <ele>118.64</ele>
      </trkpt>
      <trkpt lat="49.14287" lon="-1.06759">
        <ele>121.42</ele>
      </trkpt>
      <trkpt lat="49.14218" lon="-1.06836">
        <ele>127.48</ele>
      </trkpt>
      <trkpt lat="49.14148" lon="-1.06912">
        <ele>131.9</ele>
      </trkpt>
      <trkpt lat="49.14079" lon="-1.06989">
        <ele>132.77</ele>
      </trkpt>
      <trkpt lat="49.14053" lon="-1.07013">
        <ele>132.97</ele>
      </trkpt>
      <trkpt lat="49.14044" lon="-1.07011">
        <ele>132.81</ele>
      </trkpt>
      <trkpt lat="49.14051" lon="-1.07026">
        <ele>132.03</ele>
      </trkpt>
      <trkpt lat="49.14056" lon="-1.07101">
        <ele>130.86</ele>
      </trkpt>
      <trkpt lat="49.14069" lon="-1.07162">
        <ele>129.84</ele>
      </trkpt>
      <trkpt lat="49.1408" lon="-1.07179">
        <ele>129.08</ele>
      </trkpt>
      <trkpt lat="49.14124" lon="-1.07236">
        <ele>128.3</ele>
      </trkpt>
      <trkpt lat="49.14127" lon="-1.07247">
        <ele>128.3</ele>
      </trkpt>
      <trkpt lat="49.14125" lon="-1.07261">
        <ele>128.03</ele>
      </trkpt>
      <trkpt lat="49.14117" lon="-1.07281">
        <ele>127.71</ele>
      </trkpt>
      <trkpt lat="49.14118" lon="-1.07291">
        <ele>127.71</ele>
      </trkpt>
      <trkpt lat="49.14125" lon="-1.07308">
        <ele>127.09</ele>
      </trkpt>
      <trkpt lat="49.14155" lon="-1.07372">
        <ele>124.39</ele>
      </trkpt>
      <trkpt lat="49.14185" lon="-1.07436">
        <ele>122.44</ele>
      </trkpt>
      <trkpt lat="49.14189" lon="-1.0745">
        <ele>121.79</ele>
      </trkpt>
      <trkpt lat="49.1419" lon="-1.07461">
        <ele>121.79</ele>
      </trkpt>
      <trkpt lat="49.14178" lon="-1.07484">
        <ele>121.21</ele>
      </trkpt>
      <trkpt lat="49.14177" lon="-1.07494">
        <ele>121.21</ele>
      </trkpt>
      <trkpt lat="49.14179" lon="-1.07508">
        <ele>120.93</ele>
      </trkpt>
      <trkpt lat="49.14203" lon="-1.07569">
        <ele>118.97</ele>
      </trkpt>
      <trkpt lat="49.14205" lon="-1.07579">
        <ele>118.97</ele>
      </trkpt>
      <trkpt lat="49.14202" lon="-1.07592">
        <ele>117.72</ele>
      </trkpt>
      <trkpt lat="49.14183" lon="-1.07619">
        <ele>116.91</ele>
      </trkpt>
      <trkpt lat="49.14173" lon="-1.0764">
        <ele>116.31</ele>
      </trkpt>
      <trkpt lat="49.14172" lon="-1.0764">
        <ele>116.31</ele>
      </trkpt>
      <trkpt lat="49.14164" lon="-1.07643">
        <ele>116.31</ele>
      </trkpt>
      <trkpt lat="49.14141" lon="-1.07657">
        <ele>117.33</ele>
      </trkpt>
      <trkpt lat="49.14117" lon="-1.07667">
        <ele>118.27</ele>
      </trkpt>
      <trkpt lat="49.14105" lon="-1.07664">
        <ele>118.76</ele>
      </trkpt>
      <trkpt lat="49.14082" lon="-1.07647">
        <ele>120.85</ele>
      </trkpt>
      <trkpt lat="49.14037" lon="-1.07637">
        <ele>123.56</ele>
      </trkpt>
      <trkpt lat="49.13991" lon="-1.07626">
        <ele>125.43</ele>
      </trkpt>
      <trkpt lat="49.13903" lon="-1.07643">
        <ele>127.3</ele>
      </trkpt>
      <trkpt lat="49.13851" lon="-1.0762">
        <ele>127.74</ele>
      </trkpt>
      <trkpt lat="49.13802" lon="-1.07735">
        <ele>125.57</ele>
      </trkpt>
      <trkpt lat="49.13748" lon="-1.07833">
        <ele>124.89</ele>
      </trkpt>
      <trkpt lat="49.1374" lon="-1.07918">
        <ele>124.68</ele>
      </trkpt>
      <trkpt lat="49.13725" lon="-1.07993">
        <ele>124.27</ele>
      </trkpt>
      <trkpt lat="49.13709" lon="-1.08067">
        <ele>123.93</ele>
      </trkpt>
      <trkpt lat="49.13642" lon="-1.08133">
        <ele>123.24</ele>
      </trkpt>
      <trkpt lat="49.13574" lon="-1.08199">
        <ele>122.86</ele>
      </trkpt>
      <trkpt lat="49.13557" lon="-1.08219">
        <ele>122.59</ele>
      </trkpt>
      <trkpt lat="49.13495" lon="-1.08268">
        <ele>121.08</ele>
      </trkpt>
      <trkpt lat="49.13433" lon="-1.08318">
        <ele>119.75</ele>
      </trkpt>
      <trkpt lat="49.1337" lon="-1.08367">
        <ele>118.93</ele>
      </trkpt>
      <trkpt lat="49.13308" lon="-1.08416">
        <ele>118.36</ele>
      </trkpt>
      <trkpt lat="49.13253" lon="-1.08442">
        <ele>115.85</ele>
      </trkpt>
      <trkpt lat="49.13198" lon="-1.08467">
        <ele>112.58</ele>
      </trkpt>
      <trkpt lat="49.13129" lon="-1.08484">
        <ele>107.84</ele>
      </trkpt>
      <trkpt lat="49.13109" lon="-1.08521">
        <ele>104.8</ele>
      </trkpt>
      <trkpt lat="49.13079" lon="-1.08521">
        <ele>103.05</ele>
      </trkpt>
      <trkpt lat="49.13067" lon="-1.08541">
        <ele>102.08</ele>
      </trkpt>
      <trkpt lat="49.13017" lon="-1.0854">
        <ele>98.96</ele>
      </trkpt>
      <trkpt lat="49.12966" lon="-1.08538">
        <ele>94.91</ele>
      </trkpt>
      <trkpt lat="49.12951" lon="-1.08567">
        <ele>93.78</ele>
      </trkpt>
      <trkpt lat="49.12867" lon="-1.08585">
        <ele>89.48</ele>
      </trkpt>
      <trkpt lat="49.1283" lon="-1.08569">
        <ele>87.95</ele>
      </trkpt>
      <trkpt lat="49.12788" lon="-1.08524">
        <ele>86.97</ele>
      </trkpt>
      <trkpt lat="49.12748" lon="-1.08575">
        <ele>87.22</ele>
      </trkpt>
      <trkpt lat="49.12721" lon="-1.0865">
        <ele>94.34</ele>
      </trkpt>
      <trkpt lat="49.12677" lon="-1.08596">
        <ele>95.29</ele>
      </trkpt>
      <trkpt lat="49.12633" lon="-1.08541">
        <ele>93.72</ele>
      </trkpt>
      <trkpt lat="49.12632" lon="-1.08541">
        <ele>93.71</ele>
      </trkpt>
      <trkpt lat="49.12625" lon="-1.08558">
        <ele>93.65</ele>
      </trkpt>
      <trkpt lat="49.12611" lon="-1.08628">
        <ele>95.17</ele>
      </trkpt>
      <trkpt lat="49.12596" lon="-1.08697">
        <ele>96.13</ele>
      </trkpt>
      <trkpt lat="49.12587" lon="-1.08769">
        <ele>96.03</ele>
      </trkpt>
      <trkpt lat="49.12577" lon="-1.0884">
        <ele>96.1</ele>
      </trkpt>
      <trkpt lat="49.12567" lon="-1.0888">
        <ele>96.32</ele>
      </trkpt>
      <trkpt lat="49.12543" lon="-1.0896">
        <ele>95.23</ele>
      </trkpt>
      <trkpt lat="49.12534" lon="-1.08965">
        <ele>95.03</ele>
      </trkpt>
      <trkpt lat="49.12518" lon="-1.0898">
        <ele>94.71</ele>
      </trkpt>
      <trkpt lat="49.12512" lon="-1.08976">
        <ele>94.11</ele>
      </trkpt>
      <trkpt lat="49.12502" lon="-1.08979">
        <ele>93.48</ele>
      </trkpt>
      <trkpt lat="49.12454" lon="-1.09004">
        <ele>89.56</ele>
      </trkpt>
      <trkpt lat="49.12411" lon="-1.09038">
        <ele>87.32</ele>
      </trkpt>
      <trkpt lat="49.12367" lon="-1.09071">
        <ele>84.32</ele>
      </trkpt>
      <trkpt lat="49.12368" lon="-1.0907">
        <ele>84.36</ele>
      </trkpt>
      <trkpt lat="49.12353" lon="-1.0905">
        <ele>84.47</ele>
      </trkpt>
      <trkpt lat="49.12305" lon="-1.09009">
        <ele>81.47</ele>
      </trkpt>
      <trkpt lat="49.12256" lon="-1.08968">
        <ele>77.4</ele>
      </trkpt>
      <trkpt lat="49.12225" lon="-1.08951">
        <ele>73.7</ele>
      </trkpt>
      <trkpt lat="49.12222" lon="-1.08944">
        <ele>73.7</ele>
      </trkpt>
      <trkpt lat="49.12226" lon="-1.08928">
        <ele>73.74</ele>
      </trkpt>
      <trkpt lat="49.1221" lon="-1.08907">
        <ele>69.73</ele>
      </trkpt>
      <trkpt lat="49.12202" lon="-1.0889">
        <ele>68.41</ele>
      </trkpt>
      <trkpt lat="49.12141" lon="-1.08935">
        <ele>64.4</ele>
      </trkpt>
      <trkpt lat="49.12106" lon="-1.08979">
        <ele>59.99</ele>
      </trkpt>
      <trkpt lat="49.12095" lon="-1.08979">
        <ele>59.99</ele>
      </trkpt>
      <trkpt lat="49.12086" lon="-1.08966">
        <ele>58.57</ele>
      </trkpt>
      <trkpt lat="49.12099" lon="-1.08907">
        <ele>54.29</ele>
      </trkpt>
      <trkpt lat="49.12099" lon="-1.08898">
        <ele>54.29</ele>
      </trkpt>
      <trkpt lat="49.12096" lon="-1.0889">
        <ele>54.29</ele>
      </trkpt>
      <trkpt lat="49.12083" lon="-1.08876">
        <ele>53.19</ele>
      </trkpt>
      <trkpt lat="49.12117" lon="-1.0884">
        <ele>51.6</ele>
      </trkpt>
      <trkpt lat="49.12173" lon="-1.0883">
        <ele>48.36</ele>
      </trkpt>
      <trkpt lat="49.12183" lon="-1.08827">
        <ele>48.36</ele>
      </trkpt>
      <trkpt lat="49.12206" lon="-1.08809">
        <ele>44.73</ele>
      </trkpt>
      <trkpt lat="49.12219" lon="-1.08792">
        <ele>44.73</ele>
      </trkpt>
      <trkpt lat="49.1223" lon="-1.08772">
        <ele>43.35</ele>
      </trkpt>
      <trkpt lat="49.12235" lon="-1.08758">
        <ele>41.35</ele>
      </trkpt>
      <trkpt lat="49.12236" lon="-1.08748">
        <ele>41.35</ele>
      </trkpt>
      <trkpt lat="49.12234" lon="-1.08738">
        <ele>41.35</ele>
      </trkpt>
      <trkpt lat="49.1223" lon="-1.08733">
        <ele>40.43</ele>
      </trkpt>
      <trkpt lat="49.12228" lon="-1.08731">
        <ele>40.26</ele>
      </trkpt>
      <trkpt lat="49.12222" lon="-1.08728">
        <ele>40.26</ele>
      </trkpt>
      <trkpt lat="49.12217" lon="-1.08728">
        <ele>40.26</ele>
      </trkpt>
      <trkpt lat="49.12184" lon="-1.08748">
        <ele>35.82</ele>
      </trkpt>
      <trkpt lat="49.12174" lon="-1.08752">
        <ele>35.13</ele>
      </trkpt>
      <trkpt lat="49.12123" lon="-1.08744">
        <ele>33.55</ele>
      </trkpt>
      <trkpt lat="49.12071" lon="-1.08736">
        <ele>29.24</ele>
      </trkpt>
      <trkpt lat="49.12044" lon="-1.08741">
        <ele>28.11</ele>
      </trkpt>
      <trkpt lat="49.11996" lon="-1.08754">
        <ele>26.39</ele>
      </trkpt>
      <trkpt lat="49.11948" lon="-1.08766">
        <ele>24.79</ele>
      </trkpt>
      <trkpt lat="49.11946" lon="-1.08762">
        <ele>24.79</ele>
      </trkpt>
      <trkpt lat="49.11943" lon="-1.08761">
        <ele>24.63</ele>
      </trkpt>
      <trkpt lat="49.11942" lon="-1.08762">
        <ele>24.63</ele>
      </trkpt>
      <trkpt lat="49.11939" lon="-1.08745">
        <ele>24.63</ele>
      </trkpt>
      <trkpt lat="49.11934" lon="-1.0869">
        <ele>24.08</ele>
      </trkpt>
      <trkpt lat="49.11926" lon="-1.08666">
        <ele>24.2</ele>
      </trkpt>
      <trkpt lat="49.11941" lon="-1.08643">
        <ele>24.89</ele>
        <extensions>
          <visugpx:TrkExtension xmlns:visugpx="https://www.visugpx.com/editgpx/">
            <visugpx:node>2</visugpx:node>
            </visugpx:TrkExtension>
        </extensions>
      </trkpt>
    </trkseg>
  </trk>
</gpx>