<?xml version="1.0" encoding="UTF-8" standalone="no" ?>
<gpx xmlns="http://www.topografix.com/GPX/1/1" xmlns:xsi="http://www.w3.org/2001/XMLSchema-instance" xsi:schemaLocation="http://www.topografix.com/GPX/1/1 http://www.topografix.com/GPX/1/1/gpx.xsd" version="1.1" creator="VisuGPX - https://www.visugpx.com">
  <metadata>
    <name>Challenge AGGLO VTT OK BRUT</name>
    <desc><![CDATA[Canisy + Saint Ebremond de Bonfossé]]></desc>
  </metadata>
  <trk>
    <name><![CDATA[St Martin de Bonfossé]]></name>
    <extensions>
      <line xmlns="http://www.topografix.com/GPX/gpx_style/0/2">
        <color>0000FF</color>
        <opacity>1</opacity>
        <width>4</width>
          <extensions>
            <sens>1</sens>
          </extensions>
      </line>
    </extensions>
    <trkseg>
      <trkpt lat="49.05365" lon="-1.16985">
        <ele>103.99</ele>
        <extensions>
          <visugpx:TrkExtension xmlns:visugpx="https://www.visugpx.com/editgpx/">
            <visugpx:node>2</visugpx:node>
            </visugpx:TrkExtension>
        </extensions>
      </trkpt>
      <trkpt lat="49.05347" lon="-1.16975">
        <ele>103.5</ele>
      </trkpt>
      <trkpt lat="49.0533" lon="-1.16971">
        <ele>103.18</ele>
      </trkpt>
      <trkpt lat="49.05315" lon="-1.16976">
        <ele>103.09</ele>
      </trkpt>
      <trkpt lat="49.05308" lon="-1.16985">
        <ele>103.12</ele>
      </trkpt>
      <trkpt lat="49.05267" lon="-1.17069">
        <ele>104.24</ele>
      </trkpt>
      <trkpt lat="49.05227" lon="-1.17105">
        <ele>104.75</ele>
      </trkpt>
      <trkpt lat="49.05187" lon="-1.1714">
        <ele>105.6</ele>
      </trkpt>
      <trkpt lat="49.05147" lon="-1.17188">
        <ele>105.83</ele>
      </trkpt>
      <trkpt lat="49.05128" lon="-1.17205">
        <ele>105.83</ele>
      </trkpt>
      <trkpt lat="49.05085" lon="-1.17235">
        <ele>105.87</ele>
      </trkpt>
      <trkpt lat="49.05042" lon="-1.17265">
        <ele>106.38</ele>
      </trkpt>
      <trkpt lat="49.05042" lon="-1.17265">
        <ele>106.38</ele>
      </trkpt>
      <trkpt lat="49.05" lon="-1.17296">
        <ele>107.25</ele>
      </trkpt>
      <trkpt lat="49.04964" lon="-1.17364">
        <ele>108.3</ele>
      </trkpt>
      <trkpt lat="49.04927" lon="-1.17431">
        <ele>110.8</ele>
      </trkpt>
      <trkpt lat="49.0493" lon="-1.17435">
        <ele>110.78</ele>
      </trkpt>
      <trkpt lat="49.04906" lon="-1.17479">
        <ele>111.27</ele>
      </trkpt>
      <trkpt lat="49.04857" lon="-1.17576">
        <ele>113.87</ele>
      </trkpt>
      <trkpt lat="49.04807" lon="-1.17672">
        <ele>115.66</ele>
      </trkpt>
      <trkpt lat="49.04789" lon="-1.17689">
        <ele>116.38</ele>
      </trkpt>
      <trkpt lat="49.04726" lon="-1.17713">
        <ele>117.99</ele>
      </trkpt>
      <trkpt lat="49.04711" lon="-1.17726">
        <ele>118.2</ele>
      </trkpt>
      <trkpt lat="49.04665" lon="-1.17662">
        <ele>117.54</ele>
      </trkpt>
      <trkpt lat="49.0462" lon="-1.17598">
        <ele>115.67</ele>
      </trkpt>
      <trkpt lat="49.04574" lon="-1.17534">
        <ele>114.46</ele>
      </trkpt>
      <trkpt lat="49.04582" lon="-1.17523">
        <ele>114.42</ele>
      </trkpt>
      <trkpt lat="49.04558" lon="-1.17472">
        <ele>109.64</ele>
      </trkpt>
      <trkpt lat="49.04539" lon="-1.17445">
        <ele>107.92</ele>
      </trkpt>
      <trkpt lat="49.0447" lon="-1.17415">
        <ele>102.96</ele>
      </trkpt>
      <trkpt lat="49.04439" lon="-1.17422">
        <ele>100.16</ele>
      </trkpt>
      <trkpt lat="49.04426" lon="-1.17412">
        <ele>99.51</ele>
      </trkpt>
      <trkpt lat="49.04422" lon="-1.17401">
        <ele>98.94</ele>
      </trkpt>
      <trkpt lat="49.0439" lon="-1.17367">
        <ele>97.4</ele>
      </trkpt>
      <trkpt lat="49.0437" lon="-1.17367">
        <ele>96.59</ele>
      </trkpt>
      <trkpt lat="49.04368" lon="-1.17366">
        <ele>96.56</ele>
      </trkpt>
      <trkpt lat="49.04302" lon="-1.17293">
        <ele>94.87</ele>
      </trkpt>
      <trkpt lat="49.04324" lon="-1.17242">
        <ele>92.11</ele>
      </trkpt>
      <trkpt lat="49.04323" lon="-1.17198">
        <ele>90.29</ele>
      </trkpt>
      <trkpt lat="49.04303" lon="-1.1712">
        <ele>86.6</ele>
      </trkpt>
      <trkpt lat="49.04303" lon="-1.17117">
        <ele>86.52</ele>
      </trkpt>
      <trkpt lat="49.04302" lon="-1.17113">
        <ele>86.52</ele>
      </trkpt>
      <trkpt lat="49.04261" lon="-1.17079">
        <ele>87.51</ele>
      </trkpt>
      <trkpt lat="49.04224" lon="-1.17011">
        <ele>91.15</ele>
      </trkpt>
      <trkpt lat="49.04187" lon="-1.16942">
        <ele>96.59</ele>
      </trkpt>
      <trkpt lat="49.04159" lon="-1.16869">
        <ele>100.32</ele>
      </trkpt>
      <trkpt lat="49.04131" lon="-1.16795">
        <ele>105.56</ele>
      </trkpt>
      <trkpt lat="49.04103" lon="-1.16738">
        <ele>108.07</ele>
      </trkpt>
      <trkpt lat="49.04074" lon="-1.1668">
        <ele>109.45</ele>
      </trkpt>
      <trkpt lat="49.04048" lon="-1.16613">
        <ele>110.31</ele>
      </trkpt>
      <trkpt lat="49.04021" lon="-1.16545">
        <ele>112.39</ele>
      </trkpt>
      <trkpt lat="49.04022" lon="-1.16529">
        <ele>112.4</ele>
      </trkpt>
      <trkpt lat="49.04007" lon="-1.16514">
        <ele>112.6</ele>
      </trkpt>
      <trkpt lat="49.03963" lon="-1.16401">
        <ele>111.43</ele>
      </trkpt>
      <trkpt lat="49.0395" lon="-1.16388">
        <ele>111.21</ele>
      </trkpt>
      <trkpt lat="49.03945" lon="-1.16386">
        <ele>111.23</ele>
      </trkpt>
      <trkpt lat="49.03944" lon="-1.16385">
        <ele>111.23</ele>
      </trkpt>
      <trkpt lat="49.03934" lon="-1.16381">
        <ele>111.35</ele>
      </trkpt>
      <trkpt lat="49.03917" lon="-1.16384">
        <ele>111.89</ele>
      </trkpt>
      <trkpt lat="49.03861" lon="-1.16441">
        <ele>115.14</ele>
      </trkpt>
      <trkpt lat="49.03818" lon="-1.16334">
        <ele>111.81</ele>
      </trkpt>
      <trkpt lat="49.03774" lon="-1.16226">
        <ele>104.76</ele>
      </trkpt>
      <trkpt lat="49.03731" lon="-1.16119">
        <ele>99.97</ele>
      </trkpt>
      <trkpt lat="49.03688" lon="-1.16011">
        <ele>104.5</ele>
      </trkpt>
      <trkpt lat="49.03645" lon="-1.15904">
        <ele>110.41</ele>
      </trkpt>
      <trkpt lat="49.03601" lon="-1.15796">
        <ele>114.67</ele>
      </trkpt>
      <trkpt lat="49.03558" lon="-1.15689">
        <ele>117.59</ele>
      </trkpt>
      <trkpt lat="49.03558" lon="-1.1569">
        <ele>117.64</ele>
      </trkpt>
      <trkpt lat="49.03604" lon="-1.15658">
        <ele>114.43</ele>
      </trkpt>
      <trkpt lat="49.03649" lon="-1.15626">
        <ele>112.37</ele>
      </trkpt>
      <trkpt lat="49.03692" lon="-1.15598">
        <ele>110.37</ele>
      </trkpt>
      <trkpt lat="49.03739" lon="-1.15574">
        <ele>108.14</ele>
      </trkpt>
      <trkpt lat="49.0382" lon="-1.15536">
        <ele>106.53</ele>
      </trkpt>
      <trkpt lat="49.039" lon="-1.15497">
        <ele>104.88</ele>
      </trkpt>
      <trkpt lat="49.03947" lon="-1.15459">
        <ele>103.49</ele>
      </trkpt>
      <trkpt lat="49.0401" lon="-1.15412">
        <ele>102.31</ele>
      </trkpt>
      <trkpt lat="49.04069" lon="-1.15358">
        <ele>102.07</ele>
      </trkpt>
      <trkpt lat="49.04136" lon="-1.15295">
        <ele>102.58</ele>
      </trkpt>
      <trkpt lat="49.04195" lon="-1.15243">
        <ele>103.47</ele>
      </trkpt>
      <trkpt lat="49.04268" lon="-1.15172">
        <ele>105.36</ele>
      </trkpt>
      <trkpt lat="49.0434" lon="-1.151">
        <ele>107.08</ele>
      </trkpt>
      <trkpt lat="49.04353" lon="-1.15089">
        <ele>107.05</ele>
      </trkpt>
      <trkpt lat="49.04353" lon="-1.15088">
        <ele>107.05</ele>
      </trkpt>
      <trkpt lat="49.04344" lon="-1.15052">
        <ele>105.94</ele>
      </trkpt>
      <trkpt lat="49.04333" lon="-1.14981">
        <ele>100.32</ele>
      </trkpt>
      <trkpt lat="49.04322" lon="-1.1491">
        <ele>95.11</ele>
      </trkpt>
      <trkpt lat="49.04319" lon="-1.14869">
        <ele>93.53</ele>
      </trkpt>
      <trkpt lat="49.04318" lon="-1.14791">
        <ele>84.9</ele>
      </trkpt>
      <trkpt lat="49.04316" lon="-1.14778">
        <ele>83.74</ele>
      </trkpt>
      <trkpt lat="49.04311" lon="-1.14764">
        <ele>82.63</ele>
      </trkpt>
      <trkpt lat="49.04296" lon="-1.14737">
        <ele>79.97</ele>
      </trkpt>
      <trkpt lat="49.04287" lon="-1.14727">
        <ele>78.75</ele>
      </trkpt>
      <trkpt lat="49.04275" lon="-1.14717">
        <ele>76.24</ele>
      </trkpt>
      <trkpt lat="49.04254" lon="-1.1471">
        <ele>74.06</ele>
      </trkpt>
      <trkpt lat="49.04245" lon="-1.14703">
        <ele>73.27</ele>
      </trkpt>
      <trkpt lat="49.04229" lon="-1.1466">
        <ele>72.32</ele>
      </trkpt>
      <trkpt lat="49.0422" lon="-1.14649">
        <ele>72.48</ele>
      </trkpt>
      <trkpt lat="49.04206" lon="-1.14642">
        <ele>72.48</ele>
      </trkpt>
      <trkpt lat="49.04148" lon="-1.14622">
        <ele>74.96</ele>
      </trkpt>
      <trkpt lat="49.04127" lon="-1.14608">
        <ele>75.98</ele>
      </trkpt>
      <trkpt lat="49.04117" lon="-1.14591">
        <ele>77.38</ele>
      </trkpt>
      <trkpt lat="49.04114" lon="-1.14582">
        <ele>78.18</ele>
      </trkpt>
      <trkpt lat="49.04112" lon="-1.14564">
        <ele>79.52</ele>
      </trkpt>
      <trkpt lat="49.04112" lon="-1.14527">
        <ele>81.92</ele>
      </trkpt>
      <trkpt lat="49.04114" lon="-1.14503">
        <ele>83.1</ele>
      </trkpt>
      <trkpt lat="49.04111" lon="-1.14405">
        <ele>87.81</ele>
      </trkpt>
      <trkpt lat="49.04117" lon="-1.14329">
        <ele>89.97</ele>
      </trkpt>
      <trkpt lat="49.04122" lon="-1.14253">
        <ele>94.3</ele>
      </trkpt>
      <trkpt lat="49.0412" lon="-1.14212">
        <ele>97.65</ele>
      </trkpt>
      <trkpt lat="49.04111" lon="-1.14156">
        <ele>99.56</ele>
      </trkpt>
      <trkpt lat="49.04086" lon="-1.14025">
        <ele>100.63</ele>
      </trkpt>
      <trkpt lat="49.04076" lon="-1.13948">
        <ele>101.36</ele>
      </trkpt>
      <trkpt lat="49.04069" lon="-1.13917">
        <ele>101.36</ele>
      </trkpt>
      <trkpt lat="49.04047" lon="-1.13855">
        <ele>102</ele>
      </trkpt>
      <trkpt lat="49.04025" lon="-1.13792">
        <ele>103.04</ele>
      </trkpt>
      <trkpt lat="49.04003" lon="-1.13723">
        <ele>104.69</ele>
      </trkpt>
      <trkpt lat="49.0398" lon="-1.13653">
        <ele>107.73</ele>
      </trkpt>
      <trkpt lat="49.03973" lon="-1.13643">
        <ele>108.03</ele>
      </trkpt>
      <trkpt lat="49.03964" lon="-1.13639">
        <ele>108.52</ele>
      </trkpt>
      <trkpt lat="49.03922" lon="-1.13639">
        <ele>110.09</ele>
      </trkpt>
      <trkpt lat="49.03886" lon="-1.13632">
        <ele>111.06</ele>
      </trkpt>
      <trkpt lat="49.03858" lon="-1.13622">
        <ele>111.88</ele>
      </trkpt>
      <trkpt lat="49.03847" lon="-1.13612">
        <ele>111.88</ele>
      </trkpt>
      <trkpt lat="49.0384" lon="-1.13588">
        <ele>112.21</ele>
      </trkpt>
      <trkpt lat="49.03835" lon="-1.13555">
        <ele>113.06</ele>
      </trkpt>
      <trkpt lat="49.03828" lon="-1.13476">
        <ele>113.36</ele>
      </trkpt>
      <trkpt lat="49.0379" lon="-1.13456">
        <ele>113.32</ele>
      </trkpt>
      <trkpt lat="49.03739" lon="-1.13436">
        <ele>113.96</ele>
      </trkpt>
      <trkpt lat="49.0369" lon="-1.13402">
        <ele>113.2</ele>
      </trkpt>
      <trkpt lat="49.03689" lon="-1.13391">
        <ele>113.2</ele>
      </trkpt>
      <trkpt lat="49.03731" lon="-1.13358">
        <ele>112.3</ele>
      </trkpt>
      <trkpt lat="49.03756" lon="-1.13334">
        <ele>113.83</ele>
      </trkpt>
      <trkpt lat="49.03776" lon="-1.13318">
        <ele>114.48</ele>
      </trkpt>
      <trkpt lat="49.03827" lon="-1.1332">
        <ele>116.03</ele>
      </trkpt>
      <trkpt lat="49.03874" lon="-1.13309">
        <ele>117.29</ele>
      </trkpt>
      <trkpt lat="49.0392" lon="-1.13297">
        <ele>116.71</ele>
      </trkpt>
      <trkpt lat="49.03945" lon="-1.13287">
        <ele>115.79</ele>
      </trkpt>
      <trkpt lat="49.03993" lon="-1.13276">
        <ele>113.93</ele>
      </trkpt>
      <trkpt lat="49.04049" lon="-1.1327">
        <ele>112.96</ele>
      </trkpt>
      <trkpt lat="49.04136" lon="-1.13246">
        <ele>109.58</ele>
      </trkpt>
      <trkpt lat="49.0422" lon="-1.13204">
        <ele>103.83</ele>
      </trkpt>
      <trkpt lat="49.04233" lon="-1.13188">
        <ele>103.2</ele>
      </trkpt>
      <trkpt lat="49.04306" lon="-1.1311">
        <ele>100.93</ele>
      </trkpt>
      <trkpt lat="49.04327" lon="-1.1309">
        <ele>101.01</ele>
      </trkpt>
      <trkpt lat="49.04376" lon="-1.13053">
        <ele>101.56</ele>
      </trkpt>
      <trkpt lat="49.04424" lon="-1.13015">
        <ele>102.82</ele>
      </trkpt>
      <trkpt lat="49.04469" lon="-1.12987">
        <ele>103.98</ele>
      </trkpt>
      <trkpt lat="49.04513" lon="-1.12958">
        <ele>105.29</ele>
      </trkpt>
      <trkpt lat="49.04537" lon="-1.12948">
        <ele>105.78</ele>
      </trkpt>
      <trkpt lat="49.04561" lon="-1.12929">
        <ele>106.11</ele>
      </trkpt>
      <trkpt lat="49.0464" lon="-1.1288">
        <ele>106.96</ele>
      </trkpt>
      <trkpt lat="49.04642" lon="-1.1287">
        <ele>107.34</ele>
      </trkpt>
      <trkpt lat="49.04642" lon="-1.12868">
        <ele>107.37</ele>
      </trkpt>
      <trkpt lat="49.04643" lon="-1.12866">
        <ele>107.37</ele>
      </trkpt>
      <trkpt lat="49.04583" lon="-1.12809">
        <ele>110.03</ele>
      </trkpt>
      <trkpt lat="49.04578" lon="-1.12793">
        <ele>110.56</ele>
      </trkpt>
      <trkpt lat="49.04554" lon="-1.12796">
        <ele>110.8</ele>
      </trkpt>
      <trkpt lat="49.04546" lon="-1.12782">
        <ele>110.8</ele>
      </trkpt>
      <trkpt lat="49.04515" lon="-1.12767">
        <ele>111.33</ele>
      </trkpt>
      <trkpt lat="49.04463" lon="-1.12761">
        <ele>111.56</ele>
      </trkpt>
      <trkpt lat="49.04419" lon="-1.12761">
        <ele>111.47</ele>
      </trkpt>
      <trkpt lat="49.0437" lon="-1.12767">
        <ele>111.49</ele>
      </trkpt>
      <trkpt lat="49.04301" lon="-1.12787">
        <ele>112.05</ele>
      </trkpt>
      <trkpt lat="49.04231" lon="-1.12806">
        <ele>113.6</ele>
      </trkpt>
      <trkpt lat="49.04161" lon="-1.12843">
        <ele>115.96</ele>
      </trkpt>
      <trkpt lat="49.0409" lon="-1.1288">
        <ele>119.98</ele>
      </trkpt>
      <trkpt lat="49.04074" lon="-1.1288">
        <ele>120.79</ele>
      </trkpt>
      <trkpt lat="49.04005" lon="-1.12849">
        <ele>122.48</ele>
      </trkpt>
      <trkpt lat="49.03933" lon="-1.12829">
        <ele>122.39</ele>
      </trkpt>
      <trkpt lat="49.03879" lon="-1.12833">
        <ele>122.1</ele>
      </trkpt>
      <trkpt lat="49.03824" lon="-1.12836">
        <ele>122.35</ele>
      </trkpt>
      <trkpt lat="49.03765" lon="-1.12826">
        <ele>124.11</ele>
      </trkpt>
      <trkpt lat="49.03739" lon="-1.12816">
        <ele>124.56</ele>
      </trkpt>
      <trkpt lat="49.03661" lon="-1.12778">
        <ele>127.64</ele>
      </trkpt>
      <trkpt lat="49.03584" lon="-1.12754">
        <ele>131.02</ele>
      </trkpt>
      <trkpt lat="49.03525" lon="-1.12732">
        <ele>132.98</ele>
      </trkpt>
      <trkpt lat="49.03467" lon="-1.12709">
        <ele>135.18</ele>
      </trkpt>
      <trkpt lat="49.03408" lon="-1.12687">
        <ele>137.94</ele>
      </trkpt>
      <trkpt lat="49.03355" lon="-1.12656">
        <ele>140.12</ele>
      </trkpt>
      <trkpt lat="49.03297" lon="-1.12653">
        <ele>144.71</ele>
      </trkpt>
      <trkpt lat="49.03238" lon="-1.12632">
        <ele>149.12</ele>
      </trkpt>
      <trkpt lat="49.032" lon="-1.12615">
        <ele>150.65</ele>
      </trkpt>
      <trkpt lat="49.03157" lon="-1.12576">
        <ele>151.49</ele>
      </trkpt>
      <trkpt lat="49.03114" lon="-1.12537">
        <ele>152.52</ele>
      </trkpt>
      <trkpt lat="49.03114" lon="-1.12538">
        <ele>152.52</ele>
      </trkpt>
      <trkpt lat="49.03066" lon="-1.12638">
        <ele>153.34</ele>
      </trkpt>
      <trkpt lat="49.03017" lon="-1.12737">
        <ele>154.74</ele>
      </trkpt>
      <trkpt lat="49.02989" lon="-1.12809">
        <ele>155.91</ele>
      </trkpt>
      <trkpt lat="49.0296" lon="-1.1288">
        <ele>155.23</ele>
      </trkpt>
      <trkpt lat="49.02953" lon="-1.12906">
        <ele>154.86</ele>
      </trkpt>
      <trkpt lat="49.0295" lon="-1.12937">
        <ele>152.87</ele>
      </trkpt>
      <trkpt lat="49.02953" lon="-1.13021">
        <ele>151.38</ele>
      </trkpt>
      <trkpt lat="49.02956" lon="-1.13104">
        <ele>148.8</ele>
      </trkpt>
      <trkpt lat="49.02956" lon="-1.13171">
        <ele>147.68</ele>
      </trkpt>
      <trkpt lat="49.02944" lon="-1.13276">
        <ele>145.05</ele>
      </trkpt>
      <trkpt lat="49.02941" lon="-1.13363">
        <ele>143.95</ele>
      </trkpt>
      <trkpt lat="49.02938" lon="-1.13449">
        <ele>143.37</ele>
      </trkpt>
      <trkpt lat="49.02939" lon="-1.13541">
        <ele>143.06</ele>
      </trkpt>
      <trkpt lat="49.02937" lon="-1.13558">
        <ele>143.25</ele>
      </trkpt>
      <trkpt lat="49.02866" lon="-1.13487">
        <ele>142.94</ele>
      </trkpt>
      <trkpt lat="49.02794" lon="-1.13415">
        <ele>144.81</ele>
      </trkpt>
      <trkpt lat="49.02756" lon="-1.13388">
        <ele>147.08</ele>
      </trkpt>
      <trkpt lat="49.02743" lon="-1.13384">
        <ele>147.17</ele>
      </trkpt>
      <trkpt lat="49.02744" lon="-1.13384">
        <ele>147.17</ele>
      </trkpt>
      <trkpt lat="49.02716" lon="-1.13375">
        <ele>148.42</ele>
      </trkpt>
      <trkpt lat="49.02632" lon="-1.13371">
        <ele>149.31</ele>
      </trkpt>
      <trkpt lat="49.02625" lon="-1.1336">
        <ele>149.42</ele>
      </trkpt>
      <trkpt lat="49.02616" lon="-1.13368">
        <ele>148.27</ele>
      </trkpt>
      <trkpt lat="49.02546" lon="-1.13376">
        <ele>144.14</ele>
      </trkpt>
      <trkpt lat="49.02475" lon="-1.13384">
        <ele>141.64</ele>
      </trkpt>
      <trkpt lat="49.02416" lon="-1.13383">
        <ele>136.66</ele>
      </trkpt>
      <trkpt lat="49.02356" lon="-1.13381">
        <ele>132.08</ele>
      </trkpt>
      <trkpt lat="49.02356" lon="-1.13394">
        <ele>131.7</ele>
      </trkpt>
      <trkpt lat="49.02346" lon="-1.1346">
        <ele>128.6</ele>
      </trkpt>
      <trkpt lat="49.02337" lon="-1.13544">
        <ele>125.36</ele>
      </trkpt>
      <trkpt lat="49.02331" lon="-1.13561">
        <ele>125.33</ele>
      </trkpt>
      <trkpt lat="49.02323" lon="-1.13571">
        <ele>125.23</ele>
      </trkpt>
      <trkpt lat="49.02313" lon="-1.13578">
        <ele>125.01</ele>
      </trkpt>
      <trkpt lat="49.02276" lon="-1.13581">
        <ele>124.34</ele>
      </trkpt>
      <trkpt lat="49.02218" lon="-1.13582">
        <ele>122.35</ele>
      </trkpt>
      <trkpt lat="49.02198" lon="-1.13588">
        <ele>121.28</ele>
      </trkpt>
      <trkpt lat="49.02161" lon="-1.13609">
        <ele>120.5</ele>
      </trkpt>
      <trkpt lat="49.02149" lon="-1.13616">
        <ele>119.69</ele>
      </trkpt>
      <trkpt lat="49.02106" lon="-1.13665">
        <ele>118.53</ele>
      </trkpt>
      <trkpt lat="49.02063" lon="-1.13713">
        <ele>117.37</ele>
      </trkpt>
      <trkpt lat="49.02064" lon="-1.13711">
        <ele>117.4</ele>
      </trkpt>
      <trkpt lat="49.0206" lon="-1.1372">
        <ele>117.14</ele>
      </trkpt>
      <trkpt lat="49.02054" lon="-1.13723">
        <ele>118.9</ele>
      </trkpt>
      <trkpt lat="49.01981" lon="-1.13776">
        <ele>111.9</ele>
      </trkpt>
      <trkpt lat="49.01918" lon="-1.13835">
        <ele>106.1</ele>
      </trkpt>
      <trkpt lat="49.01892" lon="-1.13895">
        <ele>100.4</ele>
      </trkpt>
      <trkpt lat="49.01862" lon="-1.13941">
        <ele>102.8</ele>
      </trkpt>
      <trkpt lat="49.01882" lon="-1.13972">
        <ele>102.5</ele>
      </trkpt>
      <trkpt lat="49.0191" lon="-1.14">
        <ele>104.3</ele>
      </trkpt>
      <trkpt lat="49.0193" lon="-1.14051">
        <ele>107.6</ele>
      </trkpt>
      <trkpt lat="49.01984" lon="-1.14138">
        <ele>111.6</ele>
      </trkpt>
      <trkpt lat="49.02012" lon="-1.14181">
        <ele>113.1</ele>
      </trkpt>
      <trkpt lat="49.02053" lon="-1.14224">
        <ele>113.1</ele>
      </trkpt>
      <trkpt lat="49.02097" lon="-1.14264">
        <ele>109.9</ele>
      </trkpt>
      <trkpt lat="49.02102" lon="-1.14374">
        <ele>111.4</ele>
      </trkpt>
      <trkpt lat="49.02096" lon="-1.14425">
        <ele>113.1</ele>
      </trkpt>
      <trkpt lat="49.02069" lon="-1.14452">
        <ele>114</ele>
      </trkpt>
      <trkpt lat="49.02067" lon="-1.14511">
        <ele>115.5</ele>
      </trkpt>
      <trkpt lat="49.0212" lon="-1.14568">
        <ele>113.8</ele>
      </trkpt>
      <trkpt lat="49.02154" lon="-1.14591">
        <ele>111.74</ele>
      </trkpt>
      <trkpt lat="49.02203" lon="-1.14584">
        <ele>115.3</ele>
      </trkpt>
      <trkpt lat="49.02264" lon="-1.14615">
        <ele>120.6</ele>
      </trkpt>
      <trkpt lat="49.02372" lon="-1.14686">
        <ele>128.2</ele>
      </trkpt>
      <trkpt lat="49.02359" lon="-1.14765">
        <ele>128.4</ele>
      </trkpt>
      <trkpt lat="49.02381" lon="-1.14806">
        <ele>130.4</ele>
      </trkpt>
      <trkpt lat="49.02434" lon="-1.14756">
        <ele>133.4</ele>
      </trkpt>
      <trkpt lat="49.02484" lon="-1.14712">
        <ele>135.3</ele>
      </trkpt>
      <trkpt lat="49.02539" lon="-1.14694">
        <ele>138.8</ele>
      </trkpt>
      <trkpt lat="49.02566" lon="-1.1468">
        <ele>139.9</ele>
      </trkpt>
      <trkpt lat="49.02587" lon="-1.14669">
        <ele>140.5</ele>
      </trkpt>
      <trkpt lat="49.02611" lon="-1.14647">
        <ele>141.6</ele>
      </trkpt>
      <trkpt lat="49.02636" lon="-1.14623">
        <ele>141.9</ele>
      </trkpt>
      <trkpt lat="49.02655" lon="-1.14601">
        <ele>142.6</ele>
      </trkpt>
      <trkpt lat="49.02717" lon="-1.14532">
        <ele>143.1</ele>
      </trkpt>
      <trkpt lat="49.02762" lon="-1.14479">
        <ele>144.1</ele>
      </trkpt>
      <trkpt lat="49.02765" lon="-1.14471">
        <ele>144</ele>
      </trkpt>
      <trkpt lat="49.02764" lon="-1.14463">
        <ele>143.41</ele>
      </trkpt>
      <trkpt lat="49.02783" lon="-1.14456">
        <ele>143.41</ele>
      </trkpt>
      <trkpt lat="49.02798" lon="-1.14441">
        <ele>143.39</ele>
      </trkpt>
      <trkpt lat="49.02799" lon="-1.14441">
        <ele>143.38</ele>
      </trkpt>
      <trkpt lat="49.02802" lon="-1.14459">
        <ele>143.29</ele>
      </trkpt>
      <trkpt lat="49.02801" lon="-1.14469">
        <ele>143.11</ele>
      </trkpt>
      <trkpt lat="49.02776" lon="-1.14585">
        <ele>142.96</ele>
      </trkpt>
      <trkpt lat="49.0275" lon="-1.147">
        <ele>142.44</ele>
      </trkpt>
      <trkpt lat="49.02723" lon="-1.14812">
        <ele>141.97</ele>
      </trkpt>
      <trkpt lat="49.02695" lon="-1.14923">
        <ele>141.75</ele>
      </trkpt>
      <trkpt lat="49.02659" lon="-1.15031">
        <ele>141.97</ele>
      </trkpt>
      <trkpt lat="49.02623" lon="-1.15139">
        <ele>142.46</ele>
      </trkpt>
      <trkpt lat="49.02586" lon="-1.15247">
        <ele>143.13</ele>
      </trkpt>
      <trkpt lat="49.0255" lon="-1.15355">
        <ele>143.84</ele>
      </trkpt>
      <trkpt lat="49.02514" lon="-1.15463">
        <ele>144.75</ele>
      </trkpt>
      <trkpt lat="49.02494" lon="-1.15507">
        <ele>145.03</ele>
      </trkpt>
      <trkpt lat="49.02504" lon="-1.15517">
        <ele>144.61</ele>
      </trkpt>
      <trkpt lat="49.02571" lon="-1.15541">
        <ele>144.17</ele>
      </trkpt>
      <trkpt lat="49.02593" lon="-1.15557">
        <ele>144.16</ele>
      </trkpt>
      <trkpt lat="49.0266" lon="-1.15625">
        <ele>142</ele>
      </trkpt>
      <trkpt lat="49.02694" lon="-1.15652">
        <ele>138.77</ele>
      </trkpt>
      <trkpt lat="49.02702" lon="-1.15666">
        <ele>135.09</ele>
      </trkpt>
      <trkpt lat="49.02708" lon="-1.15696">
        <ele>133.07</ele>
      </trkpt>
      <trkpt lat="49.02717" lon="-1.15713">
        <ele>132.11</ele>
      </trkpt>
      <trkpt lat="49.02747" lon="-1.15734">
        <ele>131.22</ele>
      </trkpt>
      <trkpt lat="49.02771" lon="-1.1574">
        <ele>129.66</ele>
      </trkpt>
      <trkpt lat="49.02795" lon="-1.15744">
        <ele>126.59</ele>
      </trkpt>
      <trkpt lat="49.02851" lon="-1.15774">
        <ele>120.49</ele>
      </trkpt>
      <trkpt lat="49.02858" lon="-1.15775">
        <ele>120.49</ele>
      </trkpt>
      <trkpt lat="49.02863" lon="-1.1577">
        <ele>119.33</ele>
      </trkpt>
      <trkpt lat="49.02857" lon="-1.15798">
        <ele>115.64</ele>
      </trkpt>
      <trkpt lat="49.02856" lon="-1.15822">
        <ele>113.4</ele>
      </trkpt>
      <trkpt lat="49.0285" lon="-1.15849">
        <ele>110.91</ele>
      </trkpt>
      <trkpt lat="49.02849" lon="-1.15866">
        <ele>109.89</ele>
      </trkpt>
      <trkpt lat="49.02851" lon="-1.15876">
        <ele>109.55</ele>
      </trkpt>
      <trkpt lat="49.02858" lon="-1.15893">
        <ele>109.34</ele>
      </trkpt>
      <trkpt lat="49.02867" lon="-1.15907">
        <ele>110.23</ele>
      </trkpt>
      <trkpt lat="49.02918" lon="-1.15971">
        <ele>119.55</ele>
      </trkpt>
      <trkpt lat="49.02986" lon="-1.16051">
        <ele>129.56</ele>
      </trkpt>
      <trkpt lat="49.03054" lon="-1.1613">
        <ele>138.4</ele>
      </trkpt>
      <trkpt lat="49.03066" lon="-1.1614">
        <ele>139.41</ele>
      </trkpt>
      <trkpt lat="49.03079" lon="-1.16147">
        <ele>141.06</ele>
      </trkpt>
      <trkpt lat="49.03129" lon="-1.16157">
        <ele>144.33</ele>
      </trkpt>
      <trkpt lat="49.0314" lon="-1.16157">
        <ele>144.9</ele>
      </trkpt>
      <trkpt lat="49.0315" lon="-1.16147">
        <ele>145.09</ele>
      </trkpt>
      <trkpt lat="49.03157" lon="-1.16144">
        <ele>145.02</ele>
      </trkpt>
      <trkpt lat="49.03166" lon="-1.16145">
        <ele>144.83</ele>
      </trkpt>
      <trkpt lat="49.03166" lon="-1.16146">
        <ele>144.88</ele>
      </trkpt>
      <trkpt lat="49.03155" lon="-1.16192">
        <ele>147.81</ele>
      </trkpt>
      <trkpt lat="49.03149" lon="-1.16259">
        <ele>153.13</ele>
      </trkpt>
      <trkpt lat="49.0314" lon="-1.16314">
        <ele>155.63</ele>
      </trkpt>
      <trkpt lat="49.03112" lon="-1.16413">
        <ele>159.38</ele>
      </trkpt>
      <trkpt lat="49.03081" lon="-1.16491">
        <ele>161.88</ele>
      </trkpt>
      <trkpt lat="49.03049" lon="-1.16568">
        <ele>162.9</ele>
      </trkpt>
      <trkpt lat="49.03036" lon="-1.16608">
        <ele>163.41</ele>
      </trkpt>
      <trkpt lat="49.03022" lon="-1.16706">
        <ele>164.99</ele>
      </trkpt>
      <trkpt lat="49.03016" lon="-1.16731">
        <ele>165.56</ele>
      </trkpt>
      <trkpt lat="49.03005" lon="-1.16737">
        <ele>165.56</ele>
      </trkpt>
      <trkpt lat="49.02963" lon="-1.16774">
        <ele>164.46</ele>
      </trkpt>
      <trkpt lat="49.02948" lon="-1.16791">
        <ele>164.17</ele>
      </trkpt>
      <trkpt lat="49.02932" lon="-1.16818">
        <ele>162.04</ele>
      </trkpt>
      <trkpt lat="49.0292" lon="-1.16832">
        <ele>162.04</ele>
      </trkpt>
      <trkpt lat="49.0287" lon="-1.1687">
        <ele>160.4</ele>
      </trkpt>
      <trkpt lat="49.02825" lon="-1.16914">
        <ele>159.99</ele>
      </trkpt>
      <trkpt lat="49.0278" lon="-1.16957">
        <ele>159.98</ele>
      </trkpt>
      <trkpt lat="49.0276" lon="-1.16974">
        <ele>160.44</ele>
      </trkpt>
      <trkpt lat="49.02715" lon="-1.17005">
        <ele>161.75</ele>
      </trkpt>
      <trkpt lat="49.02673" lon="-1.17015">
        <ele>162.12</ele>
      </trkpt>
      <trkpt lat="49.02658" lon="-1.17022">
        <ele>162.18</ele>
      </trkpt>
      <trkpt lat="49.0263" lon="-1.17043">
        <ele>162.11</ele>
      </trkpt>
      <trkpt lat="49.02566" lon="-1.17086">
        <ele>161.02</ele>
      </trkpt>
      <trkpt lat="49.02533" lon="-1.171">
        <ele>159.16</ele>
      </trkpt>
      <trkpt lat="49.02497" lon="-1.1711">
        <ele>157.03</ele>
      </trkpt>
      <trkpt lat="49.02451" lon="-1.17119">
        <ele>154.7</ele>
      </trkpt>
      <trkpt lat="49.02404" lon="-1.17127">
        <ele>153.01</ele>
      </trkpt>
      <trkpt lat="49.02349" lon="-1.17156">
        <ele>148.74</ele>
      </trkpt>
      <trkpt lat="49.02294" lon="-1.17184">
        <ele>144.68</ele>
      </trkpt>
      <trkpt lat="49.02258" lon="-1.172">
        <ele>142.93</ele>
      </trkpt>
      <trkpt lat="49.02261" lon="-1.17172">
        <ele>143.21</ele>
      </trkpt>
      <trkpt lat="49.02265" lon="-1.17197">
        <ele>143.35</ele>
      </trkpt>
      <trkpt lat="49.02258" lon="-1.172">
        <ele>143.35</ele>
      </trkpt>
      <trkpt lat="49.02188" lon="-1.17259">
        <ele>138.78</ele>
      </trkpt>
      <trkpt lat="49.0217" lon="-1.17276">
        <ele>138.25</ele>
      </trkpt>
      <trkpt lat="49.02149" lon="-1.17303">
        <ele>137.36</ele>
      </trkpt>
      <trkpt lat="49.02099" lon="-1.17371">
        <ele>135.6</ele>
      </trkpt>
      <trkpt lat="49.0206" lon="-1.17422">
        <ele>132.58</ele>
      </trkpt>
      <trkpt lat="49.0202" lon="-1.17473">
        <ele>130.58</ele>
      </trkpt>
      <trkpt lat="49.02003" lon="-1.17493">
        <ele>129.82</ele>
      </trkpt>
      <trkpt lat="49.01988" lon="-1.17506">
        <ele>128.19</ele>
      </trkpt>
      <trkpt lat="49.01956" lon="-1.17523">
        <ele>127.79</ele>
      </trkpt>
      <trkpt lat="49.01946" lon="-1.1753">
        <ele>126.72</ele>
      </trkpt>
      <trkpt lat="49.01933" lon="-1.17547">
        <ele>126.34</ele>
      </trkpt>
      <trkpt lat="49.01903" lon="-1.17597">
        <ele>124.84</ele>
      </trkpt>
      <trkpt lat="49.01859" lon="-1.17671">
        <ele>123.67</ele>
      </trkpt>
      <trkpt lat="49.01814" lon="-1.17745">
        <ele>122.11</ele>
      </trkpt>
      <trkpt lat="49.01778" lon="-1.178">
        <ele>121</ele>
      </trkpt>
      <trkpt lat="49.01741" lon="-1.17855">
        <ele>119.17</ele>
      </trkpt>
      <trkpt lat="49.01723" lon="-1.17884">
        <ele>119.17</ele>
      </trkpt>
      <trkpt lat="49.01712" lon="-1.17913">
        <ele>118.46</ele>
      </trkpt>
      <trkpt lat="49.01691" lon="-1.17998">
        <ele>115.77</ele>
      </trkpt>
      <trkpt lat="49.0167" lon="-1.18083">
        <ele>110.81</ele>
      </trkpt>
      <trkpt lat="49.01623" lon="-1.18198">
        <ele>108.74</ele>
      </trkpt>
      <trkpt lat="49.01612" lon="-1.18208">
        <ele>108.97</ele>
      </trkpt>
      <trkpt lat="49.01599" lon="-1.18215">
        <ele>108.73</ele>
      </trkpt>
      <trkpt lat="49.0155" lon="-1.18225">
        <ele>105.77</ele>
      </trkpt>
      <trkpt lat="49.01542" lon="-1.18229">
        <ele>105.37</ele>
      </trkpt>
      <trkpt lat="49.01534" lon="-1.18245">
        <ele>104.94</ele>
      </trkpt>
      <trkpt lat="49.01509" lon="-1.18347">
        <ele>104.07</ele>
      </trkpt>
      <trkpt lat="49.01485" lon="-1.18448">
        <ele>104.3</ele>
      </trkpt>
      <trkpt lat="49.0146" lon="-1.1855">
        <ele>102.91</ele>
      </trkpt>
      <trkpt lat="49.01451" lon="-1.18618">
        <ele>101.29</ele>
      </trkpt>
      <trkpt lat="49.01442" lon="-1.18686">
        <ele>100.78</ele>
      </trkpt>
      <trkpt lat="49.01408" lon="-1.18761">
        <ele>101.84</ele>
      </trkpt>
      <trkpt lat="49.01409" lon="-1.18759">
        <ele>101.81</ele>
      </trkpt>
      <trkpt lat="49.01408" lon="-1.18778">
        <ele>102.38</ele>
      </trkpt>
      <trkpt lat="49.01412" lon="-1.18795">
        <ele>103.37</ele>
      </trkpt>
      <trkpt lat="49.01427" lon="-1.18822">
        <ele>105.56</ele>
      </trkpt>
      <trkpt lat="49.0145" lon="-1.18855">
        <ele>109.91</ele>
      </trkpt>
      <trkpt lat="49.0145" lon="-1.18876">
        <ele>110.64</ele>
      </trkpt>
      <trkpt lat="49.0143" lon="-1.18952">
        <ele>110.14</ele>
      </trkpt>
      <trkpt lat="49.01491" lon="-1.18974">
        <ele>112.75</ele>
      </trkpt>
      <trkpt lat="49.01544" lon="-1.18986">
        <ele>113.62</ele>
      </trkpt>
      <trkpt lat="49.01597" lon="-1.18997">
        <ele>115.44</ele>
      </trkpt>
      <trkpt lat="49.01616" lon="-1.19011">
        <ele>116.02</ele>
      </trkpt>
      <trkpt lat="49.01631" lon="-1.19029">
        <ele>116.5</ele>
      </trkpt>
      <trkpt lat="49.01669" lon="-1.19096">
        <ele>117.25</ele>
      </trkpt>
      <trkpt lat="49.01711" lon="-1.19181">
        <ele>120.74</ele>
      </trkpt>
      <trkpt lat="49.01725" lon="-1.19205">
        <ele>121.69</ele>
      </trkpt>
      <trkpt lat="49.01788" lon="-1.19261">
        <ele>125.14</ele>
      </trkpt>
      <trkpt lat="49.01851" lon="-1.19316">
        <ele>127.19</ele>
      </trkpt>
      <trkpt lat="49.01892" lon="-1.19343">
        <ele>127.59</ele>
      </trkpt>
      <trkpt lat="49.01898" lon="-1.19352">
        <ele>127.43</ele>
      </trkpt>
      <trkpt lat="49.01898" lon="-1.19364">
        <ele>127.16</ele>
      </trkpt>
      <trkpt lat="49.01892" lon="-1.19387">
        <ele>126.46</ele>
      </trkpt>
      <trkpt lat="49.01864" lon="-1.19459">
        <ele>125.35</ele>
      </trkpt>
      <trkpt lat="49.01836" lon="-1.1953">
        <ele>124.59</ele>
      </trkpt>
      <trkpt lat="49.01811" lon="-1.19588">
        <ele>123.93</ele>
      </trkpt>
      <trkpt lat="49.01786" lon="-1.19645">
        <ele>122.99</ele>
      </trkpt>
      <trkpt lat="49.01786" lon="-1.19654">
        <ele>122.99</ele>
      </trkpt>
      <trkpt lat="49.01789" lon="-1.19665">
        <ele>122.31</ele>
      </trkpt>
      <trkpt lat="49.01834" lon="-1.19711">
        <ele>119.37</ele>
      </trkpt>
      <trkpt lat="49.01878" lon="-1.19757">
        <ele>113.61</ele>
      </trkpt>
      <trkpt lat="49.01907" lon="-1.19781">
        <ele>108.27</ele>
      </trkpt>
      <trkpt lat="49.01927" lon="-1.19791">
        <ele>105.42</ele>
      </trkpt>
      <trkpt lat="49.01953" lon="-1.19808">
        <ele>103.42</ele>
      </trkpt>
      <trkpt lat="49.01968" lon="-1.19825">
        <ele>102.56</ele>
      </trkpt>
      <trkpt lat="49.01977" lon="-1.19848">
        <ele>102.62</ele>
      </trkpt>
      <trkpt lat="49.02002" lon="-1.19957">
        <ele>106.85</ele>
      </trkpt>
      <trkpt lat="49.02038" lon="-1.20079">
        <ele>116.62</ele>
      </trkpt>
      <trkpt lat="49.02079" lon="-1.20186">
        <ele>121.75</ele>
      </trkpt>
      <trkpt lat="49.02119" lon="-1.20292">
        <ele>126.21</ele>
      </trkpt>
      <trkpt lat="49.02159" lon="-1.20348">
        <ele>131.56</ele>
      </trkpt>
      <trkpt lat="49.02198" lon="-1.20404">
        <ele>136.05</ele>
      </trkpt>
      <trkpt lat="49.02201" lon="-1.20407">
        <ele>136.08</ele>
      </trkpt>
      <trkpt lat="49.02225" lon="-1.2033">
        <ele>138.51</ele>
      </trkpt>
      <trkpt lat="49.02244" lon="-1.20255">
        <ele>141.12</ele>
      </trkpt>
      <trkpt lat="49.02248" lon="-1.20204">
        <ele>142.66</ele>
      </trkpt>
      <trkpt lat="49.02252" lon="-1.20201">
        <ele>143.37</ele>
      </trkpt>
      <trkpt lat="49.02296" lon="-1.20231">
        <ele>145.37</ele>
      </trkpt>
      <trkpt lat="49.02332" lon="-1.20131">
        <ele>149.09</ele>
      </trkpt>
      <trkpt lat="49.02367" lon="-1.20031">
        <ele>151.81</ele>
      </trkpt>
      <trkpt lat="49.02421" lon="-1.19937">
        <ele>154.06</ele>
      </trkpt>
      <trkpt lat="49.02427" lon="-1.1993">
        <ele>154.35</ele>
      </trkpt>
      <trkpt lat="49.02478" lon="-1.19947">
        <ele>157.38</ele>
      </trkpt>
      <trkpt lat="49.02489" lon="-1.1993">
        <ele>157.99</ele>
      </trkpt>
      <trkpt lat="49.0253" lon="-1.19852">
        <ele>160.2</ele>
      </trkpt>
      <trkpt lat="49.02546" lon="-1.19828">
        <ele>161.03</ele>
      </trkpt>
      <trkpt lat="49.02581" lon="-1.19794">
        <ele>161.45</ele>
      </trkpt>
      <trkpt lat="49.02621" lon="-1.19761">
        <ele>160.67</ele>
      </trkpt>
      <trkpt lat="49.02658" lon="-1.19727">
        <ele>159.45</ele>
      </trkpt>
      <trkpt lat="49.02656" lon="-1.19729">
        <ele>159.51</ele>
      </trkpt>
      <trkpt lat="49.0273" lon="-1.19693">
        <ele>154.5</ele>
      </trkpt>
      <trkpt lat="49.02767" lon="-1.19682">
        <ele>152.06</ele>
      </trkpt>
      <trkpt lat="49.02815" lon="-1.19686">
        <ele>148.66</ele>
      </trkpt>
      <trkpt lat="49.02887" lon="-1.19757">
        <ele>142.13</ele>
      </trkpt>
      <trkpt lat="49.02898" lon="-1.19761">
        <ele>141.25</ele>
      </trkpt>
      <trkpt lat="49.02941" lon="-1.1976">
        <ele>139.53</ele>
      </trkpt>
      <trkpt lat="49.02974" lon="-1.19771">
        <ele>139.3</ele>
      </trkpt>
      <trkpt lat="49.03021" lon="-1.1981">
        <ele>139.43</ele>
      </trkpt>
      <trkpt lat="49.03101" lon="-1.19805">
        <ele>138.02</ele>
      </trkpt>
      <trkpt lat="49.03128" lon="-1.19808">
        <ele>137.25</ele>
      </trkpt>
      <trkpt lat="49.03205" lon="-1.19835">
        <ele>134.65</ele>
      </trkpt>
      <trkpt lat="49.03223" lon="-1.19839">
        <ele>133.75</ele>
      </trkpt>
      <trkpt lat="49.03257" lon="-1.19839">
        <ele>130.99</ele>
      </trkpt>
      <trkpt lat="49.03282" lon="-1.19835">
        <ele>131.46</ele>
      </trkpt>
      <trkpt lat="49.03336" lon="-1.19818">
        <ele>133.21</ele>
      </trkpt>
      <trkpt lat="49.0341" lon="-1.19771">
        <ele>131.69</ele>
      </trkpt>
      <trkpt lat="49.03432" lon="-1.19761">
        <ele>131.14</ele>
      </trkpt>
      <trkpt lat="49.03454" lon="-1.1976">
        <ele>130.21</ele>
      </trkpt>
      <trkpt lat="49.03493" lon="-1.19764">
        <ele>129.11</ele>
      </trkpt>
      <trkpt lat="49.03547" lon="-1.19774">
        <ele>127.76</ele>
      </trkpt>
      <trkpt lat="49.03566" lon="-1.19775">
        <ele>127.18</ele>
      </trkpt>
      <trkpt lat="49.03632" lon="-1.19781">
        <ele>126.18</ele>
      </trkpt>
      <trkpt lat="49.03709" lon="-1.19777">
        <ele>125.16</ele>
      </trkpt>
      <trkpt lat="49.03756" lon="-1.19779">
        <ele>124.91</ele>
      </trkpt>
      <trkpt lat="49.03803" lon="-1.19781">
        <ele>124.25</ele>
      </trkpt>
      <trkpt lat="49.0384" lon="-1.19787">
        <ele>123.44</ele>
      </trkpt>
      <trkpt lat="49.03913" lon="-1.1978">
        <ele>121</ele>
      </trkpt>
      <trkpt lat="49.03912" lon="-1.19781">
        <ele>121</ele>
      </trkpt>
      <trkpt lat="49.03938" lon="-1.19771">
        <ele>120.16</ele>
      </trkpt>
      <trkpt lat="49.03966" lon="-1.19754">
        <ele>118.6</ele>
      </trkpt>
      <trkpt lat="49.03989" lon="-1.19732">
        <ele>118.02</ele>
      </trkpt>
      <trkpt lat="49.04011" lon="-1.19692">
        <ele>116.71</ele>
      </trkpt>
      <trkpt lat="49.04044" lon="-1.19608">
        <ele>116.79</ele>
      </trkpt>
      <trkpt lat="49.04063" lon="-1.19539">
        <ele>117.24</ele>
      </trkpt>
      <trkpt lat="49.04082" lon="-1.19469">
        <ele>117.34</ele>
      </trkpt>
      <trkpt lat="49.04098" lon="-1.19428">
        <ele>116.8</ele>
      </trkpt>
      <trkpt lat="49.04105" lon="-1.19415">
        <ele>116.27</ele>
      </trkpt>
      <trkpt lat="49.04123" lon="-1.19411">
        <ele>115.66</ele>
      </trkpt>
      <trkpt lat="49.04178" lon="-1.19415">
        <ele>113.17</ele>
      </trkpt>
      <trkpt lat="49.0423" lon="-1.19422">
        <ele>111.56</ele>
      </trkpt>
      <trkpt lat="49.04281" lon="-1.19428">
        <ele>109.87</ele>
      </trkpt>
      <trkpt lat="49.04338" lon="-1.19431">
        <ele>109.07</ele>
      </trkpt>
      <trkpt lat="49.04349" lon="-1.19428">
        <ele>108.89</ele>
      </trkpt>
      <trkpt lat="49.0436" lon="-1.19421">
        <ele>108.75</ele>
      </trkpt>
      <trkpt lat="49.04375" lon="-1.19404">
        <ele>108.44</ele>
      </trkpt>
      <trkpt lat="49.04437" lon="-1.19306">
        <ele>106.96</ele>
      </trkpt>
      <trkpt lat="49.04454" lon="-1.19265">
        <ele>106.26</ele>
      </trkpt>
      <trkpt lat="49.04462" lon="-1.19204">
        <ele>104.97</ele>
      </trkpt>
      <trkpt lat="49.04467" lon="-1.19188">
        <ele>104.97</ele>
      </trkpt>
      <trkpt lat="49.04481" lon="-1.19177">
        <ele>104.59</ele>
      </trkpt>
      <trkpt lat="49.04524" lon="-1.19161">
        <ele>103.58</ele>
      </trkpt>
      <trkpt lat="49.04522" lon="-1.1911">
        <ele>102.6</ele>
      </trkpt>
      <trkpt lat="49.04525" lon="-1.19042">
        <ele>100.11</ele>
      </trkpt>
      <trkpt lat="49.04523" lon="-1.19028">
        <ele>99.69</ele>
      </trkpt>
      <trkpt lat="49.04533" lon="-1.19028">
        <ele>99.91</ele>
      </trkpt>
      <trkpt lat="49.04579" lon="-1.19032">
        <ele>102.64</ele>
      </trkpt>
      <trkpt lat="49.04624" lon="-1.19035">
        <ele>103.93</ele>
      </trkpt>
      <trkpt lat="49.0463" lon="-1.19048">
        <ele>103.93</ele>
      </trkpt>
      <trkpt lat="49.04638" lon="-1.19103">
        <ele>104.69</ele>
      </trkpt>
      <trkpt lat="49.04643" lon="-1.1911">
        <ele>104.8</ele>
      </trkpt>
      <trkpt lat="49.04683" lon="-1.1911">
        <ele>104.93</ele>
      </trkpt>
      <trkpt lat="49.04696" lon="-1.19181">
        <ele>105.26</ele>
      </trkpt>
      <trkpt lat="49.04705" lon="-1.19194">
        <ele>105.31</ele>
      </trkpt>
      <trkpt lat="49.04758" lon="-1.19167">
        <ele>103.67</ele>
      </trkpt>
      <trkpt lat="49.0481" lon="-1.1914">
        <ele>101.14</ele>
      </trkpt>
      <trkpt lat="49.04828" lon="-1.19062">
        <ele>99.13</ele>
      </trkpt>
      <trkpt lat="49.04869" lon="-1.18964">
        <ele>91.71</ele>
      </trkpt>
      <trkpt lat="49.04887" lon="-1.18913">
        <ele>88.66</ele>
      </trkpt>
      <trkpt lat="49.049" lon="-1.18901">
        <ele>88.23</ele>
      </trkpt>
      <trkpt lat="49.04899" lon="-1.18902">
        <ele>88.27</ele>
      </trkpt>
      <trkpt lat="49.04901" lon="-1.189">
        <ele>88.27</ele>
      </trkpt>
      <trkpt lat="49.04964" lon="-1.18916">
        <ele>86.98</ele>
      </trkpt>
      <trkpt lat="49.04994" lon="-1.18943">
        <ele>85.34</ele>
      </trkpt>
      <trkpt lat="49.05041" lon="-1.19004">
        <ele>85.17</ele>
      </trkpt>
      <trkpt lat="49.05071" lon="-1.19045">
        <ele>88.45</ele>
      </trkpt>
      <trkpt lat="49.05114" lon="-1.19139">
        <ele>91.14</ele>
      </trkpt>
      <trkpt lat="49.05134" lon="-1.1916">
        <ele>91.36</ele>
      </trkpt>
      <trkpt lat="49.05158" lon="-1.19191">
        <ele>91.52</ele>
      </trkpt>
      <trkpt lat="49.05193" lon="-1.19244">
        <ele>90.38</ele>
      </trkpt>
      <trkpt lat="49.05227" lon="-1.19296">
        <ele>85.36</ele>
      </trkpt>
      <trkpt lat="49.05245" lon="-1.19306">
        <ele>84.61</ele>
      </trkpt>
      <trkpt lat="49.05272" lon="-1.19306">
        <ele>85.2</ele>
      </trkpt>
      <trkpt lat="49.05302" lon="-1.19344">
        <ele>86.57</ele>
      </trkpt>
      <trkpt lat="49.05376" lon="-1.19404">
        <ele>85.4</ele>
      </trkpt>
      <trkpt lat="49.0542" lon="-1.19423">
        <ele>84.54</ele>
      </trkpt>
      <trkpt lat="49.05464" lon="-1.19442">
        <ele>83.62</ele>
      </trkpt>
      <trkpt lat="49.0551" lon="-1.19483">
        <ele>83.56</ele>
      </trkpt>
      <trkpt lat="49.05556" lon="-1.19523">
        <ele>81.08</ele>
      </trkpt>
      <trkpt lat="49.05621" lon="-1.1954">
        <ele>73.55</ele>
      </trkpt>
      <trkpt lat="49.05659" lon="-1.19551">
        <ele>71.19</ele>
      </trkpt>
      <trkpt lat="49.05732" lon="-1.19608">
        <ele>69.8</ele>
      </trkpt>
      <trkpt lat="49.05804" lon="-1.19673">
        <ele>68.92</ele>
      </trkpt>
      <trkpt lat="49.05832" lon="-1.19673">
        <ele>68.13</ele>
      </trkpt>
      <trkpt lat="49.05856" lon="-1.19652">
        <ele>65.95</ele>
      </trkpt>
      <trkpt lat="49.05855" lon="-1.19653">
        <ele>65.95</ele>
      </trkpt>
      <trkpt lat="49.05856" lon="-1.19591">
        <ele>67.08</ele>
      </trkpt>
      <trkpt lat="49.05897" lon="-1.1952">
        <ele>72.87</ele>
      </trkpt>
      <trkpt lat="49.05927" lon="-1.19442">
        <ele>78.43</ele>
      </trkpt>
      <trkpt lat="49.05956" lon="-1.19364">
        <ele>81.51</ele>
      </trkpt>
      <trkpt lat="49.05966" lon="-1.19361">
        <ele>82.36</ele>
      </trkpt>
      <trkpt lat="49.05977" lon="-1.19367">
        <ele>82.83</ele>
      </trkpt>
      <trkpt lat="49.05987" lon="-1.19369">
        <ele>84.83</ele>
      </trkpt>
      <trkpt lat="49.06005" lon="-1.19323">
        <ele>85.74</ele>
      </trkpt>
      <trkpt lat="49.06013" lon="-1.19316">
        <ele>85.74</ele>
      </trkpt>
      <trkpt lat="49.06025" lon="-1.19316">
        <ele>85.84</ele>
      </trkpt>
      <trkpt lat="49.06029" lon="-1.19313">
        <ele>86.02</ele>
      </trkpt>
      <trkpt lat="49.06043" lon="-1.19286">
        <ele>86.6</ele>
      </trkpt>
      <trkpt lat="49.0605" lon="-1.19278">
        <ele>86.78</ele>
      </trkpt>
      <trkpt lat="49.06049" lon="-1.19266">
        <ele>86.37</ele>
      </trkpt>
      <trkpt lat="49.06056" lon="-1.19225">
        <ele>85.91</ele>
      </trkpt>
      <trkpt lat="49.06057" lon="-1.19201">
        <ele>85.56</ele>
      </trkpt>
      <trkpt lat="49.06052" lon="-1.19143">
        <ele>85.2</ele>
      </trkpt>
      <trkpt lat="49.06057" lon="-1.19075">
        <ele>86.27</ele>
      </trkpt>
      <trkpt lat="49.06069" lon="-1.19004">
        <ele>87.99</ele>
      </trkpt>
      <trkpt lat="49.06076" lon="-1.18932">
        <ele>89.46</ele>
      </trkpt>
      <trkpt lat="49.06083" lon="-1.18859">
        <ele>91.44</ele>
      </trkpt>
      <trkpt lat="49.06104" lon="-1.1875">
        <ele>94.72</ele>
      </trkpt>
      <trkpt lat="49.0613" lon="-1.18669">
        <ele>98.17</ele>
      </trkpt>
      <trkpt lat="49.06164" lon="-1.18598">
        <ele>100.82</ele>
      </trkpt>
      <trkpt lat="49.06197" lon="-1.18527">
        <ele>102.19</ele>
      </trkpt>
      <trkpt lat="49.06199" lon="-1.18503">
        <ele>102.34</ele>
      </trkpt>
      <trkpt lat="49.06188" lon="-1.18439">
        <ele>102.85</ele>
      </trkpt>
      <trkpt lat="49.06187" lon="-1.18421">
        <ele>102.83</ele>
      </trkpt>
      <trkpt lat="49.06192" lon="-1.18412">
        <ele>102.8</ele>
      </trkpt>
      <trkpt lat="49.06192" lon="-1.1841">
        <ele>102.78</ele>
      </trkpt>
      <trkpt lat="49.0617" lon="-1.18381">
        <ele>102.06</ele>
      </trkpt>
      <trkpt lat="49.06123" lon="-1.18347">
        <ele>101.71</ele>
      </trkpt>
      <trkpt lat="49.06078" lon="-1.183">
        <ele>102.59</ele>
      </trkpt>
      <trkpt lat="49.06014" lon="-1.18217">
        <ele>105.58</ele>
      </trkpt>
      <trkpt lat="49.0595" lon="-1.18133">
        <ele>108.86</ele>
      </trkpt>
      <trkpt lat="49.05894" lon="-1.18072">
        <ele>109.45</ele>
      </trkpt>
      <trkpt lat="49.05838" lon="-1.18011">
        <ele>109.83</ele>
      </trkpt>
      <trkpt lat="49.0579" lon="-1.17967">
        <ele>110.26</ele>
      </trkpt>
      <trkpt lat="49.05722" lon="-1.1793">
        <ele>111.54</ele>
      </trkpt>
      <trkpt lat="49.05655" lon="-1.17902">
        <ele>112.08</ele>
      </trkpt>
      <trkpt lat="49.05622" lon="-1.17879">
        <ele>112.34</ele>
      </trkpt>
      <trkpt lat="49.05614" lon="-1.17859">
        <ele>112.39</ele>
      </trkpt>
      <trkpt lat="49.05599" lon="-1.17754">
        <ele>112.48</ele>
      </trkpt>
      <trkpt lat="49.05582" lon="-1.17678">
        <ele>112.99</ele>
      </trkpt>
      <trkpt lat="49.05564" lon="-1.17601">
        <ele>112.51</ele>
      </trkpt>
      <trkpt lat="49.05566" lon="-1.17561">
        <ele>112.52</ele>
      </trkpt>
      <trkpt lat="49.05564" lon="-1.17537">
        <ele>112.77</ele>
      </trkpt>
      <trkpt lat="49.05526" lon="-1.17483">
        <ele>113.38</ele>
      </trkpt>
      <trkpt lat="49.05521" lon="-1.17463">
        <ele>113.38</ele>
      </trkpt>
      <trkpt lat="49.0552" lon="-1.17398">
        <ele>113.05</ele>
      </trkpt>
      <trkpt lat="49.05514" lon="-1.17344">
        <ele>112.37</ele>
      </trkpt>
      <trkpt lat="49.05495" lon="-1.17256">
        <ele>109.6</ele>
      </trkpt>
      <trkpt lat="49.05466" lon="-1.17163">
        <ele>107.43</ele>
      </trkpt>
      <trkpt lat="49.05436" lon="-1.17069">
        <ele>105.88</ele>
      </trkpt>
      <trkpt lat="49.05413" lon="-1.17025">
        <ele>105.15</ele>
      </trkpt>
      <trkpt lat="49.05365" lon="-1.16985">
        <ele>103.99</ele>
        <extensions>
          <visugpx:TrkExtension xmlns:visugpx="https://www.visugpx.com/editgpx/">
            <visugpx:node>1</visugpx:node>
            </visugpx:TrkExtension>
        </extensions>
      </trkpt>
    </trkseg>
  </trk>
</gpx>