<?xml version="1.0" encoding="UTF-8" standalone="no" ?>
<gpx xmlns="http://www.topografix.com/GPX/1/1" xmlns:xsi="http://www.w3.org/2001/XMLSchema-instance" xsi:schemaLocation="http://www.topografix.com/GPX/1/1 http://www.topografix.com/GPX/1/1/gpx.xsd" version="1.1" creator="VisuGPX - https://www.visugpx.com">
  <metadata>
    <name>Challenge AGGLO VTT</name>
    <desc><![CDATA[Dupliqué de [url]https://www.visugpx.com/aBbL4ESVxn[/url]]]></desc>
  </metadata>
  <wpt lat="49.09332" lon="-1.30669">
    <ele>84.9</ele>
    <name><![CDATA[LE LOREY NON]]></name>
    <type><![CDATA[alarm]]></type>
  </wpt>
  <wpt lat="48.96028" lon="-1.16617">
    <ele>167.2</ele>
    <name><![CDATA[HORS AGGLO]]></name>
    <type><![CDATA[Waypoint]]></type>
  </wpt>
  <wpt lat="48.93355" lon="-1.12301">
    <ele>185.7</ele>
    <name><![CDATA[HORS AGGLO]]></name>
    <type><![CDATA[Waypoint]]></type>
  </wpt>
  <wpt lat="48.93209" lon="-1.09537">
    <ele>142</ele>
    <name><![CDATA[Gouvet]]></name>
  </wpt>
  <wpt lat="48.93558" lon="-1.02774">
    <ele>48</ele>
    <type><![CDATA[Waypoint]]></type>
  </wpt>
  <wpt lat="49.02065" lon="-0.92388">
    <ele>139.7</ele>
    <type><![CDATA[alarm]]></type>
  </wpt>
  <wpt lat="49.02981" lon="-0.90702">
    <ele>181.2</ele>
    <type><![CDATA[alarm]]></type>
  </wpt>
  <wpt lat="49.05257" lon="-0.90144">
    <ele>134.3</ele>
    <type><![CDATA[alarm]]></type>
  </wpt>
  <wpt lat="49.08597" lon="-0.96383">
    <ele>140.7</ele>
  </wpt>
  <wpt lat="49.08152" lon="-0.88906">
    <ele>96.3</ele>
    <type><![CDATA[alarm]]></type>
  </wpt>
  <wpt lat="49.08517" lon="-0.90799">
    <ele>130.6</ele>
    <type><![CDATA[alarm]]></type>
  </wpt>
  <wpt lat="49.10422" lon="-0.9407">
    <ele>165.3</ele>
    <type><![CDATA[alarm]]></type>
  </wpt>
  <wpt lat="49.09815" lon="-0.90157">
    <ele>136.5</ele>
    <type><![CDATA[alarm]]></type>
  </wpt>
  <wpt lat="49.10905" lon="-0.8856">
    <ele>110.1</ele>
    <type><![CDATA[alarm]]></type>
  </wpt>
  <wpt lat="49.13006" lon="-0.85453">
    <ele>103.7</ele>
    <type><![CDATA[Waypoint]]></type>
  </wpt>
  <wpt lat="49.15387" lon="-0.90363">
    <ele>120.9</ele>
    <type><![CDATA[Waypoint]]></type>
  </wpt>
  <wpt lat="49.20807" lon="-1.02036">
    <ele>48</ele>
    <type><![CDATA[Waypoint]]></type>
  </wpt>
  <wpt lat="49.21154" lon="-1.04353">
    <ele>42</ele>
    <type><![CDATA[alarm]]></type>
  </wpt>
  <wpt lat="49.24764" lon="-1.04404">
    <ele>49.7</ele>
    <type><![CDATA[Waypoint]]></type>
  </wpt>
  <wpt lat="49.22163" lon="-1.07975">
    <ele>7</ele>
  </wpt>
  <wpt lat="49.21984" lon="-1.09108">
    <ele>10.4</ele>
  </wpt>
  <wpt lat="49.27486" lon="-1.14636">
    <ele>26.9</ele>
    <type><![CDATA[Waypoint]]></type>
  </wpt>
  <wpt lat="49.22578" lon="-1.1661">
    <ele>36.2</ele>
    <type><![CDATA[alarm]]></type>
  </wpt>
  <wpt lat="49.20392" lon="-1.16695">
    <ele>32.9</ele>
    <type><![CDATA[alarm]]></type>
  </wpt>
  <wpt lat="49.23867" lon="-1.20163">
    <ele>11.2</ele>
    <type><![CDATA[alarm]]></type>
  </wpt>
  <wpt lat="49.15432" lon="-1.17863">
    <ele>22.5</ele>
  </wpt>
  <wpt lat="49.18952" lon="-1.18887">
    <ele>7</ele>
    <type><![CDATA[alarm]]></type>
  </wpt>
  <wpt lat="49.18222" lon="-1.23039">
    <ele>26.4</ele>
    <type><![CDATA[alarm]]></type>
  </wpt>
  <wpt lat="49.21347" lon="-1.24204">
    <ele>4.8</ele>
    <type><![CDATA[Waypoint]]></type>
  </wpt>
  <wpt lat="49.1808" lon="-1.25758">
    <ele>13.8</ele>
    <type><![CDATA[alarm]]></type>
  </wpt>
  <wpt lat="49.18778" lon="-1.29084">
    <ele>16</ele>
    <type><![CDATA[Waypoint]]></type>
  </wpt>
  <wpt lat="49.16038" lon="-1.283">
    <ele>10.4</ele>
    <type><![CDATA[alarm]]></type>
  </wpt>
  <wpt lat="49.15028" lon="-1.23047">
    <ele>31.3</ele>
    <type><![CDATA[alarm]]></type>
  </wpt>
  <wpt lat="49.13635" lon="-1.23768">
    <ele>50.1</ele>
    <type><![CDATA[alarm]]></type>
  </wpt>
  <wpt lat="49.14219" lon="-1.26171">
    <ele>20.4</ele>
    <type><![CDATA[alarm]]></type>
  </wpt>
  <wpt lat="49.12665" lon="-1.30103">
    <ele>62.3</ele>
    <type><![CDATA[Waypoint]]></type>
  </wpt>
  <wpt lat="48.93677" lon="-1.03545">
    <ele>62.5</ele>
    <type><![CDATA[alarm]]></type>
  </wpt>
  <trk>
    <name><![CDATA[1) Saint-Lô]]></name>
    <extensions>
      <line xmlns="http://www.topografix.com/GPX/gpx_style/0/2">
        <color>ff0000</color>
        <opacity>1</opacity>
        <width>4</width>
          <extensions>
            <sens>1</sens>
          </extensions>
      </line>
    </extensions>
    <trkseg>
      <trkpt lat="49.11599" lon="-1.09185">
        <ele>38.6</ele>
        <extensions>
          <visugpx:TrkExtension xmlns:visugpx="https://www.visugpx.com/editgpx/">
            <visugpx:node>1</visugpx:node>
            </visugpx:TrkExtension>
        </extensions>
      </trkpt>
      <trkpt lat="49.11596" lon="-1.09179">
        <ele>38.8</ele>
      </trkpt>
      <trkpt lat="49.11605" lon="-1.09169">
        <ele>38.9</ele>
      </trkpt>
      <trkpt lat="49.11622" lon="-1.09151">
        <ele>38.3</ele>
      </trkpt>
      <trkpt lat="49.11624" lon="-1.09094">
        <ele>39.3</ele>
      </trkpt>
      <trkpt lat="49.11636" lon="-1.09064">
        <ele>40</ele>
      </trkpt>
      <trkpt lat="49.11637" lon="-1.09019">
        <ele>40.4</ele>
      </trkpt>
      <trkpt lat="49.1157" lon="-1.09">
        <ele>41</ele>
      </trkpt>
      <trkpt lat="49.11571" lon="-1.08885">
        <ele>43.1</ele>
      </trkpt>
      <trkpt lat="49.11628" lon="-1.08884">
        <ele>44.2</ele>
      </trkpt>
      <trkpt lat="49.1173" lon="-1.08897">
        <ele>42.9</ele>
      </trkpt>
      <trkpt lat="49.11785" lon="-1.08902">
        <ele>41.9</ele>
      </trkpt>
      <trkpt lat="49.11796" lon="-1.08886">
        <ele>40.3</ele>
      </trkpt>
      <trkpt lat="49.1181" lon="-1.08764">
        <ele>35.5</ele>
      </trkpt>
      <trkpt lat="49.11828" lon="-1.08852">
        <ele>26.3</ele>
      </trkpt>
      <trkpt lat="49.11834" lon="-1.08804">
        <ele>23</ele>
      </trkpt>
      <trkpt lat="49.11843" lon="-1.08817">
        <ele>22.7</ele>
      </trkpt>
      <trkpt lat="49.11885" lon="-1.08633">
        <ele>24.6</ele>
      </trkpt>
      <trkpt lat="49.11898" lon="-1.08638">
        <ele>23.7</ele>
      </trkpt>
      <trkpt lat="49.11919" lon="-1.08612">
        <ele>23.1</ele>
      </trkpt>
      <trkpt lat="49.11944" lon="-1.08555">
        <ele>22</ele>
      </trkpt>
      <trkpt lat="49.11974" lon="-1.08514">
        <ele>22.7</ele>
      </trkpt>
      <trkpt lat="49.12" lon="-1.08452">
        <ele>23.3</ele>
      </trkpt>
      <trkpt lat="49.12003" lon="-1.08415">
        <ele>23.6</ele>
      </trkpt>
      <trkpt lat="49.12003" lon="-1.08374">
        <ele>23.9</ele>
      </trkpt>
      <trkpt lat="49.11978" lon="-1.08329">
        <ele>23.6</ele>
      </trkpt>
      <trkpt lat="49.11973" lon="-1.08341">
        <ele>22.2</ele>
      </trkpt>
      <trkpt lat="49.11956" lon="-1.0834">
        <ele>23.7</ele>
      </trkpt>
      <trkpt lat="49.11949" lon="-1.08355">
        <ele>26.2</ele>
      </trkpt>
      <trkpt lat="49.11942" lon="-1.08342">
        <ele>26.1</ele>
      </trkpt>
      <trkpt lat="49.11905" lon="-1.08275">
        <ele>28.1</ele>
      </trkpt>
      <trkpt lat="49.11901" lon="-1.08219">
        <ele>28</ele>
      </trkpt>
      <trkpt lat="49.11903" lon="-1.08175">
        <ele>28.3</ele>
      </trkpt>
      <trkpt lat="49.11918" lon="-1.08128">
        <ele>25.3</ele>
      </trkpt>
      <trkpt lat="49.1192" lon="-1.08066">
        <ele>26.7</ele>
      </trkpt>
      <trkpt lat="49.1192" lon="-1.08013">
        <ele>27.1</ele>
      </trkpt>
      <trkpt lat="49.11921" lon="-1.07983">
        <ele>28.4</ele>
      </trkpt>
      <trkpt lat="49.11933" lon="-1.0793">
        <ele>29.3</ele>
      </trkpt>
      <trkpt lat="49.11933" lon="-1.07874">
        <ele>29.2</ele>
      </trkpt>
      <trkpt lat="49.11942" lon="-1.0786">
        <ele>26.7</ele>
      </trkpt>
      <trkpt lat="49.1195" lon="-1.07823">
        <ele>30.3</ele>
      </trkpt>
      <trkpt lat="49.11938" lon="-1.07799">
        <ele>30.2</ele>
      </trkpt>
      <trkpt lat="49.11972" lon="-1.07725">
        <ele>32.1</ele>
      </trkpt>
      <trkpt lat="49.11971" lon="-1.07721">
        <ele>31.8</ele>
      </trkpt>
      <trkpt lat="49.11993" lon="-1.07656">
        <ele>33.3</ele>
      </trkpt>
      <trkpt lat="49.11992" lon="-1.0758">
        <ele>33.4</ele>
      </trkpt>
      <trkpt lat="49.1201" lon="-1.07515">
        <ele>33.2</ele>
      </trkpt>
      <trkpt lat="49.12125" lon="-1.07358">
        <ele>33.9</ele>
      </trkpt>
      <trkpt lat="49.12181" lon="-1.07283">
        <ele>36.5</ele>
      </trkpt>
      <trkpt lat="49.12186" lon="-1.07243">
        <ele>34.5</ele>
      </trkpt>
      <trkpt lat="49.12194" lon="-1.07137">
        <ele>36</ele>
      </trkpt>
      <trkpt lat="49.12133" lon="-1.06977">
        <ele>39</ele>
      </trkpt>
      <trkpt lat="49.1212" lon="-1.06908">
        <ele>42.6</ele>
      </trkpt>
      <trkpt lat="49.12205" lon="-1.06807">
        <ele>44.9</ele>
      </trkpt>
      <trkpt lat="49.12256" lon="-1.06697">
        <ele>47.3</ele>
      </trkpt>
      <trkpt lat="49.12278" lon="-1.06541">
        <ele>44.1</ele>
      </trkpt>
      <trkpt lat="49.1227" lon="-1.06394">
        <ele>44.9</ele>
      </trkpt>
      <trkpt lat="49.12298" lon="-1.0623">
        <ele>45.3</ele>
      </trkpt>
      <trkpt lat="49.12275" lon="-1.06204">
        <ele>44.4</ele>
      </trkpt>
      <trkpt lat="49.12256" lon="-1.06135">
        <ele>46.6</ele>
      </trkpt>
      <trkpt lat="49.12284" lon="-1.06028">
        <ele>57.9</ele>
      </trkpt>
      <trkpt lat="49.12206" lon="-1.05658">
        <ele>77.7</ele>
      </trkpt>
      <trkpt lat="49.12248" lon="-1.05628">
        <ele>86.9</ele>
      </trkpt>
      <trkpt lat="49.12249" lon="-1.0521">
        <ele>95.2</ele>
      </trkpt>
      <trkpt lat="49.12205" lon="-1.05213">
        <ele>84.2</ele>
      </trkpt>
      <trkpt lat="49.12189" lon="-1.05182">
        <ele>76.6</ele>
      </trkpt>
      <trkpt lat="49.12138" lon="-1.05226">
        <ele>66.1</ele>
      </trkpt>
      <trkpt lat="49.12116" lon="-1.05268">
        <ele>64.8</ele>
      </trkpt>
      <trkpt lat="49.12045" lon="-1.05305">
        <ele>55.2</ele>
      </trkpt>
      <trkpt lat="49.12027" lon="-1.05351">
        <ele>54.9</ele>
      </trkpt>
      <trkpt lat="49.12037" lon="-1.05383">
        <ele>55.1</ele>
      </trkpt>
      <trkpt lat="49.12039" lon="-1.05445">
        <ele>55</ele>
      </trkpt>
      <trkpt lat="49.11993" lon="-1.05723">
        <ele>71.3</ele>
      </trkpt>
      <trkpt lat="49.11945" lon="-1.0581">
        <ele>78.9</ele>
      </trkpt>
      <trkpt lat="49.11929" lon="-1.05912">
        <ele>80.7</ele>
      </trkpt>
      <trkpt lat="49.11891" lon="-1.05965">
        <ele>80.2</ele>
      </trkpt>
      <trkpt lat="49.11865" lon="-1.06068">
        <ele>81.3</ele>
      </trkpt>
      <trkpt lat="49.11783" lon="-1.06054">
        <ele>84</ele>
      </trkpt>
      <trkpt lat="49.11745" lon="-1.06059">
        <ele>84.3</ele>
      </trkpt>
      <trkpt lat="49.11737" lon="-1.06052">
        <ele>85</ele>
      </trkpt>
      <trkpt lat="49.11714" lon="-1.06052">
        <ele>86.3</ele>
      </trkpt>
      <trkpt lat="49.11663" lon="-1.06065">
        <ele>86.7</ele>
      </trkpt>
      <trkpt lat="49.1165" lon="-1.06078">
        <ele>86.2</ele>
      </trkpt>
      <trkpt lat="49.11619" lon="-1.0608">
        <ele>86.8</ele>
      </trkpt>
      <trkpt lat="49.11619" lon="-1.06121">
        <ele>86</ele>
      </trkpt>
      <trkpt lat="49.11504" lon="-1.06168">
        <ele>83.2</ele>
      </trkpt>
      <trkpt lat="49.11456" lon="-1.06168">
        <ele>82</ele>
      </trkpt>
      <trkpt lat="49.11433" lon="-1.06204">
        <ele>80.5</ele>
      </trkpt>
      <trkpt lat="49.11409" lon="-1.06209">
        <ele>79.2</ele>
      </trkpt>
      <trkpt lat="49.11321" lon="-1.06218">
        <ele>73.2</ele>
      </trkpt>
      <trkpt lat="49.11288" lon="-1.06186">
        <ele>74.1</ele>
      </trkpt>
      <trkpt lat="49.11186" lon="-1.06101">
        <ele>78.7</ele>
      </trkpt>
      <trkpt lat="49.11128" lon="-1.05962">
        <ele>84</ele>
      </trkpt>
      <trkpt lat="49.11127" lon="-1.05845">
        <ele>85.7</ele>
      </trkpt>
      <trkpt lat="49.11087" lon="-1.05868">
        <ele>85.1</ele>
      </trkpt>
      <trkpt lat="49.11094" lon="-1.06036">
        <ele>82.2</ele>
      </trkpt>
      <trkpt lat="49.10976" lon="-1.06386">
        <ele>77.8</ele>
      </trkpt>
      <trkpt lat="49.10979" lon="-1.06591">
        <ele>69.5</ele>
      </trkpt>
      <trkpt lat="49.10931" lon="-1.06775">
        <ele>68.5</ele>
      </trkpt>
      <trkpt lat="49.10928" lon="-1.06993">
        <ele>61.8</ele>
      </trkpt>
      <trkpt lat="49.10921" lon="-1.07051">
        <ele>60.7</ele>
      </trkpt>
      <trkpt lat="49.10908" lon="-1.06981">
        <ele>64.2</ele>
      </trkpt>
      <trkpt lat="49.10878" lon="-1.06921">
        <ele>68.1</ele>
      </trkpt>
      <trkpt lat="49.10871" lon="-1.06836">
        <ele>71.2</ele>
      </trkpt>
      <trkpt lat="49.10835" lon="-1.06804">
        <ele>74</ele>
      </trkpt>
      <trkpt lat="49.10758" lon="-1.06561">
        <ele>80.5</ele>
      </trkpt>
      <trkpt lat="49.1073" lon="-1.06579">
        <ele>82.2</ele>
      </trkpt>
      <trkpt lat="49.10701" lon="-1.06729">
        <ele>81.7</ele>
      </trkpt>
      <trkpt lat="49.10683" lon="-1.06766">
        <ele>82.5</ele>
      </trkpt>
      <trkpt lat="49.10663" lon="-1.06845">
        <ele>81.7</ele>
      </trkpt>
      <trkpt lat="49.10664" lon="-1.06978">
        <ele>79</ele>
      </trkpt>
      <trkpt lat="49.10565" lon="-1.0708">
        <ele>81.9</ele>
      </trkpt>
      <trkpt lat="49.10567" lon="-1.07134">
        <ele>82.1</ele>
      </trkpt>
      <trkpt lat="49.10556" lon="-1.07276">
        <ele>83</ele>
      </trkpt>
      <trkpt lat="49.10579" lon="-1.07297">
        <ele>81.7</ele>
      </trkpt>
      <trkpt lat="49.10589" lon="-1.07311">
        <ele>81</ele>
      </trkpt>
      <trkpt lat="49.10585" lon="-1.07389">
        <ele>81</ele>
      </trkpt>
      <trkpt lat="49.10581" lon="-1.07469">
        <ele>79.3</ele>
      </trkpt>
      <trkpt lat="49.10553" lon="-1.07598">
        <ele>74.5</ele>
      </trkpt>
      <trkpt lat="49.10537" lon="-1.0772">
        <ele>71.4</ele>
      </trkpt>
      <trkpt lat="49.10444" lon="-1.08011">
        <ele>76.6</ele>
      </trkpt>
      <trkpt lat="49.105" lon="-1.08081">
        <ele>73</ele>
      </trkpt>
      <trkpt lat="49.10595" lon="-1.08238">
        <ele>65.5</ele>
      </trkpt>
      <trkpt lat="49.10635" lon="-1.08277">
        <ele>62.3</ele>
      </trkpt>
      <trkpt lat="49.10688" lon="-1.08357">
        <ele>56.4</ele>
      </trkpt>
      <trkpt lat="49.10751" lon="-1.08425">
        <ele>51.4</ele>
      </trkpt>
      <trkpt lat="49.10799" lon="-1.08447">
        <ele>50.1</ele>
      </trkpt>
      <trkpt lat="49.10845" lon="-1.0848">
        <ele>52</ele>
      </trkpt>
      <trkpt lat="49.10884" lon="-1.08559">
        <ele>52.2</ele>
      </trkpt>
      <trkpt lat="49.10778" lon="-1.08662">
        <ele>56</ele>
      </trkpt>
      <trkpt lat="49.10769" lon="-1.08647">
        <ele>56.5</ele>
      </trkpt>
      <trkpt lat="49.10617" lon="-1.08664">
        <ele>59</ele>
      </trkpt>
      <trkpt lat="49.1058" lon="-1.08685">
        <ele>62.8</ele>
      </trkpt>
      <trkpt lat="49.10549" lon="-1.08717">
        <ele>64.5</ele>
      </trkpt>
      <trkpt lat="49.10502" lon="-1.08653">
        <ele>65.9</ele>
      </trkpt>
      <trkpt lat="49.10414" lon="-1.08579">
        <ele>71.2</ele>
      </trkpt>
      <trkpt lat="49.10343" lon="-1.08677">
        <ele>76.6</ele>
      </trkpt>
      <trkpt lat="49.10303" lon="-1.08587">
        <ele>80.2</ele>
      </trkpt>
      <trkpt lat="49.10251" lon="-1.08607">
        <ele>83.1</ele>
      </trkpt>
      <trkpt lat="49.10177" lon="-1.08597">
        <ele>86.9</ele>
      </trkpt>
      <trkpt lat="49.10105" lon="-1.08525">
        <ele>90.2</ele>
      </trkpt>
      <trkpt lat="49.10074" lon="-1.08411">
        <ele>92.1</ele>
      </trkpt>
      <trkpt lat="49.10052" lon="-1.08388">
        <ele>93</ele>
      </trkpt>
      <trkpt lat="49.10071" lon="-1.08317">
        <ele>92.8</ele>
      </trkpt>
      <trkpt lat="49.10067" lon="-1.08262">
        <ele>92.8</ele>
      </trkpt>
      <trkpt lat="49.1" lon="-1.08283">
        <ele>93</ele>
      </trkpt>
      <trkpt lat="49.09966" lon="-1.08279">
        <ele>93</ele>
      </trkpt>
      <trkpt lat="49.09899" lon="-1.08655">
        <ele>92</ele>
      </trkpt>
      <trkpt lat="49.09887" lon="-1.08802">
        <ele>93.3</ele>
      </trkpt>
      <trkpt lat="49.09885" lon="-1.08999">
        <ele>92.4</ele>
      </trkpt>
      <trkpt lat="49.09901" lon="-1.09141">
        <ele>90</ele>
      </trkpt>
      <trkpt lat="49.09949" lon="-1.093">
        <ele>84.4</ele>
      </trkpt>
      <trkpt lat="49.09992" lon="-1.09367">
        <ele>84.1</ele>
      </trkpt>
      <trkpt lat="49.10046" lon="-1.09352">
        <ele>82.3</ele>
      </trkpt>
      <trkpt lat="49.10047" lon="-1.09207">
        <ele>85.2</ele>
      </trkpt>
      <trkpt lat="49.1006" lon="-1.09213">
        <ele>85</ele>
      </trkpt>
      <trkpt lat="49.10064" lon="-1.09142">
        <ele>85.9</ele>
      </trkpt>
      <trkpt lat="49.10124" lon="-1.08868">
        <ele>85.4</ele>
      </trkpt>
      <trkpt lat="49.10229" lon="-1.08936">
        <ele>81.2</ele>
      </trkpt>
      <trkpt lat="49.10406" lon="-1.08972">
        <ele>76.8</ele>
      </trkpt>
      <trkpt lat="49.10459" lon="-1.08949">
        <ele>72.1</ele>
      </trkpt>
      <trkpt lat="49.10486" lon="-1.08964">
        <ele>70.7</ele>
      </trkpt>
      <trkpt lat="49.10471" lon="-1.09284">
        <ele>75.1</ele>
      </trkpt>
      <trkpt lat="49.10455" lon="-1.0941">
        <ele>72.8</ele>
      </trkpt>
      <trkpt lat="49.10384" lon="-1.09395">
        <ele>77.4</ele>
      </trkpt>
      <trkpt lat="49.10383" lon="-1.09515">
        <ele>76.7</ele>
      </trkpt>
      <trkpt lat="49.10388" lon="-1.09735">
        <ele>70.6</ele>
      </trkpt>
      <trkpt lat="49.10492" lon="-1.09771">
        <ele>66.8</ele>
      </trkpt>
      <trkpt lat="49.10591" lon="-1.09789">
        <ele>59</ele>
      </trkpt>
      <trkpt lat="49.10627" lon="-1.09808">
        <ele>56.9</ele>
      </trkpt>
      <trkpt lat="49.10694" lon="-1.09863">
        <ele>51.1</ele>
      </trkpt>
      <trkpt lat="49.10773" lon="-1.09878">
        <ele>45.7</ele>
      </trkpt>
      <trkpt lat="49.10848" lon="-1.09879">
        <ele>40.3</ele>
      </trkpt>
      <trkpt lat="49.10813" lon="-1.09985">
        <ele>44.2</ele>
      </trkpt>
      <trkpt lat="49.10802" lon="-1.10073">
        <ele>42.6</ele>
      </trkpt>
      <trkpt lat="49.10784" lon="-1.10083">
        <ele>43.6</ele>
      </trkpt>
      <trkpt lat="49.10765" lon="-1.1017">
        <ele>41.4</ele>
      </trkpt>
      <trkpt lat="49.10683" lon="-1.10213">
        <ele>43.1</ele>
      </trkpt>
      <trkpt lat="49.10622" lon="-1.10324">
        <ele>46.1</ele>
      </trkpt>
      <trkpt lat="49.10568" lon="-1.10327">
        <ele>49.1</ele>
      </trkpt>
      <trkpt lat="49.10455" lon="-1.10409">
        <ele>51.4</ele>
      </trkpt>
      <trkpt lat="49.10369" lon="-1.10478">
        <ele>54.4</ele>
      </trkpt>
      <trkpt lat="49.10454" lon="-1.10558">
        <ele>49.6</ele>
      </trkpt>
      <trkpt lat="49.10432" lon="-1.10642">
        <ele>49.7</ele>
      </trkpt>
      <trkpt lat="49.10412" lon="-1.10695">
        <ele>51.3</ele>
      </trkpt>
      <trkpt lat="49.10409" lon="-1.10728">
        <ele>49.7</ele>
      </trkpt>
      <trkpt lat="49.10388" lon="-1.10724">
        <ele>52.1</ele>
      </trkpt>
      <trkpt lat="49.10367" lon="-1.10885">
        <ele>50.9</ele>
      </trkpt>
      <trkpt lat="49.10322" lon="-1.109">
        <ele>49.5</ele>
      </trkpt>
      <trkpt lat="49.10289" lon="-1.1087">
        <ele>50.1</ele>
      </trkpt>
      <trkpt lat="49.10275" lon="-1.10856">
        <ele>50.2</ele>
      </trkpt>
      <trkpt lat="49.10269" lon="-1.10828">
        <ele>51.3</ele>
      </trkpt>
      <trkpt lat="49.10279" lon="-1.10795">
        <ele>52.4</ele>
      </trkpt>
      <trkpt lat="49.10325" lon="-1.10736">
        <ele>53.7</ele>
      </trkpt>
      <trkpt lat="49.10352" lon="-1.10714">
        <ele>53.3</ele>
      </trkpt>
      <trkpt lat="49.10382" lon="-1.10699">
        <ele>52.9</ele>
      </trkpt>
      <trkpt lat="49.10378" lon="-1.10691">
        <ele>52.8</ele>
      </trkpt>
      <trkpt lat="49.10351" lon="-1.10698">
        <ele>53.4</ele>
      </trkpt>
      <trkpt lat="49.1032" lon="-1.10694">
        <ele>54.5</ele>
      </trkpt>
      <trkpt lat="49.10301" lon="-1.10654">
        <ele>55.1</ele>
      </trkpt>
      <trkpt lat="49.10294" lon="-1.10584">
        <ele>55.4</ele>
      </trkpt>
      <trkpt lat="49.10281" lon="-1.10545">
        <ele>55</ele>
      </trkpt>
      <trkpt lat="49.10075" lon="-1.1074">
        <ele>58.7</ele>
      </trkpt>
      <trkpt lat="49.10078" lon="-1.10764">
        <ele>58.2</ele>
      </trkpt>
      <trkpt lat="49.10074" lon="-1.10847">
        <ele>58.7</ele>
      </trkpt>
      <trkpt lat="49.10041" lon="-1.1098">
        <ele>61.5</ele>
      </trkpt>
      <trkpt lat="49.10043" lon="-1.11031">
        <ele>61.5</ele>
      </trkpt>
      <trkpt lat="49.10064" lon="-1.11107">
        <ele>60.2</ele>
      </trkpt>
      <trkpt lat="49.10176" lon="-1.11237">
        <ele>56.3</ele>
      </trkpt>
      <trkpt lat="49.10312" lon="-1.11351">
        <ele>51.5</ele>
      </trkpt>
      <trkpt lat="49.10342" lon="-1.11422">
        <ele>49.7</ele>
      </trkpt>
      <trkpt lat="49.10341" lon="-1.11409">
        <ele>49.9</ele>
      </trkpt>
      <trkpt lat="49.10397" lon="-1.11535">
        <ele>47.7</ele>
      </trkpt>
      <trkpt lat="49.10462" lon="-1.11613">
        <ele>45.9</ele>
      </trkpt>
      <trkpt lat="49.1058" lon="-1.1166">
        <ele>42.2</ele>
      </trkpt>
      <trkpt lat="49.10739" lon="-1.11749">
        <ele>35</ele>
      </trkpt>
      <trkpt lat="49.10857" lon="-1.11876">
        <ele>24</ele>
      </trkpt>
      <trkpt lat="49.10983" lon="-1.12097">
        <ele>17.3</ele>
      </trkpt>
      <trkpt lat="49.11059" lon="-1.12294">
        <ele>29.8</ele>
      </trkpt>
      <trkpt lat="49.11039" lon="-1.1222">
        <ele>23.2</ele>
      </trkpt>
      <trkpt lat="49.11042" lon="-1.12195">
        <ele>19.6</ele>
      </trkpt>
      <trkpt lat="49.10951" lon="-1.1228">
        <ele>14.6</ele>
      </trkpt>
      <trkpt lat="49.10928" lon="-1.1224">
        <ele>11.4</ele>
      </trkpt>
      <trkpt lat="49.10974" lon="-1.12215">
        <ele>11.7</ele>
      </trkpt>
      <trkpt lat="49.11016" lon="-1.12168">
        <ele>12.4</ele>
      </trkpt>
      <trkpt lat="49.11058" lon="-1.12091">
        <ele>11.8</ele>
      </trkpt>
      <trkpt lat="49.11082" lon="-1.12009">
        <ele>12.2</ele>
      </trkpt>
      <trkpt lat="49.11092" lon="-1.11959">
        <ele>12</ele>
      </trkpt>
      <trkpt lat="49.11089" lon="-1.11848">
        <ele>11.2</ele>
      </trkpt>
      <trkpt lat="49.11106" lon="-1.11808">
        <ele>11.6</ele>
      </trkpt>
      <trkpt lat="49.11183" lon="-1.11748">
        <ele>12.1</ele>
      </trkpt>
      <trkpt lat="49.11219" lon="-1.11632">
        <ele>13.3</ele>
      </trkpt>
      <trkpt lat="49.11236" lon="-1.11532">
        <ele>13.6</ele>
      </trkpt>
      <trkpt lat="49.11233" lon="-1.11428">
        <ele>11.6</ele>
      </trkpt>
      <trkpt lat="49.11248" lon="-1.1131">
        <ele>12.9</ele>
      </trkpt>
      <trkpt lat="49.11251" lon="-1.11183">
        <ele>12.4</ele>
      </trkpt>
      <trkpt lat="49.11248" lon="-1.11142">
        <ele>11.9</ele>
      </trkpt>
      <trkpt lat="49.11226" lon="-1.11072">
        <ele>11</ele>
      </trkpt>
      <trkpt lat="49.11216" lon="-1.11028">
        <ele>10.8</ele>
      </trkpt>
      <trkpt lat="49.1123" lon="-1.10955">
        <ele>10.5</ele>
      </trkpt>
      <trkpt lat="49.11269" lon="-1.10887">
        <ele>10.7</ele>
      </trkpt>
      <trkpt lat="49.1129" lon="-1.10853">
        <ele>12.1</ele>
      </trkpt>
      <trkpt lat="49.113" lon="-1.10829">
        <ele>12.2</ele>
      </trkpt>
      <trkpt lat="49.11314" lon="-1.10702">
        <ele>10.9</ele>
      </trkpt>
      <trkpt lat="49.11318" lon="-1.10627">
        <ele>10.7</ele>
      </trkpt>
      <trkpt lat="49.11345" lon="-1.10536">
        <ele>10.9</ele>
      </trkpt>
      <trkpt lat="49.1139" lon="-1.10447">
        <ele>12.4</ele>
      </trkpt>
      <trkpt lat="49.11421" lon="-1.10383">
        <ele>13.3</ele>
      </trkpt>
      <trkpt lat="49.1145" lon="-1.10292">
        <ele>12.1</ele>
      </trkpt>
      <trkpt lat="49.11462" lon="-1.10267">
        <ele>12.2</ele>
      </trkpt>
      <trkpt lat="49.11495" lon="-1.10136">
        <ele>13.3</ele>
      </trkpt>
      <trkpt lat="49.1152" lon="-1.10152">
        <ele>14.4</ele>
      </trkpt>
      <trkpt lat="49.11592" lon="-1.10047">
        <ele>14.2</ele>
      </trkpt>
      <trkpt lat="49.11653" lon="-1.0999">
        <ele>14.2</ele>
      </trkpt>
      <trkpt lat="49.11668" lon="-1.09974">
        <ele>14</ele>
      </trkpt>
      <trkpt lat="49.11713" lon="-1.09946">
        <ele>14</ele>
      </trkpt>
      <trkpt lat="49.11732" lon="-1.09891">
        <ele>14</ele>
      </trkpt>
      <trkpt lat="49.11748" lon="-1.09856">
        <ele>13.1</ele>
      </trkpt>
      <trkpt lat="49.11755" lon="-1.09839">
        <ele>11.3</ele>
      </trkpt>
      <trkpt lat="49.11804" lon="-1.09825">
        <ele>13.1</ele>
      </trkpt>
      <trkpt lat="49.11871" lon="-1.09815">
        <ele>11.5</ele>
      </trkpt>
      <trkpt lat="49.11923" lon="-1.09824">
        <ele>13</ele>
      </trkpt>
      <trkpt lat="49.11943" lon="-1.09816">
        <ele>12.1</ele>
      </trkpt>
      <trkpt lat="49.11937" lon="-1.09794">
        <ele>10.7</ele>
      </trkpt>
      <trkpt lat="49.11922" lon="-1.09771">
        <ele>10.2</ele>
      </trkpt>
      <trkpt lat="49.11926" lon="-1.09722">
        <ele>13</ele>
      </trkpt>
      <trkpt lat="49.11873" lon="-1.0969">
        <ele>11.9</ele>
      </trkpt>
      <trkpt lat="49.11864" lon="-1.09658">
        <ele>13.5</ele>
      </trkpt>
      <trkpt lat="49.11809" lon="-1.09677">
        <ele>13.8</ele>
      </trkpt>
      <trkpt lat="49.11758" lon="-1.09679">
        <ele>15</ele>
      </trkpt>
      <trkpt lat="49.11756" lon="-1.09734">
        <ele>13.4</ele>
      </trkpt>
      <trkpt lat="49.11736" lon="-1.09775">
        <ele>13.1</ele>
      </trkpt>
      <trkpt lat="49.11706" lon="-1.09791">
        <ele>13.6</ele>
      </trkpt>
      <trkpt lat="49.11684" lon="-1.09747">
        <ele>15.5</ele>
      </trkpt>
      <trkpt lat="49.11621" lon="-1.09779">
        <ele>15.2</ele>
      </trkpt>
      <trkpt lat="49.11475" lon="-1.09824">
        <ele>14.6</ele>
      </trkpt>
      <trkpt lat="49.11462" lon="-1.09773">
        <ele>18.7</ele>
      </trkpt>
      <trkpt lat="49.11481" lon="-1.09599">
        <ele>23.2</ele>
      </trkpt>
      <trkpt lat="49.11464" lon="-1.09498">
        <ele>20.1</ele>
      </trkpt>
      <trkpt lat="49.11477" lon="-1.09459">
        <ele>24.2</ele>
      </trkpt>
      <trkpt lat="49.11471" lon="-1.0941">
        <ele>25.3</ele>
      </trkpt>
      <trkpt lat="49.11463" lon="-1.094">
        <ele>23.7</ele>
      </trkpt>
      <trkpt lat="49.11465" lon="-1.09368">
        <ele>22.9</ele>
      </trkpt>
      <trkpt lat="49.11472" lon="-1.0933">
        <ele>24.2</ele>
      </trkpt>
      <trkpt lat="49.11485" lon="-1.09271">
        <ele>30.6</ele>
      </trkpt>
      <trkpt lat="49.11491" lon="-1.092">
        <ele>30.3</ele>
      </trkpt>
      <trkpt lat="49.11494" lon="-1.09191">
        <ele>29.9</ele>
      </trkpt>
      <trkpt lat="49.11486" lon="-1.09179">
        <ele>29.8</ele>
      </trkpt>
      <trkpt lat="49.11432" lon="-1.09171">
        <ele>27</ele>
      </trkpt>
      <trkpt lat="49.11434" lon="-1.09047">
        <ele>31.4</ele>
      </trkpt>
      <trkpt lat="49.11406" lon="-1.0903">
        <ele>28.8</ele>
      </trkpt>
      <trkpt lat="49.11403" lon="-1.08932">
        <ele>34.7</ele>
      </trkpt>
      <trkpt lat="49.1139" lon="-1.0886">
        <ele>38</ele>
      </trkpt>
      <trkpt lat="49.11375" lon="-1.0883">
        <ele>34.4</ele>
      </trkpt>
      <trkpt lat="49.11375" lon="-1.08761">
        <ele>34.4</ele>
      </trkpt>
      <trkpt lat="49.11393" lon="-1.08574">
        <ele>38.4</ele>
      </trkpt>
      <trkpt lat="49.11401" lon="-1.08564">
        <ele>39.5</ele>
      </trkpt>
      <trkpt lat="49.11405" lon="-1.08464">
        <ele>38.6</ele>
      </trkpt>
      <trkpt lat="49.11413" lon="-1.08414">
        <ele>40.9</ele>
      </trkpt>
      <trkpt lat="49.11413" lon="-1.08242">
        <ele>41.4</ele>
      </trkpt>
      <trkpt lat="49.1142" lon="-1.08241">
        <ele>43.1</ele>
      </trkpt>
      <trkpt lat="49.11464" lon="-1.0828">
        <ele>49.1</ele>
      </trkpt>
      <trkpt lat="49.11527" lon="-1.08299">
        <ele>53.2</ele>
      </trkpt>
      <trkpt lat="49.11557" lon="-1.08314">
        <ele>53.7</ele>
      </trkpt>
      <trkpt lat="49.11563" lon="-1.08295">
        <ele>54.1</ele>
      </trkpt>
      <trkpt lat="49.11625" lon="-1.08307">
        <ele>56.5</ele>
      </trkpt>
      <trkpt lat="49.11618" lon="-1.08469">
        <ele>53.2</ele>
      </trkpt>
      <trkpt lat="49.11611" lon="-1.08518">
        <ele>52</ele>
      </trkpt>
      <trkpt lat="49.11613" lon="-1.08584">
        <ele>50</ele>
      </trkpt>
      <trkpt lat="49.11633" lon="-1.08586">
        <ele>50.7</ele>
      </trkpt>
      <trkpt lat="49.11632" lon="-1.08656">
        <ele>48.3</ele>
      </trkpt>
      <trkpt lat="49.11627" lon="-1.08863">
        <ele>44.9</ele>
      </trkpt>
      <trkpt lat="49.11562" lon="-1.08859">
        <ele>43.2</ele>
      </trkpt>
      <trkpt lat="49.11559" lon="-1.09007">
        <ele>40.8</ele>
      </trkpt>
      <trkpt lat="49.11543" lon="-1.09004">
        <ele>40.4</ele>
      </trkpt>
      <trkpt lat="49.11535" lon="-1.09176">
        <ele>37.8</ele>
      </trkpt>
      <trkpt lat="49.11514" lon="-1.09178">
        <ele>33.9</ele>
      </trkpt>
      <trkpt lat="49.1151" lon="-1.09223">
        <ele>36.1</ele>
      </trkpt>
      <trkpt lat="49.11509" lon="-1.09271">
        <ele>36.1</ele>
      </trkpt>
      <trkpt lat="49.1151" lon="-1.09283">
        <ele>35.7</ele>
      </trkpt>
      <trkpt lat="49.11511" lon="-1.09305">
        <ele>34.8</ele>
      </trkpt>
      <trkpt lat="49.11497" lon="-1.09296">
        <ele>33.6</ele>
      </trkpt>
      <trkpt lat="49.11491" lon="-1.09306">
        <ele>31</ele>
      </trkpt>
      <trkpt lat="49.11486" lon="-1.09363">
        <ele>29.1</ele>
      </trkpt>
      <trkpt lat="49.11477" lon="-1.094">
        <ele>26.6</ele>
      </trkpt>
      <trkpt lat="49.11481" lon="-1.09448">
        <ele>26.8</ele>
      </trkpt>
      <trkpt lat="49.1149" lon="-1.09471">
        <ele>29.5</ele>
      </trkpt>
      <trkpt lat="49.11491" lon="-1.09487">
        <ele>29.2</ele>
      </trkpt>
      <trkpt lat="49.11492" lon="-1.09505">
        <ele>29.1</ele>
      </trkpt>
      <trkpt lat="49.11496" lon="-1.09563">
        <ele>32</ele>
      </trkpt>
      <trkpt lat="49.11496" lon="-1.09577">
        <ele>32</ele>
      </trkpt>
      <trkpt lat="49.1149" lon="-1.09688">
        <ele>29.3</ele>
      </trkpt>
      <trkpt lat="49.11485" lon="-1.09758">
        <ele>27.6</ele>
      </trkpt>
      <trkpt lat="49.11489" lon="-1.09791">
        <ele>25.3</ele>
      </trkpt>
      <trkpt lat="49.11499" lon="-1.09797">
        <ele>27.5</ele>
      </trkpt>
      <trkpt lat="49.11516" lon="-1.09782">
        <ele>31.6</ele>
      </trkpt>
      <trkpt lat="49.11536" lon="-1.09762">
        <ele>32.1</ele>
      </trkpt>
      <trkpt lat="49.11569" lon="-1.09747">
        <ele>31.9</ele>
      </trkpt>
      <trkpt lat="49.11598" lon="-1.09737">
        <ele>31.1</ele>
      </trkpt>
      <trkpt lat="49.11621" lon="-1.09738">
        <ele>28.8</ele>
      </trkpt>
      <trkpt lat="49.11651" lon="-1.09731">
        <ele>28.5</ele>
      </trkpt>
      <trkpt lat="49.11673" lon="-1.09712">
        <ele>27.8</ele>
      </trkpt>
      <trkpt lat="49.11677" lon="-1.09683">
        <ele>26.4</ele>
      </trkpt>
      <trkpt lat="49.11679" lon="-1.09653">
        <ele>24.7</ele>
      </trkpt>
      <trkpt lat="49.11676" lon="-1.09635">
        <ele>26</ele>
      </trkpt>
      <trkpt lat="49.11666" lon="-1.09629">
        <ele>31</ele>
      </trkpt>
      <trkpt lat="49.11658" lon="-1.09625">
        <ele>31.5</ele>
      </trkpt>
      <trkpt lat="49.11656" lon="-1.09602">
        <ele>31.7</ele>
      </trkpt>
      <trkpt lat="49.11659" lon="-1.09565">
        <ele>32.6</ele>
      </trkpt>
      <trkpt lat="49.11658" lon="-1.09548">
        <ele>33.5</ele>
      </trkpt>
      <trkpt lat="49.11661" lon="-1.0953">
        <ele>33.9</ele>
      </trkpt>
      <trkpt lat="49.11628" lon="-1.09412">
        <ele>31.6</ele>
      </trkpt>
      <trkpt lat="49.11613" lon="-1.09363">
        <ele>35.7</ele>
      </trkpt>
      <trkpt lat="49.11608" lon="-1.09306">
        <ele>37</ele>
      </trkpt>
      <trkpt lat="49.11612" lon="-1.09242">
        <ele>37.5</ele>
      </trkpt>
      <trkpt lat="49.11609" lon="-1.09186">
        <ele>38.4</ele>
      </trkpt>
      <trkpt lat="49.11599" lon="-1.09185">
        <ele>38.6</ele>
      </trkpt>
    </trkseg>
  </trk>
</gpx>